{"type":"FeatureCollection","features":[{"type":"Feature","properties":{"id":"ottoman","name":"Ottoman Empire","period":"1683","precision":"approximate","source":"Georeferenced and digitised from the supplied classroom 1683 reference; not a boundary survey; coastline aligned by intersecting the source outer extent with Natural Earth land"},"geometry":{"type":"MultiPolygon","coordinates":[[[[-0.03460343094897648,35.94931818288387],[0.19866,35.94374],[0.51716,36.09158],[1.83443,36.12343],[2.0462,36.27617],[3.22862,36.36857],[5.23912,35.77956],[6.72002,34.87745],[7.19378,34.2976],[7.30706,33.86847],[7.69764,33.49911],[7.61984,33.09809],[7.92529,31.93268],[7.87433,29.72199],[8.06018,29.18889],[8.69906,28.55599],[9.52447,28.46845],[10.70932,28.01941],[13.31963,27.95405],[13.77891,28.24639],[14.09737,28.24822],[16.57987,30.2749],[18.56019,30.36336],[21.08716,29.73663],[21.21953,29.43797],[22.63958,28.60359],[24.28223,26.73603],[24.45883,26.22274],[24.68099,26.11439],[24.99631,25.49492],[25.45873,23.03663],[25.60536,20.99232],[26.24521,19.75563],[27.26631,19.02832],[29.09192,19.01629],[29.6321,19.31913],[30.03109,19.31947],[30.68654,19.12052],[31.43211,18.42402],[31.15786,15.29437],[31.36918,14.89408],[32.49654,13.91324],[33.29992,13.53739],[33.66175,13.5526],[34.56684,13.18891],[35.95138,13.0627],[36.60416,12.79872],[37.07821,12.11621],[37.08052,11.29699],[37.32491,10.59412],[38.2154,9.72786],[40.0317,9.34809],[42.54043,9.66853],[42.8989,10.01575],[43.11265,10.03581],[43.48076,10.49009],[43.580378409769,11.046370567598307],[43.470703,11.27771],[43.145325,11.462097],[42.715881,11.735718],[43.175791802543245,11.928507719630183],[41.92293,11.59174],[41.72125,11.67634],[41.35845,11.33151],[40.7081,11.27282],[40.3947,11.34868],[39.54632,12.30566],[40.0191,13.37189],[41.01073,13.56754],[41.3749291228303,14.290409739322623],[41.179321,14.491089],[39.81427,15.43573],[39.266113,15.922729],[38.990723,16.840698],[38.410095,17.998291],[37.862671,18.36792],[37.481873,18.614075],[37.114685,19.808105],[36.969482,20.837524],[37.188721,21.018921],[36.866272,22.000122],[36.690674,22.204895],[35.526123,23.102478],[35.493713,23.752502],[35.692505,23.926697],[34.795105,25.033875],[34.473877,25.598694],[34.104675,26.142273],[33.348877,27.69989],[32.734924,28.705322],[32.320496,29.760498],[32.423279,29.851074],[33.136902,28.417725],[33.588074,27.971497],[33.921509,27.648682],[34.15448,27.823303],[34.426697,28.344116],[34.641724,29.099487],[34.922729,29.501282],[34.956116,29.356689],[34.832275,28.95752],[34.787903,28.607483],[34.632324,28.058472],[35.13031,28.063477],[35.64032,27.376526],[36.249084,26.570129],[36.639709,25.826294],[36.931702,25.603088],[37.209473,25.084473],[37.154907,24.858521],[37.483704,24.285522],[38.023926,24.078674],[38.49292,23.688477],[39.066284,22.579712],[39.023682,21.986877],[39.139526,21.29187],[39.801697,20.338928],[40.247681,20.174683],[40.93927,19.486511],[41.221497,18.671692],[41.754517,17.83313],[42.270874,17.47467],[42.348083,17.075928],[42.42374109879537,17.00037700383226],[42.61417,17.82029],[42.43415,19.50727],[41.93208,20.13431],[41.95979,20.33636],[41.00896,21.18507],[41.04111,21.38341],[41.38569,21.72347],[41.58082,21.75306],[41.63593,22.15055],[41.34688,22.10462],[41.00497,21.76465],[40.50007,22.26722],[40.5012,22.83689],[40.27888,23.28097],[40.28777,24.05789],[40.02427,24.41866],[40.14392,24.84837],[39.6251,25.21072],[39.05185,26.46505],[38.24934,27.07007],[38.25744,27.28651],[37.56972,27.79779],[37.49376,28.2225],[37.15209,28.42629],[36.94204,29.26298],[37.13771,30.47064],[37.43194,30.83776],[37.50467,31.27783],[37.7936,31.51323],[37.7938,31.75103],[37.61212,31.91079],[37.93899,33.54553],[38.22171,33.80249],[38.62074,33.93281],[40.23307,34.06324],[40.73591,33.94382],[41.48311,33.12364],[41.56222,32.32138],[41.99044,31.45486],[42.65541,31.25805],[44.27118,31.3435],[44.7662,31.03122],[45.31449,28.95889],[45.55044,28.57908],[45.95591,28.33226],[46.09777,27.93427],[46.29505,27.86152],[46.99168,26.60297],[47.29272,26.43939],[47.41972,26.03764],[48.12016,25.72106],[48.51158,25.77577],[48.99274,26.15255],[49.17405,26.59114],[48.95934,26.77277],[48.94207,27.08177],[48.51571,27.34075],[48.48229,27.85363],[48.24949,28.23784],[47.80174,28.69791],[47.49598,28.66025],[47.05669,29.0157],[46.89195,29.71087],[46.44055,30.1615],[46.3878,30.8556],[47.4736,31.83111],[47.69811,31.75535],[48.01943,32.70185],[48.27252,32.80907],[48.60234,33.27298],[48.98339,34.4792],[48.5236,35.23808],[49.54347,36.65142],[49.65481,37.36033],[49.75094349770871,37.46185164295797],[49.199707,37.582886],[48.883301,38.320313],[48.856506,38.815491],[49.223328,39.049316],[49.395325,39.399475],[49.569275,40.176086],[50.392883,40.256531],[50.0849,40.526306],[49.618896,40.572876],[49.110291,41.282288],[48.584473,41.808899],[47.96379912493926,42.47834952718655],[45.0432,43.06898],[43.72202,43.70367],[42.20059,44.11454],[41.73257,44.49673],[42.89994,45.08899],[43.8635,45.2814],[44.59042,45.69889],[45.13385,45.7988],[45.5643,46.04794],[45.60622,46.35576],[45.37218,46.57516],[44.71927,46.62679],[44.3505,46.84322],[43.0463,47.03402],[42.43696,47.47811],[39.48642,47.43683],[38.41274644395041,47.13624631107668],[39.121277,47.263489],[39.147705,47.044678],[37.673706,46.636719],[38.233093,46.240906],[37.40332,45.40448],[36.675476,45.24469],[37.539124,44.657288],[38.680115,44.28009],[39.955078,43.43512],[40.321472,43.128723],[40.875488,43.013672],[41.453491,42.645081],[41.703308,41.963074],[41.554077,41.535706],[40.373474,41.013672],[39.512695,41.102905],[38.347717,40.94873],[36.913086,41.33551],[35.167725,42.040283],[33.513306,42.019104],[32.348083,41.736328],[31.145874,41.087708],[29.240112,41.220093],[28.820129,40.460083],[27.28009,40.420105],[26.318941750860077,39.591337420004244],[26.310708573481318,39.358287709068264],[26.804688,38.985901],[26.46938526521515,38.44972890901057],[26.75865,38.42013],[27.14782,38.05011],[27.22784,37.70984],[27.5093,37.51459],[27.47074,37.18318],[28.0219,36.79414],[27.942524055470187,36.663843433107985],[28.53149551643234,36.67355788451171],[28.63273,36.73694],[29.21639,36.43368],[29.23026573194079,36.40299836749178],[29.52526050080043,36.24055196607727],[30.012400299341802,36.19799695448105],[30.055784823800607,36.205457656247354],[30.513976437958984,36.4841334335588],[30.621704,36.677917],[31.699707,36.644287],[32.509277,36.107483],[34.026917,36.220093],[34.714478,36.795471],[35.551086,36.565491],[36.160889,36.650696],[35.782104,36.275085],[36.149902,35.821472],[35.90509,35.410095],[35.998474,34.644897],[35.979675,34.610107],[35.81168314934148,34.37212718584843],[35.80716,34.28378],[35.73178520306398,34.25894253830941],[35.579741264458086,34.04355477925761],[35.44417,33.15005],[35.16842,32.68435],[35.23288,32.42574],[34.783778838996646,32.18856471223896],[34.752686,32.072876],[34.488098,31.60553],[34.556519,31.548889],[34.265503,31.219482],[33.773499,30.967529],[32.993896,31.024109],[32.192505,31.260315],[31.96051,30.933716],[31.68811,31.429688],[31.162069939300697,31.523049291234532],[31.09643,31.51899],[30.931637597804766,31.551676061559427],[30.095093,31.473511],[29.683472,31.18689],[28.913513,30.870117],[28.4505,31.025879],[27.457703,31.321289],[26.95565375123942,31.459218567519315],[26.62184,31.45975],[26.607356816175912,31.554907278816486],[26.4953,31.585693],[25.164917,31.569275],[24.921082,31.899475],[23.92749,32.016724],[23.609131,32.187317],[23.236877,32.191528],[22.895874,32.638489],[21.543091,32.843323],[20.854492,32.706909],[20.134094,32.238281],[19.820312,31.751892],[20.053284,30.985901],[19.574097,30.525879],[19.086487,30.266479],[18.021118,30.763489],[16.611694,31.182312],[15.713928,31.376282],[15.46717615956309,31.84469625730304],[15.4592,31.84581],[14.84023,32.18916],[13.58968,32.2258],[12.93427,32.69845],[12.942016029626963,32.84997326496515],[12.66333,32.792908],[11.488892,33.137085],[11.152639286887235,33.27515802609391],[11.11629,33.23029],[10.92533,33.21191],[10.60456,33.41478],[10.32299,33.39366],[9.81354,33.97974],[9.36676,34.04993],[9.15094,34.36331],[10.01346,34.98376],[10.14732,35.22179],[10.02073,35.69345],[9.83766,35.77278],[9.86649,36.10264],[10.16734,36.27502],[10.18084,36.62362],[9.4993,36.82117],[9.19757,37.22171],[9.150972711431306,37.217000782469036],[8.421082,36.946472],[8.195349436821921,36.9264086801448],[7.9662,36.81839],[7.68397,36.86502],[7.524049169882426,37.00769703823757],[7.330505,37.11853],[6.261902,37.110718],[5.320129,36.716492],[4.815674,36.865112],[3.161682,36.783875],[1.466919,36.605713],[0.503906,36.301331],[-0.03460343094897648,35.94931818288387]]],[[[12.884617119081051,45.62449825554468],[13.141724,45.736694],[13.937683,45.591125],[13.715088,45.500305],[13.679504,45.484131],[13.657104,45.137085],[13.93357141358824,44.823344638364276],[13.967320169492172,44.82332656534342],[14.258728,45.233887],[14.901672,45.076111],[14.920288,44.738525],[15.376282,44.317871],[15.289390417505002,44.28575312684784],[15.77846,44.01783],[16.57327,43.83974],[17.42101,43.33514],[17.384830739805967,42.92774690364151],[17.509888,42.850098],[18.450073,42.480103],[18.88208,42.281494],[19.162476,41.955078],[19.371887,41.877686],[19.5401,41.720093],[19.403687,41.409485],[19.319092,40.727295],[19.376002030760997,40.41580615005408],[20.00592,40.00419],[20.03035,39.83119],[20.46537,39.65685],[20.94596,38.96516],[21.50882,38.70548],[21.96899,37.48949],[23.12761,37.39145],[23.27324235611254,37.646705980663434],[23.115112,37.920105],[23.45688253227161,37.82218554849364],[24.025881330498247,38.190127690609316],[24.025085,38.220093],[23.53009,38.510071],[22.973083,38.970886],[23.350098,39.190125],[22.84967,39.659302],[22.626282,40.256531],[22.814087,40.476074],[23.14286269667858,40.15602373207208],[23.192,40.33146],[24.00317,40.3622],[24.04636949204697,40.418357979903675],[23.714905,40.687073],[24.925903,40.947083],[25.447693,40.852478],[26.056885,40.824097],[26.043960945168998,40.628094037523276],[26.34733,40.3949],[26.339712654141934,40.17928212021261],[26.358093,40.1521],[27.192505,40.690674],[27.61908,40.999878],[28.806519,41.054871],[28.988525,41.299927],[28.115479,41.622925],[27.996704,42.007507],[27.673889,42.577881],[28.039124,43.293274],[28.558105,43.70752],[28.837891,44.913879],[29.141724,44.820312],[29.626526,45.035522],[29.603271,45.293274],[30.377686,46.032471],[30.748901,46.58313],[31.675293,46.706299],[31.74408,46.333496],[33.298706,46.080688],[33.588074,45.851685],[32.63092,45.519287],[32.454285,45.327515],[33.546875,45.034912],[33.326477,44.56488],[33.882507,44.361511],[35.240112,44.940125],[36.334717,45.113281],[36.53009,45.470093],[35.510071,45.410095],[35.020874,45.651306],[34.96228,46.273315],[35.778900440134336,46.626486158576824],[35.08536,46.52219],[34.08085,46.9334],[33.42329,46.949],[33.04962,47.11462],[30.48374,47.50875],[29.5103,48.08071],[29.52742,48.23122],[29.04532,48.55102],[28.28023,48.65676],[27.7495,48.53009],[27.33398,48.24962],[26.17769,48.22888],[24.83809,47.32341],[24.58559,47.33702],[24.2232,47.65567],[23.97026,47.66884],[22.99205,48.23605],[22.23323,48.27249],[21.57273,47.86359],[21.07213,47.96072],[20.34781,48.43113],[19.09511,48.48298],[18.8328,48.34834],[17.57119,48.17718],[16.46491,48.2131],[15.47969,48.09535],[14.9766,47.88868],[14.70088,47.52755],[14.32969,47.38731],[13.92293,46.79886],[13.68107,46.72715],[13.28376,46.05109],[12.91903,45.74704],[12.884617119081051,45.62449825554468]]],[[[23.261384049584432,40.04064783556906],[23.343079,39.961121],[23.401748599383836,39.9612238023558],[23.38515,39.9955],[23.261384049584432,40.04064783556906]]],[[[35.95837700295488,46.653476244480295],[36.759888,46.69873],[36.983937575905,46.80770233131934],[35.95837700295488,46.653476244480295]]],[[[52.47394610133024,41.907254338901616],[52.502502,41.783325],[52.752442511630825,41.264680525142104],[52.86425237533989,41.49145952319713],[52.916687,41.868103],[52.97802714130747,41.887548222480156],[52.88661,41.96405],[52.47394610133024,41.907254338901616]]]]}}]}