{"type":"FeatureCollection","features":[{"type":"Feature","properties":{"source":"Natural Earth 1:50m land, public domain; cropped to illustrated Ottoman overview"},"geometry":{"type":"MultiPolygon","coordinates":[[[[-8,14],[41.64660741941198,14],[41.479688,14.243896],[41.176465,14.620312],[40.799316,14.743018],[40.634375,14.883008],[40.546289,14.933594],[40.436523,14.963965],[40.305273,14.974023],[40.204102,15.014111],[40.084082,15.151953],[40.057813,15.21709],[40.041016,15.334521],[39.97832,15.393115],[39.86377,15.470312],[39.813477,15.413574],[39.790332,15.318848],[39.815625,15.245312],[39.819434,15.20127],[39.785547,15.124854],[39.720801,15.213672],[39.63125,15.452539],[39.578809,15.52251],[39.506543,15.532129],[39.422266,15.78667],[39.298926,15.921094],[39.222559,16.193701],[39.142578,16.72915],[39.034473,17.085547],[38.911719,17.427148],[38.609473,18.005078],[38.574023,18.072949],[38.33291,18.219043],[38.283105,18.286719],[38.252148,18.264404],[38.201758,18.249414],[38.128125,18.333301],[38.074023,18.409766],[37.921875,18.555908],[37.729785,18.694336],[37.599414,18.717432],[37.531641,18.753125],[37.471289,18.820117],[37.361523,19.091992],[37.248438,19.581885],[37.262598,19.791895],[37.193164,20.120703],[37.187891,20.394922],[37.227539,20.556738],[37.172656,20.731982],[37.156836,20.894922],[37.141113,20.981787],[37.150586,21.10376],[37.21748,21.077637],[37.257227,21.039404],[37.263184,21.072656],[37.258594,21.108545],[37.211719,21.18584],[37.081152,21.326025],[36.926953,21.586523],[36.882617,21.768799],[36.871387,21.996729],[36.87041,22.015771],[36.829688,22.097656],[36.414551,22.394189],[36.229688,22.628809],[35.913379,22.739648],[35.845801,22.785693],[35.797363,22.84873],[35.697852,22.946191],[35.564355,23.271094],[35.522754,23.442529],[35.504395,23.779297],[35.515234,23.842871],[35.54082,23.920654],[35.593848,23.942578],[35.632031,23.950342],[35.783887,23.937793],[35.624707,24.066016],[35.477832,24.154785],[35.39707,24.269971],[35.194141,24.475146],[34.853223,25.139795],[34.679297,25.442529],[34.565137,25.691162],[34.329297,26.024365],[34.049512,26.550732],[33.959082,26.649023],[33.893066,27.049463],[33.849316,27.184912],[33.80166,27.268164],[33.697266,27.341113],[33.657422,27.430566],[33.549805,27.607373],[33.558789,27.701221],[33.54707,27.898145],[33.494922,27.974463],[33.372266,28.050586],[33.202148,28.208301],[33.022852,28.442285],[32.898242,28.565234],[32.856543,28.630615],[32.829492,28.702881],[32.784473,28.786621],[32.658887,28.927734],[32.631836,28.992236],[32.638086,29.182178],[32.599023,29.321924],[32.565039,29.386328],[32.397266,29.533789],[32.359766,29.630664],[32.408594,29.749316],[32.489453,29.851514],[32.473047,29.925439],[32.565723,29.973975],[32.647168,29.798437],[32.721484,29.521777],[32.766699,29.45],[32.811719,29.4],[32.870605,29.28623],[33.075781,29.073047],[33.130176,28.978271],[33.203711,28.777783],[33.201953,28.695703],[33.247754,28.567725],[33.416113,28.389844],[33.594141,28.255566],[33.760254,28.047656],[34.045117,27.828857],[34.220117,27.764307],[34.318555,27.888965],[34.399707,28.016016],[34.427148,28.106494],[34.446484,28.357324],[34.617188,28.75791],[34.736426,29.270605],[34.848535,29.432129],[34.904297,29.477344],[34.973438,29.555029],[34.982227,29.484473],[34.950781,29.353516],[34.799121,28.720508],[34.779883,28.507324],[34.683301,28.264111],[34.616211,28.14834],[34.625,28.064502],[34.72207,28.130664],[34.827539,28.108594],[35.07832,28.087012],[35.180469,28.034863],[35.423828,27.733789],[35.581348,27.432471],[35.762988,27.258789],[35.85166,27.070459],[36.032031,26.881006],[36.09375,26.76582],[36.249609,26.594775],[36.51875,26.104883],[36.675195,26.038867],[36.702539,25.902881],[36.762695,25.751318],[36.860156,25.69248],[36.920703,25.641162],[37.148828,25.291113],[37.218359,25.150684],[37.243457,25.073437],[37.266309,24.960059],[37.22041,24.87334],[37.180859,24.82002],[37.338477,24.61582],[37.430957,24.459033],[37.543066,24.29165],[37.638184,24.277734],[37.713379,24.274414],[37.820996,24.1875],[37.919727,24.1854],[37.977832,24.124561],[38.098633,24.058008],[38.288867,23.910986],[38.46416,23.711865],[38.542285,23.55791],[38.706055,23.305518],[38.757031,23.194287],[38.796875,23.048584],[38.835547,22.989063],[38.941113,22.881836],[38.88291,22.882031],[38.93877,22.804785],[39.007422,22.770068],[39.001367,22.698975],[39.062012,22.592187],[39.095898,22.392773],[39.069922,22.293652],[39.033984,22.203369],[39.021191,22.033447],[38.987891,21.881738],[39.029785,21.775977],[39.091016,21.663965],[39.14707,21.518994],[39.150684,21.432764],[39.093555,21.310352],[39.276074,20.973975],[39.491211,20.737012],[39.613672,20.517676],[39.72832,20.390332],[39.884082,20.292969],[40.080664,20.265918],[40.482227,19.993457],[40.615918,19.822363],[40.75918,19.755469],[40.777051,19.716895],[40.791602,19.646387],[40.847852,19.555273],[40.913281,19.490137],[41.116016,19.082178],[41.144141,18.989063],[41.19082,18.871191],[41.220801,18.765234],[41.229492,18.678418],[41.431738,18.452441],[41.507617,18.256104],[41.658008,18.007666],[41.75,17.885742],[42.052246,17.669336],[42.293945,17.434961],[42.332422,17.256641],[42.383301,17.122461],[42.475,17.049854],[42.544141,16.959668],[42.55293,16.868457],[42.647461,16.801367],[42.698828,16.736963],[42.726367,16.65332],[42.730664,16.569824],[42.789844,16.451562],[42.799316,16.371777],[42.839648,16.032031],[42.717188,15.654639],[42.799902,15.371631],[42.799023,15.32627],[42.788477,15.265723],[42.736426,15.293555],[42.697852,15.326318],[42.657813,15.232812],[42.855664,15.132959],[42.89707,15.005566],[42.936426,14.938574],[42.937305,14.898047],[42.912988,14.863086],[42.922168,14.817383],[42.946973,14.773145],[43.021094,14.554883],[43.01875,14.520801],[43.00625,14.483105],[43.044824,14.341553],[43.093359,14.203662],[43.089063,14.010986],[43.09954099233148,14],[47.90201861508192,14],[47.916016,14.012842],[47.989941,14.048096],[48.26445340158603,14],[48.326459206010675,14],[48.449023,14.005908],[48.59375,14.04624],[48.668359,14.050146],[48.77998,14.123877],[48.928711,14.26748],[49.004688,14.355029],[49.048047,14.456445],[49.10293,14.500049],[49.349902,14.637793],[49.548633,14.722412],[49.906348,14.828125],[50.166895,14.851025],[50.338574,14.927197],[50.527051,15.038184],[51.015137,15.140771],[51.322461,15.22627],[51.603711,15.336816],[51.681543,15.379102],[51.748633,15.440137],[51.830762,15.459277],[51.96582,15.535693],[52.087305,15.585938],[52.21748,15.655518],[52.22207,15.760596],[52.174023,15.956836],[52.237305,16.171387],[52.327734,16.293555],[52.448438,16.39126],[52.581445,16.470361],[53.085645,16.648389],[53.297754,16.72334],[53.609863,16.759961],[53.775391,16.855713],[53.954395,16.917822],[54.068164,17.005518],[54.376953,17.033643],[54.566504,17.03125],[54.664648,17.008887],[54.771875,16.964648],[55,17.02261329927981],[55,24.977035758381525],[54.746777,24.810449],[54.658984,24.715527],[54.624121,24.621289],[54.580469,24.563525],[54.534668,24.530957],[54.498828,24.462695],[54.458398,24.358252],[54.39707,24.278174],[54.304297,24.254297],[54.147949,24.171191],[53.893359,24.077051],[53.801758,24.069482],[53.32959,24.098438],[53.026367,24.147314],[52.648242,24.154639],[52.511426,24.1125],[52.250879,23.995215],[52.118555,23.971094],[51.906055,23.985352],[51.843164,24.010889],[51.791699,24.074756],[51.767578,24.254395],[51.734766,24.262793],[51.664551,24.250439],[51.623145,24.301074],[51.605469,24.338428],[51.568359,24.286182],[51.534766,24.286328],[51.476758,24.308203],[51.395215,24.318848],[51.309863,24.340381],[51.369922,24.476904],[51.418359,24.530957],[51.41123,24.570801],[51.338477,24.564355],[51.267969,24.607227],[51.396484,24.645117],[51.42793,24.668262],[51.533398,24.890869],[51.586914,24.964844],[51.608887,25.052881],[51.601953,25.147949],[51.561426,25.284473],[51.519531,25.389746],[51.510254,25.452344],[51.485352,25.524707],[51.526953,25.682129],[51.572266,25.781006],[51.543066,25.902393],[51.389063,26.011133],[51.262305,26.153271],[51.108105,26.080566],[51.003125,25.981445],[50.903809,25.724072],[50.868652,25.612695],[50.802637,25.49707],[50.762891,25.444727],[50.75459,25.399268],[50.777344,25.177441],[50.846777,24.888574],[50.835938,24.850391],[50.804395,24.789258],[50.725586,24.869385],[50.666895,24.963818],[50.55791,25.08667],[50.508496,25.306689],[50.455176,25.424805],[50.28125,25.566113],[50.238965,25.622852],[50.189648,25.755811],[50.130273,25.846631],[50.081055,25.961377],[50.031641,26.110986],[50.053906,26.122852],[50.095996,26.118701],[50.135254,26.100684],[50.155469,26.100537],[50.213867,26.308496],[50.184961,26.404932],[50.110742,26.455957],[50.027344,26.526855],[50.011328,26.608789],[50.008105,26.678516],[50.026367,26.699219],[50.086621,26.676416],[50.134668,26.659521],[50.149805,26.662646],[49.986133,26.828906],[49.716504,26.955859],[49.537695,27.151758],[49.405273,27.180957],[49.281543,27.310498],[49.175098,27.437646],[49.2375,27.492725],[49.15752,27.528223],[49.086914,27.548584],[48.906445,27.629053],[48.797168,27.724316],[48.807227,27.765283],[48.832813,27.800684],[48.808984,27.895898],[48.77373,27.959082],[48.626367,28.132568],[48.523047,28.355029],[48.498535,28.448877],[48.44248,28.54292],[48.389648,28.631592],[48.371289,28.691846],[48.339258,28.763281],[48.25293,28.90127],[48.183789,28.979395],[48.100391,29.210742],[48.086328,29.275488],[48.051465,29.355371],[47.998145,29.385547],[47.935352,29.366602],[47.845313,29.365723],[47.722656,29.393018],[47.725293,29.416943],[47.81748,29.487402],[47.969629,29.616699],[48.04834,29.59751],[48.089453,29.579102],[48.143457,29.572461],[48.136133,29.618115],[48.077344,29.715576],[48.005664,29.835791],[47.973633,29.945898],[47.978711,29.982812],[47.98252,30.011328],[48.072754,30.043213],[48.141699,30.040918],[48.35459,29.956738],[48.454199,29.938477],[48.546484,29.962354],[48.595508,29.975049],[48.670898,30.02832],[48.832422,30.035498],[48.870117,30.062402],[48.919141,30.120898],[48.908691,30.241455],[48.891211,30.327637],[48.916797,30.397266],[49.037109,30.450488],[49.001953,30.506543],[49.130371,30.509424],[49.224512,30.472314],[49.247266,30.4125],[49.190332,30.375391],[49.096191,30.406787],[49.049023,30.397266],[49.001953,30.373926],[49.028125,30.333447],[49.054297,30.306934],[49.42998,30.130469],[49.554883,30.028955],[49.983105,30.209375],[50.071582,30.198535],[50.128906,30.048096],[50.168945,29.92124],[50.230176,29.8729],[50.386914,29.679053],[50.543555,29.547998],[50.649609,29.420068],[50.667969,29.339844],[50.646094,29.212207],[50.675195,29.146582],[50.795508,29.117432],[50.875781,29.062695],[50.875781,29.004395],[50.842969,28.927832],[50.866992,28.870166],[51.021191,28.78208],[51.062012,28.726123],[51.093848,28.512109],[51.128418,28.435156],[51.276074,28.218848],[51.278906,28.131348],[51.518555,27.91001],[51.589063,27.864209],[51.666309,27.844971],[51.841992,27.848242],[52.030762,27.824414],[52.191895,27.717285],[52.475879,27.616504],[52.602637,27.493359],[52.638184,27.391992],[52.691602,27.323389],[52.98252,27.141943],[53.341699,27.004492],[53.45498,26.943262],[53.507129,26.851758],[53.705762,26.725586],[53.822559,26.707715],[54.069336,26.732373],[54.24707,26.696631],[54.52207,26.58916],[54.644922,26.508936],[54.759277,26.505078],[54.895801,26.556689],[55,26.624615301728433],[55,53],[5.147324911181622,53],[5.06123,52.960645],[4.887988,52.90835],[4.839063,52.928271],[4.76875,52.941309],[4.712695,52.872119],[4.67832,52.809766],[4.562109,52.442578],[4.482813,52.30918],[4.37627,52.196826],[4.208789,52.058984],[4.131738,52.011914],[4.084863,51.994092],[4.026074,51.927734],[3.978906,51.847803],[3.946875,51.810547],[4.13457,51.6729],[4.158008,51.633447],[4.182617,51.610303],[4.004785,51.59585],[4.080469,51.551123],[4.175488,51.519287],[4.239355,51.503906],[4.274121,51.471631],[4.205762,51.456689],[4.141309,51.455762],[3.886035,51.574219],[3.743945,51.596045],[3.548633,51.589111],[3.499609,51.57666],[3.448926,51.540771],[3.520508,51.486182],[3.586914,51.453906],[3.693555,51.449902],[3.821875,51.409375],[4.006543,51.443213],[4.138867,51.401514],[4.226172,51.386475],[4.111523,51.360645],[4.011035,51.395947],[3.883398,51.354492],[3.716504,51.369141],[3.589453,51.399414],[3.425781,51.393506],[3.350098,51.377686],[3.225195,51.351611],[2.960156,51.26543],[2.524902,51.097119],[2.445703,51.066504],[1.9125,50.990625],[1.767676,50.935693],[1.672266,50.88501],[1.60957,50.819482],[1.579492,50.739258],[1.551563,50.293945],[1.592773,50.252197],[1.548438,50.230713],[1.514063,50.205078],[1.407227,50.088525],[1.245508,49.998242],[0.924121,49.910205],[0.616211,49.862939],[0.186719,49.703027],[0.126563,49.601562],[0.109375,49.55752],[0.129395,49.508447],[0.277637,49.463281],[0.439258,49.473193],[0.416895,49.448389],[0.136133,49.401514],[-0.011182,49.330225],[-0.163477,49.296777],[-0.520898,49.354541],[-0.765527,49.359717],[-0.959131,49.393164],[-1.138525,49.387891],[-1.194971,49.444824],[-1.232275,49.494873],[-1.264941,49.598242],[-1.258643,49.680176],[-1.365723,49.707275],[-1.588232,49.667676],[-1.705127,49.680957],[-1.856445,49.683789],[-1.875391,49.631396],[-1.870068,49.595117],[-1.813428,49.490137],[-1.690332,49.313184],[-1.583105,49.202393],[-1.565479,48.805518],[-1.480469,48.697607],[-1.376465,48.652588],[-1.437646,48.641406],[-1.824707,48.630518],[-1.851953,48.668848],[-1.905713,48.697119],[-1.973145,48.635107],[-2.003711,48.58208],[-2.079443,48.64502],[-2.446191,48.648291],[-2.692334,48.536816],[-2.792871,48.601074],[-3.003223,48.790674],[-3.231445,48.84082],[-3.471484,48.812939],[-3.545996,48.765674],[-3.714795,48.710498],[-3.855664,48.694727],[-4.058887,48.70752],[-4.531201,48.619971],[-4.720752,48.539893],[-4.7625,48.450244],[-4.748535,48.41001],[-4.719385,48.363135],[-4.584717,48.35752],[-4.524805,48.372314],[-4.393164,48.367627],[-4.364404,48.356738],[-4.301758,48.34707],[-4.241406,48.303662],[-4.40332,48.293066],[-4.4979,48.299268],[-4.530664,48.309717],[-4.577148,48.290039],[-4.544336,48.246973],[-4.512207,48.229736],[-4.434619,48.217969],[-4.329443,48.169971],[-4.377832,48.128809],[-4.512402,48.096729],[-4.629199,48.085791],[-4.678809,48.039502],[-4.427979,47.968945],[-4.375098,47.877441],[-4.312109,47.8229],[-4.226416,47.809619],[-4.070703,47.847852],[-3.900928,47.837549],[-3.507812,47.753125],[-3.443945,47.711035],[-3.395898,47.72041],[-3.328613,47.71333],[-3.264697,47.685107],[-3.221582,47.694141],[-3.158838,47.694678],[-3.064209,47.621338],[-2.964062,47.601074],[-2.859375,47.614453],[-2.787207,47.625537],[-2.733105,47.601807],[-2.796777,47.537256],[-2.770312,47.513867],[-2.665918,47.526172],[-2.554053,47.527051],[-2.482715,47.511621],[-2.427686,47.470898],[-2.476318,47.412939],[-2.530029,47.381592],[-2.503125,47.312061],[-2.434424,47.290967],[-2.353027,47.27876],[-1.975391,47.310693],[-1.742529,47.215967],[-1.821289,47.225342],[-1.921729,47.260645],[-2.027588,47.273584],[-2.108301,47.262939],[-2.148584,47.223926],[-2.19707,47.162939],[-2.143555,47.126318],[-2.081934,47.111621],[-2.018896,47.037646],[-2.090283,46.920508],[-2.09248,46.865039],[-2.059375,46.810303],[-1.921436,46.684814],[-1.786523,46.514844],[-1.39248,46.350098],[-1.312793,46.326904],[-1.238818,46.324512],[-1.146289,46.311377],[-1.132031,46.252686],[-1.136377,46.204834],[-1.104395,45.925342],[-1.066016,45.805664],[-1.041504,45.772656],[-1.031738,45.741064],[-1.114355,45.768506],[-1.209961,45.770898],[-1.195996,45.714453],[-1.169971,45.685937],[-0.880664,45.538184],[-0.790771,45.468018],[-0.733105,45.384619],[-0.641113,45.090186],[-0.582275,45.051367],[-0.548486,45.000586],[-0.633984,45.047119],[-0.691113,45.093457],[-0.76665,45.314355],[-0.826318,45.380664],[-0.941748,45.45708],[-1.081006,45.532422],[-1.149072,45.342627],[-1.189062,45.161475],[-1.245215,44.666699],[-1.220312,44.686621],[-1.200391,44.726465],[-1.152881,44.764014],[-1.076953,44.689844],[-1.170801,44.661816],[-1.245508,44.559863],[-1.345996,44.020215],[-1.484863,43.56377],[-1.631445,43.438037],[-1.794043,43.407324],[-1.828516,43.40083],[-1.991309,43.345068],[-2.19668,43.321924],[-2.337109,43.328027],[-2.60708,43.412744],[-2.875049,43.454443],[-2.947705,43.439697],[-3.045605,43.371582],[-3.417871,43.451709],[-3.523633,43.511035],[-3.604639,43.519482],[-3.774023,43.477881],[-3.889355,43.499414],[-4.015332,43.463086],[-4.312793,43.414746],[-4.523047,43.415723],[-5.105273,43.501855],[-5.315723,43.553174],[-5.66582,43.582471],[-5.84668,43.645068],[-6.080127,43.594922],[-6.224121,43.603857],[-6.475684,43.578906],[-6.617285,43.592383],[-6.900684,43.585645],[-7.060986,43.553955],[-7.261963,43.594629],[-7.399316,43.695801],[-7.503613,43.739941],[-7.59458,43.727344],[-7.698145,43.764551],[-7.852734,43.706982],[-8,43.69477355527037],[-8,37.02733882211487],[-7.939697,37.00542],[-7.834131,37.005713],[-7.493604,37.168311],[-7.406152,37.179443],[-7.174951,37.208789],[-6.974658,37.198437],[-6.929492,37.214941],[-6.86377,37.278906],[-6.859375,37.24917],[-6.884619,37.194238],[-6.492432,36.954639],[-6.396191,36.831641],[-6.320947,36.908496],[-6.216797,36.913574],[-6.259424,36.898975],[-6.32832,36.848145],[-6.412256,36.728857],[-6.384131,36.637012],[-6.268945,36.596729],[-6.257715,36.564844],[-6.265918,36.526514],[-6.22627,36.426465],[-6.170459,36.333789],[-6.040674,36.188428],[-5.960693,36.181738],[-5.808398,36.08833],[-5.625488,36.025928],[-5.55127,36.038818],[-5.4625,36.073779],[-5.443604,36.150586],[-5.407227,36.158887],[-5.381592,36.134082],[-5.360937,36.134912],[-5.329687,36.235742],[-5.230518,36.373633],[-5.171484,36.423779],[-4.935303,36.502051],[-4.674121,36.506445],[-4.502246,36.62915],[-4.434863,36.700244],[-4.366846,36.718115],[-3.827783,36.756055],[-3.578809,36.739844],[-3.43125,36.70791],[-3.259131,36.755762],[-3.14917,36.758496],[-2.901855,36.743164],[-2.787549,36.714746],[-2.670605,36.747559],[-2.595703,36.806494],[-2.452832,36.831152],[-2.305566,36.819824],[-2.187695,36.745459],[-2.111523,36.77666],[-1.939307,36.94585],[-1.797607,37.232861],[-1.640967,37.386963],[-1.327539,37.561133],[-0.938086,37.571338],[-0.822168,37.580762],[-0.771875,37.59624],[-0.721582,37.631055],[-0.823096,37.711621],[-0.814648,37.769922],[-0.752734,37.850244],[-0.741553,37.886133],[-0.683203,37.992041],[-0.646777,38.151855],[-0.550684,38.203125],[-0.520801,38.317285],[-0.38125,38.435645],[-0.052734,38.585693],[0.136328,38.696777],[0.201563,38.75918],[0.154883,38.824658],[-0.034131,38.891211],[-0.133789,38.969482],[-0.204932,39.062598],[-0.328955,39.41709],[-0.327002,39.519873],[-0.075146,39.875928],[0.043066,40.013965],[0.158398,40.106592],[0.363672,40.319043],[0.596094,40.614502],[0.627148,40.622217],[0.660059,40.61333],[0.720605,40.630469],[0.85918,40.68623],[0.891113,40.722363],[0.796094,40.803809],[0.714648,40.822852],[0.816895,40.891602],[1.03291,41.062061],[1.205859,41.097559],[1.566602,41.195605],[2.082617,41.287402],[2.145605,41.320752],[2.310938,41.466504],[3.004883,41.767432],[3.146875,41.861035],[3.248047,41.944238],[3.238086,42.082227],[3.224609,42.111133],[3.175195,42.135986],[3.150391,42.162451],[3.166406,42.256494],[3.218652,42.260352],[3.306738,42.288965],[3.287891,42.343701],[3.239844,42.367871],[3.211426,42.431152],[3.197852,42.461182],[3.090918,42.590869],[3.043066,42.837891],[3.051758,42.915137],[3.162891,43.080762],[3.258887,43.193213],[3.784766,43.461621],[3.861621,43.516357],[3.91084,43.563086],[4.052637,43.593066],[4.075098,43.581836],[4.113086,43.563037],[4.162793,43.503662],[4.224219,43.479639],[4.376172,43.456396],[4.409766,43.447217],[4.628711,43.387109],[4.712109,43.373291],[4.789062,43.378906],[4.787207,43.401416],[4.80791,43.405225],[4.843555,43.393945],[4.87373,43.411621],[4.911914,43.426953],[4.975977,43.426953],[5.059766,43.444531],[5.06084,43.406299],[5.073145,43.366602],[5.12041,43.348975],[5.199512,43.35249],[5.320215,43.344922],[5.406543,43.228516],[5.671582,43.177832],[5.809473,43.0979],[6.030566,43.100977],[6.115918,43.072363],[6.305371,43.138721],[6.494043,43.169287],[6.570215,43.199072],[6.657227,43.26167],[6.687402,43.33457],[6.716602,43.373584],[6.864746,43.43833],[7.181445,43.659131],[7.261523,43.696094],[7.493164,43.767139],[7.733301,43.802588],[8.00498,43.876758],[8.081641,43.918945],[8.292383,44.136523],[8.551953,44.346143],[8.76582,44.422314],[8.930371,44.407764],[9.195996,44.322998],[9.289355,44.319238],[9.730859,44.101172],[10.047656,44.019971],[10.188086,43.94751],[10.245801,43.8521],[10.320508,43.513086],[10.447559,43.371191],[10.520801,43.203809],[10.532324,43.140137],[10.517285,43.065137],[10.514844,42.967529],[10.590234,42.953613],[10.644629,42.957178],[10.708398,42.936328],[10.737109,42.899951],[10.765137,42.844678],[10.803125,42.804297],[10.937793,42.738721],[11.167773,42.535156],[11.184766,42.456592],[11.141797,42.444092],[11.103223,42.416602],[11.141211,42.389893],[11.188867,42.393115],[11.249707,42.415723],[11.296289,42.423291],[11.498438,42.362939],[11.637305,42.287549],[11.807031,42.082031],[12.075293,41.940869],[12.205664,41.812646],[12.630859,41.469678],[12.849219,41.40874],[13.024219,41.300928],[13.041016,41.266211],[13.088672,41.243848],[13.183398,41.277686],[13.246875,41.288867],[13.361914,41.278516],[13.554785,41.232178],[13.669727,41.254492],[13.733398,41.235645],[13.859766,41.12998],[14.047656,40.870312],[14.044336,40.812256],[14.075879,40.793945],[14.102344,40.827148],[14.147168,40.820703],[14.308887,40.812646],[14.428125,40.759326],[14.460547,40.728711],[14.339941,40.598828],[14.382715,40.599854],[14.459375,40.632715],[14.556934,40.626416],[14.61123,40.644775],[14.765723,40.668408],[14.839551,40.62998],[14.906934,40.556055],[14.947656,40.469336],[14.986133,40.37749],[14.929102,40.30957],[14.926953,40.264746],[14.950879,40.239014],[15.294531,40.07002],[15.390918,40.052148],[15.585156,40.052832],[15.692773,39.990186],[15.763672,39.870068],[15.854395,39.626514],[16.023633,39.353613],[16.071484,39.139453],[16.107422,39.023828],[16.209961,38.941113],[16.196777,38.759229],[16.065527,38.736426],[15.972363,38.712598],[15.926953,38.671729],[15.878906,38.613916],[15.904785,38.483496],[15.822363,38.302979],[15.700195,38.262305],[15.643066,38.175391],[15.645801,38.034229],[15.724512,37.939111],[16.056836,37.941846],[16.109766,38.018652],[16.144141,38.086377],[16.282422,38.249561],[16.545605,38.409082],[16.574219,38.493555],[16.558984,38.714795],[16.616699,38.800146],[16.755469,38.889697],[16.951465,38.939795],[17.098535,38.919336],[17.174609,38.998096],[17.122949,39.136572],[17.114551,39.380615],[16.999219,39.481592],[16.824316,39.57832],[16.597754,39.638916],[16.521875,39.747559],[16.52998,39.859668],[16.669629,40.137207],[16.807031,40.326465],[16.928223,40.458057],[17.03125,40.513477],[17.17998,40.502783],[17.215332,40.486426],[17.249414,40.437891],[17.257715,40.399072],[17.395801,40.340234],[17.476172,40.314941],[17.865039,40.280176],[18.07793,39.936963],[18.219336,39.852539],[18.34375,39.821387],[18.393457,39.903613],[18.422559,39.986865],[18.48584,40.104834],[18.460645,40.221045],[18.328223,40.37085],[18.036133,40.564941],[17.95498,40.655176],[17.474219,40.840576],[17.275195,40.975439],[17.103418,41.062158],[16.551855,41.232031],[16.012598,41.4354],[15.900488,41.512061],[15.91377,41.62085],[16.033691,41.700781],[16.15127,41.758496],[16.18916,41.814014],[16.164648,41.896191],[16.061523,41.928125],[15.964063,41.939453],[15.40498,41.913232],[15.16875,41.934033],[14.866113,42.052539],[14.540723,42.244287],[14.182715,42.506445],[14.010449,42.689551],[13.924902,42.851562],[13.804688,43.180371],[13.693262,43.389893],[13.56416,43.571289],[13.508203,43.61167],[13.295313,43.686084],[12.907031,43.921191],[12.691113,43.994727],[12.486816,44.134229],[12.396289,44.223877],[12.30498,44.429443],[12.24834,44.72251],[12.278906,44.832227],[12.319043,44.833105],[12.384473,44.79834],[12.463574,44.845215],[12.497949,44.899414],[12.523438,44.967969],[12.39248,45.039795],[12.286328,45.207715],[12.225684,45.241504],[12.248828,45.368848],[12.274316,45.446045],[12.353809,45.491992],[12.491797,45.546289],[12.536133,45.544922],[12.432129,45.46792],[12.497559,45.46167],[12.611719,45.497217],[12.76123,45.544287],[12.903027,45.610791],[13.030273,45.6375],[13.120117,45.6979],[13.156738,45.746582],[13.206348,45.771387],[13.465137,45.709961],[13.558203,45.770703],[13.62832,45.770947],[13.783301,45.627246],[13.719824,45.587598],[13.637305,45.535937],[13.57793,45.516895],[13.517188,45.481787],[13.60332,45.231396],[13.613477,45.163428],[13.629297,45.108203],[13.74248,44.991504],[13.860742,44.837402],[13.899805,44.829346],[13.96582,44.835645],[14.041992,44.927197],[14.090625,44.997607],[14.236328,45.159668],[14.268555,45.28252],[14.312695,45.337793],[14.386133,45.342139],[14.550488,45.297705],[14.632031,45.2229],[14.85459,45.081006],[14.906543,44.971387],[14.885254,44.818262],[14.895215,44.706592],[14.981348,44.60293],[15.269824,44.383496],[15.381348,44.328271],[15.470996,44.271973],[15.369727,44.289258],[15.284277,44.288818],[15.231348,44.271436],[15.184668,44.2729],[15.122949,44.256787],[15.18584,44.172119],[15.499414,43.908789],[15.655664,43.811279],[15.820605,43.735937],[15.941504,43.656641],[15.949121,43.606982],[15.942578,43.568945],[15.985547,43.519775],[16.045996,43.505518],[16.131055,43.506299],[16.268945,43.53125],[16.393945,43.543359],[16.600293,43.464062],[16.903125,43.392432],[17.129395,43.211133],[17.329883,43.114893],[17.537305,42.962256],[17.585156,42.938379],[17.667578,42.897119],[17.723633,42.850684],[17.219824,43.025879],[17.126465,43.025586],[17.04541,43.014893],[17.258203,42.968457],[17.584961,42.837158],[17.823828,42.797412],[18.160645,42.634033],[18.333008,42.527881],[18.51748,42.43291],[18.553516,42.428516],[18.591602,42.444189],[18.645898,42.442725],[18.633398,42.423145],[18.619043,42.398389],[18.63291,42.378076],[18.894238,42.249463],[19.122266,42.060498],[19.186426,41.948633],[19.342383,41.869092],[19.468262,41.856152],[19.577539,41.7875],[19.575684,41.64043],[19.545801,41.596826],[19.497363,41.562695],[19.440625,41.424756],[19.453418,41.320996],[19.480078,41.236377],[19.456055,41.106055],[19.46123,40.933301],[19.383887,40.790723],[19.3375,40.663818],[19.344629,40.62207],[19.439258,40.470264],[19.45918,40.405371],[19.440527,40.375684],[19.394531,40.393701],[19.358594,40.40874],[19.322266,40.40708],[19.360156,40.347705],[19.398145,40.284863],[19.48457,40.209961],[19.851855,40.043555],[19.964844,39.872266],[19.995605,39.801025],[20.00127,39.709424],[20.099414,39.64126],[20.191406,39.545801],[20.300781,39.3271],[20.468262,39.255273],[20.57168,39.147705],[20.691309,39.06748],[20.713379,39.035156],[20.779688,39.008545],[20.922754,39.036768],[21.034082,39.02627],[21.068555,39.032275],[21.118359,39.02998],[21.144531,38.979199],[21.152344,38.92207],[21.111621,38.896289],[21.074219,38.885156],[20.893164,38.941113],[20.777344,38.927881],[20.768555,38.874414],[20.776855,38.80752],[20.873242,38.775732],[20.992188,38.654004],[21.059766,38.503271],[21.113184,38.384668],[21.182617,38.345557],[21.30332,38.373926],[21.329785,38.424365],[21.331055,38.487305],[21.355469,38.474805],[21.390137,38.407812],[21.472559,38.321387],[21.567676,38.333594],[21.650098,38.354004],[21.71709,38.355029],[21.804688,38.366943],[21.965332,38.412451],[22.226855,38.352832],[22.319922,38.356836],[22.385254,38.385547],[22.42168,38.438525],[22.583398,38.344922],[22.753906,38.289502],[22.783691,38.261719],[22.834375,38.234717],[22.93252,38.201953],[22.99541,38.215527],[23.034375,38.2021],[23.093555,38.196436],[23.148926,38.176074],[23.183496,38.133691],[23.152539,38.096387],[23.12207,38.07334],[22.954785,38.074609],[22.893164,38.050928],[22.916992,38.007471],[22.920313,37.958301],[22.846387,37.967578],[22.799609,37.981201],[22.711523,38.046924],[22.555859,38.113232],[22.24375,38.188721],[21.95332,38.321191],[21.824707,38.328125],[21.748438,38.274219],[21.658398,38.175098],[21.54873,38.1646],[21.451172,38.204736],[21.403711,38.19668],[21.308105,38.027441],[21.14502,37.919287],[21.124707,37.891602],[21.137988,37.85415],[21.205273,37.828857],[21.288477,37.774512],[21.329297,37.669336],[21.416211,37.639941],[21.571289,37.541016],[21.678906,37.387207],[21.69248,37.309277],[21.578809,37.200391],[21.58291,37.080957],[21.738086,36.863232],[21.892383,36.737305],[21.934277,36.803662],[21.940039,36.891797],[21.955566,36.990088],[22.011719,37.016504],[22.080469,37.028955],[22.133789,36.963916],[22.164746,36.902832],[22.231152,36.882568],[22.375977,36.701904],[22.38125,36.646191],[22.374805,36.513574],[22.427734,36.475781],[22.489453,36.446924],[22.489063,36.568164],[22.608398,36.779736],[22.717188,36.793945],[22.779883,36.786182],[22.832324,36.687109],[22.98291,36.528369],[23.060547,36.486963],[23.106836,36.451855],[23.160156,36.448096],[23.111719,36.547607],[23.041016,36.644531],[23.073535,36.774951],[23.060352,36.853516],[22.99502,37.015869],[22.851074,37.29082],[22.765039,37.393311],[22.725391,37.542139],[22.775,37.585107],[22.851074,37.532227],[22.940527,37.51709],[23.015137,37.481787],[23.096484,37.440576],[23.1,37.36377],[23.161523,37.333838],[23.203027,37.348535],[23.252539,37.377295],[23.489258,37.440186],[23.490625,37.463867],[23.458105,37.496924],[23.408789,37.541553],[23.396191,37.579785],[23.347559,37.597559],[23.262695,37.59541],[23.197559,37.620215],[23.147168,37.71626],[23.147168,37.795312],[23.086133,37.853125],[23.036328,37.878369],[23.047461,37.902637],[23.087402,37.912842],[23.193652,37.959033],[23.420215,37.99209],[23.501758,38.034863],[23.537207,38.032764],[23.580469,38.010547],[23.732813,37.884082],[23.877344,37.777783],[23.971582,37.676758],[24.019727,37.677734],[24.055371,37.709619],[24.062305,37.774512],[24.061328,37.81792],[24.033008,37.955322],[24.024512,38.139795],[24.005371,38.226807],[23.966992,38.275],[23.836035,38.325488],[23.683984,38.352441],[23.569629,38.489404],[23.368945,38.525537],[23.25293,38.66123],[23.137695,38.667969],[23.020313,38.741895],[22.774023,38.800391],[22.6875,38.84917],[22.634277,38.850684],[22.569141,38.86748],[22.596777,38.890576],[22.676855,38.898926],[22.802637,38.901611],[22.930469,38.947705],[23.066699,39.037939],[22.965527,39.030908],[22.938965,39.111523],[22.886035,39.169971],[22.838965,39.258594],[22.921387,39.306348],[22.992871,39.331055],[23.161719,39.257764],[23.16875,39.210449],[23.119434,39.132764],[23.154688,39.101465],[23.218359,39.104395],[23.327734,39.174902],[23.288477,39.288818],[23.233398,39.358447],[23.103418,39.492041],[22.978809,39.563818],[22.919043,39.628906],[22.835742,39.800586],[22.592188,40.036914],[22.569336,40.119336],[22.605469,40.276416],[22.642676,40.366602],[22.624902,40.428613],[22.629492,40.495557],[22.741895,40.536475],[22.811426,40.578613],[22.922266,40.590869],[22.892871,40.524268],[22.851367,40.490625],[22.896484,40.399902],[23.098145,40.304297],[23.312012,40.216455],[23.328223,40.089941],[23.395605,39.989844],[23.627344,39.924072],[23.65752,39.934473],[23.674121,39.958887],[23.46709,40.073926],[23.433203,40.11543],[23.386426,40.221973],[23.42627,40.263965],[23.664551,40.223828],[23.835352,40.022266],[23.94707,39.965576],[23.981836,39.994043],[24.000781,40.024609],[23.96748,40.114551],[23.917578,40.155225],[23.823438,40.205127],[23.720508,40.286279],[23.72793,40.329736],[23.823438,40.368018],[23.913184,40.358789],[24.056055,40.303564],[24.158789,40.280029],[24.232422,40.215186],[24.343359,40.147705],[24.29248,40.241797],[24.212793,40.327783],[24.030566,40.409326],[23.932031,40.405762],[23.866797,40.418555],[23.831934,40.481543],[23.878906,40.544385],[23.778711,40.627979],[23.743262,40.677002],[23.762793,40.747803],[23.946094,40.74834],[24.082324,40.724072],[24.234375,40.786133],[24.383789,40.912744],[24.477051,40.947754],[24.556543,40.935596],[24.678711,40.869482],[24.792969,40.85752],[25.004688,40.967529],[25.104492,40.994727],[25.250098,40.932812],[25.325293,40.943115],[25.496777,40.887793],[25.855664,40.844092],[26.010742,40.769141],[26.038965,40.726758],[26.067773,40.683398],[26.105469,40.611328],[26.224219,40.618066],[26.360938,40.606348],[26.578125,40.624658],[26.79209,40.626611],[26.720313,40.544238],[26.447461,40.44502],[26.355273,40.390234],[26.253809,40.314697],[26.252344,40.248145],[26.260156,40.202393],[26.225977,40.141699],[26.202734,40.075391],[26.271777,40.096582],[26.32998,40.123389],[26.467969,40.261475],[26.77207,40.498047],[26.974609,40.564014],[27.258008,40.687354],[27.430176,40.839941],[27.499414,40.973145],[27.747363,41.013281],[27.925195,40.990576],[28.085547,41.061328],[28.172168,41.080713],[28.294922,41.071484],[28.780371,40.97417],[28.95625,41.008203],[28.995996,41.061133],[29.032129,41.140479],[29.057227,41.229736],[28.946777,41.248389],[28.346387,41.466357],[28.197852,41.554492],[28.050293,41.72915],[27.987305,41.854883],[28.014453,41.969043],[27.982715,42.047412],[27.821387,42.208008],[27.708203,42.349951],[27.639551,42.400977],[27.484766,42.468066],[27.753711,42.706543],[27.818359,42.71665],[27.888867,42.749707],[27.896484,43.020703],[27.928906,43.186133],[27.979297,43.230518],[28.035156,43.268262],[28.133691,43.395605],[28.319629,43.426855],[28.46543,43.389307],[28.561816,43.501318],[28.585352,43.742236],[28.590723,43.797412],[28.658594,43.983838],[28.64541,44.295654],[28.699219,44.374219],[28.851758,44.506104],[28.888184,44.574756],[28.807031,44.565039],[28.813574,44.60249],[28.846484,44.636865],[28.849023,44.716309],[28.87041,44.749951],[28.926172,44.81001],[28.891504,44.918652],[28.930566,44.96582],[28.980664,44.99292],[29.095313,44.975049],[29.047754,44.925684],[29.069141,44.871143],[29.081055,44.798828],[29.048242,44.757568],[29.55752,44.843408],[29.605469,44.915479],[29.635352,44.979639],[29.678613,45.15166],[29.689063,45.193213],[29.705859,45.259912],[29.726953,45.343311],[29.670313,45.540674],[29.601172,45.6],[29.60166,45.68252],[29.628418,45.722461],[29.685059,45.754687],[29.821191,45.73208],[29.90166,45.752393],[30.006641,45.797949],[30.18418,45.849951],[30.219043,45.866748],[30.492969,46.090137],[30.511523,46.105371],[30.656738,46.266504],[30.672266,46.304004],[30.72168,46.366211],[30.772852,46.473047],[30.796289,46.552002],[31.136816,46.624463],[31.320312,46.6125],[31.40293,46.628809],[31.496875,46.738379],[31.563379,46.777295],[31.532129,46.664746],[31.657031,46.642432],[31.77959,46.631641],[31.872852,46.649756],[31.90166,46.721631],[31.912695,46.926123],[31.865918,47.003271],[31.836914,47.087012],[31.75918,47.212842],[31.838184,47.157227],[31.864746,47.095117],[31.939551,46.981982],[31.964063,46.854834],[31.944922,46.784375],[31.974316,46.708789],[32.044336,46.64248],[32.127246,46.597217],[32.354102,46.564844],[32.578027,46.615625],[32.552539,46.591992],[32.418945,46.517773],[32.361328,46.474951],[32.131445,46.509375],[31.87793,46.52168],[31.716016,46.55498],[31.554883,46.554297],[31.623633,46.510254],[31.713672,46.471777],[31.855762,46.462451],[32.008496,46.42998],[32.013086,46.387158],[31.991699,46.364404],[31.915918,46.348682],[31.842871,46.346143],[31.77998,46.324658],[31.83125,46.281689],[31.925195,46.287256],[32.035742,46.260986],[32.329883,46.130371],[32.476758,46.083691],[32.796875,46.131494],[32.941797,46.123779],[33.202246,46.175732],[33.263477,46.125684],[33.429883,46.057617],[33.498828,46.078857],[33.594141,46.09624],[33.636719,46.032861],[33.664844,45.94707],[33.466211,45.837939],[33.280078,45.765234],[33.142285,45.749219],[32.828027,45.593018],[32.508008,45.403809],[32.551855,45.350391],[32.611328,45.328076],[32.772656,45.358984],[32.918652,45.348145],[33.186914,45.194775],[33.261523,45.170752],[33.39248,45.187842],[33.555176,45.097656],[33.601172,44.981494],[33.612207,44.907812],[33.530078,44.680518],[33.491309,44.618604],[33.462695,44.596826],[33.450684,44.553662],[33.655859,44.433203],[33.755664,44.398926],[33.909961,44.387598],[34.074414,44.423828],[34.281738,44.538428],[34.469922,44.72168],[34.716895,44.807129],[34.887793,44.823584],[35.087695,44.802637],[35.154785,44.896338],[35.357813,44.978418],[35.472559,45.098486],[35.569531,45.119336],[35.677539,45.102002],[35.759473,45.07085],[35.803613,45.0396],[35.870117,45.005322],[36.054785,45.030811],[36.229883,45.025977],[36.393359,45.065381],[36.428418,45.153271],[36.450781,45.232324],[36.514258,45.30376],[36.575,45.393555],[36.427051,45.433252],[36.290332,45.456738],[36.170508,45.453076],[36.077148,45.424121],[36.012891,45.37168],[35.833496,45.401611],[35.750977,45.389355],[35.558008,45.310889],[35.45752,45.316309],[35.373926,45.353613],[35.260156,45.446924],[35.022852,45.700977],[34.906641,45.878809],[34.857324,45.987354],[34.84375,46.073584],[34.849609,46.189893],[34.969531,46.24209],[35.064063,46.267236],[35.230371,46.440625],[35.291992,46.370703],[35.290918,46.314404],[35.280176,46.279492],[35.217773,46.232178],[35.014551,46.106006],[35.055273,46.104004],[35.132324,46.125879],[35.204395,46.169189],[35.256641,46.203906],[35.400195,46.381396],[35.827148,46.624316],[36.024902,46.666797],[36.194629,46.645508],[36.279492,46.658594],[36.432031,46.732568],[36.558789,46.762695],[36.688672,46.764111],[36.794824,46.714404],[36.932031,46.825146],[37.047559,46.876221],[37.218555,46.917334],[37.339844,46.916895],[37.543359,47.074561],[37.828711,47.09585],[38.17832,47.080225],[38.214355,47.091455],[38.484766,47.175537],[38.577246,47.239111],[38.761914,47.261621],[38.736035,47.23584],[38.644336,47.212207],[38.552441,47.150342],[38.668164,47.143945],[38.92832,47.175684],[39.02373,47.272217],[39.195703,47.268848],[39.244531,47.199512],[39.293457,47.105762],[39.289062,47.070898],[39.270703,47.044141],[39.126758,47.023438],[38.801074,46.906152],[38.630762,46.873047],[38.438672,46.813086],[38.487988,46.732178],[38.500977,46.663672],[38.343457,46.67832],[38.22998,46.70127],[38.159473,46.690674],[37.967969,46.618018],[37.867383,46.633789],[37.766504,46.636133],[37.80957,46.53208],[37.913867,46.406494],[37.977539,46.382861],[38.077734,46.394336],[38.315234,46.241943],[38.492285,46.090527],[38.400391,46.080029],[38.311816,46.095361],[38.183594,46.094824],[38.132812,46.002832],[38.07959,45.934814],[38.069727,45.969873],[38.073828,46.01709],[38.014258,46.047754],[37.933105,46.001709],[37.840918,45.799561],[37.669238,45.654053],[37.612402,45.564697],[37.609961,45.499512],[37.634375,45.486328],[37.671875,45.488379],[37.672949,45.429736],[37.647168,45.377197],[37.264258,45.310937],[37.213574,45.272314],[37.103516,45.302881],[36.977832,45.383594],[36.865918,45.427051],[36.79375,45.409717],[36.72041,45.371875],[36.761621,45.34834],[36.811035,45.340039],[36.941211,45.289697],[36.873047,45.251758],[36.619141,45.185498],[36.627637,45.151318],[36.650781,45.126465],[36.944434,45.06958],[37.204785,44.971973],[37.284082,44.905029],[37.352344,44.788379],[37.411328,44.735352],[37.495117,44.695264],[37.572461,44.67085],[37.704883,44.661377],[37.851465,44.698828],[38.18125,44.419678],[38.311816,44.374463],[38.63584,44.318018],[38.717285,44.288086],[39.329395,43.897266],[39.516699,43.727881],[39.873633,43.472803],[39.97832,43.419824],[40.190625,43.312402],[40.462109,43.145703],[40.524023,43.121045],[40.836621,43.063477],[41.061621,42.930859],[41.128711,42.828125],[41.419434,42.737646],[41.48877,42.659326],[41.577734,42.397852],[41.663281,42.146875],[41.762988,41.97002],[41.760742,41.884863],[41.758789,41.817139],[41.701758,41.70542],[41.510059,41.51748],[41.414355,41.423633],[41.083594,41.261182],[40.959473,41.211621],[40.819531,41.190234],[40.6875,41.107422],[40.265234,40.961328],[40.128418,40.943018],[40.000195,40.977148],[39.911133,40.966455],[39.80791,40.98252],[39.426367,41.106445],[38.852148,41.017676],[38.556934,40.936523],[38.381055,40.924512],[37.910059,41.001904],[37.765625,41.078906],[37.430957,41.114111],[37.066211,41.184424],[36.991992,41.275391],[36.777734,41.363477],[36.64707,41.352539],[36.587109,41.32666],[36.509668,41.2625],[36.405371,41.274609],[36.278418,41.336133],[36.179199,41.426562],[36.051758,41.682568],[35.978125,41.704834],[35.919824,41.713721],[35.558008,41.634033],[35.297754,41.728516],[35.20918,41.794385],[35.12207,41.891113],[35.114063,41.956982],[35.141016,41.989502],[35.154883,42.027539],[35.006445,42.063281],[34.750488,41.956836],[34.192969,41.963672],[33.381348,42.017578],[33.284766,42.00459],[32.94668,41.891748],[32.542188,41.806396],[32.306445,41.72959],[32.086426,41.589209],[31.458008,41.32002],[31.34668,41.15791],[31.254883,41.107617],[30.810059,41.084863],[30.344922,41.196924],[29.919336,41.15083],[29.322266,41.227734],[29.148145,41.221045],[29.094336,41.177246],[29.067383,41.10166],[29.045508,41.007568],[29.082227,40.963428],[29.113867,40.937842],[29.259766,40.847314],[29.364746,40.809277],[29.800586,40.760156],[29.849219,40.760107],[29.844922,40.738086],[29.507617,40.708398],[29.054102,40.649121],[28.958008,40.630566],[28.787891,40.534033],[28.841211,40.503467],[28.894629,40.482422],[28.974023,40.467383],[29.055176,40.42417],[29.007129,40.389746],[28.738867,40.390869],[28.630273,40.376465],[28.289062,40.403027],[27.962598,40.369873],[27.928906,40.38042],[27.964355,40.435303],[27.994824,40.466602],[27.989551,40.489453],[27.874902,40.512939],[27.769141,40.509619],[27.731836,40.481494],[27.848535,40.381738],[27.789355,40.350879],[27.728027,40.328809],[27.475586,40.319922],[27.332617,40.375928],[27.31416,40.414893],[27.28457,40.455615],[27.12168,40.452344],[27.012109,40.396338],[26.738086,40.400244],[26.475391,40.197266],[26.313379,40.025],[26.181348,39.990088],[26.149805,39.872852],[26.154688,39.656641],[26.101367,39.568945],[26.095996,39.520801],[26.113086,39.467383],[26.350781,39.484082],[26.484082,39.520703],[26.827051,39.562891],[26.899219,39.549658],[26.910938,39.517334],[26.813281,39.419043],[26.710742,39.339648],[26.681836,39.292236],[26.719336,39.260645],[26.853613,39.115625],[26.849316,39.056738],[26.808301,39.013916],[26.814941,38.960986],[26.866211,38.922949],[26.920313,38.934229],[26.970117,38.919043],[27.013672,38.886865],[26.90918,38.775781],[26.790137,38.736084],[26.763672,38.709619],[26.787695,38.660205],[26.795313,38.626416],[26.837793,38.557568],[26.906836,38.481738],[26.97041,38.447852],[27.144238,38.451953],[27.098633,38.415723],[26.861426,38.372949],[26.769922,38.388184],[26.727344,38.418604],[26.696387,38.405371],[26.674219,38.335742],[26.641309,38.352441],[26.59502,38.418604],[26.610352,38.486914],[26.586523,38.557031],[26.513574,38.629492],[26.441309,38.641211],[26.377832,38.62417],[26.372266,38.561914],[26.429688,38.440625],[26.416406,38.367871],[26.343652,38.370068],[26.290723,38.277197],[26.33291,38.24248],[26.42793,38.214355],[26.524707,38.162256],[26.582422,38.149268],[26.621094,38.176367],[26.682813,38.19834],[26.807422,38.13833],[26.878613,38.054785],[26.943848,38.062891],[27.158691,37.986865],[27.232422,37.978662],[27.254785,37.882324],[27.224414,37.725439],[27.077832,37.687695],[27.067969,37.65791],[27.147949,37.603613],[27.203906,37.491406],[27.219238,37.38916],[27.289551,37.348682],[27.37627,37.340723],[27.400586,37.306738],[27.520117,37.249121],[27.535059,37.163867],[27.368164,37.122412],[27.300195,37.126855],[27.249707,37.07915],[27.262988,36.976562],[27.311035,36.981885],[27.348926,37.01958],[27.668359,37.007422],[28.133691,37.029492],[28.242383,37.029053],[28.224414,36.996387],[28.083008,36.920264],[28.005371,36.831982],[27.934473,36.809277],[27.630859,36.78667],[27.554688,36.758887],[27.466895,36.746338],[27.453906,36.712158],[27.54043,36.684229],[27.655859,36.674609],[27.803809,36.736475],[28.083984,36.751465],[28.01416,36.670215],[28.019434,36.634473],[28.111523,36.646387],[28.195605,36.686328],[28.303711,36.811963],[28.483594,36.803809],[28.717676,36.700879],[28.816895,36.675293],[28.895898,36.673584],[28.969629,36.715332],[29.038281,36.693457],[29.058105,36.638135],[29.065527,36.590088],[29.116113,36.520117],[29.143262,36.397217],[29.223633,36.324463],[29.34834,36.258838],[29.689063,36.156689],[29.789258,36.168066],[30.083203,36.249365],[30.231641,36.307324],[30.29541,36.287695],[30.387305,36.243262],[30.446094,36.269873],[30.483594,36.3104],[30.506055,36.451123],[30.558496,36.52583],[30.582031,36.797168],[30.644043,36.865674],[30.950293,36.848682],[31.240625,36.821729],[31.352539,36.801074],[31.77793,36.612793],[32.021973,36.535303],[32.130566,36.449121],[32.283789,36.267871],[32.377734,36.183643],[32.533789,36.100732],[32.794824,36.035889],[32.929492,36.095703],[33.099512,36.102979],[33.441797,36.152832],[33.522754,36.143994],[33.694727,36.181982],[33.954883,36.295215],[34.023438,36.340771],[34.299609,36.604199],[34.601367,36.784473],[34.703613,36.816797],[34.81123,36.799268],[34.943164,36.725684],[35.176172,36.634863],[35.393164,36.575195],[35.537402,36.597021],[35.625586,36.652783],[35.661133,36.724316],[35.734277,36.763965],[35.801563,36.778076],[35.90459,36.847607],[36.048926,36.910596],[36.135156,36.851611],[36.180078,36.807227],[36.188184,36.743066],[36.188477,36.658984],[36.031738,36.522705],[35.882812,36.406348],[35.810938,36.309863],[35.887109,36.159082],[35.956934,35.998145],[35.892676,35.916553],[35.839648,35.849219],[35.764453,35.571582],[35.902441,35.420703],[35.916016,35.350537],[35.918066,35.299512],[35.943066,35.223828],[35.889941,35.060303],[35.887891,34.948633],[35.899316,34.8521],[35.97627,34.629199],[35.97793,34.547412],[35.921387,34.493311],[35.804297,34.437402],[35.647852,34.248242],[35.611816,34.032178],[35.51084,33.879736],[35.335742,33.503467],[35.251367,33.392627],[35.203516,33.258984],[35.155078,33.16001],[35.108594,33.083691],[35.077051,32.967187],[35.005859,32.826611],[34.921875,32.614062],[34.803809,32.196338],[34.678418,31.895703],[34.483984,31.592285],[34.477344,31.584863],[34.387305,31.483789],[34.198145,31.322607],[34.17627,31.303906],[33.902539,31.180957],[33.666504,31.13042],[33.37793,31.130957],[33.194336,31.084521],[33.156738,31.126221],[33.129883,31.168164],[32.901563,31.110937],[32.854492,31.117725],[32.68457,31.074023],[32.60332,31.06875],[32.532813,31.100732],[32.323535,31.256055],[32.250586,31.294922],[32.216211,31.29375],[32.242773,31.246533],[32.281836,31.200879],[32.206543,31.119043],[32.101758,31.092822],[32.065625,31.152979],[32.008496,31.220508],[31.902051,31.240186],[31.771094,31.292578],[31.875879,31.413721],[31.892188,31.482471],[32.076074,31.344482],[32.136035,31.341064],[31.964258,31.5021],[31.888965,31.541406],[31.839258,31.526318],[31.606543,31.455762],[31.524414,31.458252],[31.193945,31.587598],[31.08291,31.60332],[31.051953,31.591553],[31.030859,31.507568],[31.001758,31.462793],[30.841406,31.439893],[30.700488,31.403857],[30.562988,31.416992],[30.88418,31.522363],[30.923535,31.566846],[30.570996,31.472998],[30.395117,31.457617],[30.34375,31.402734],[30.312305,31.357031],[30.262305,31.316846],[30.222656,31.258398],[30.127539,31.255664],[30.049414,31.26543],[29.929785,31.22749],[29.591602,31.011523],[29.428516,30.927441],[29.278906,30.866943],[29.159961,30.83457],[29.07207,30.830273],[28.972754,30.856738],[28.806934,30.942676],[28.514844,31.050439],[27.967578,31.097412],[27.82998,31.19502],[27.620117,31.191748],[27.540039,31.212695],[27.248047,31.377881],[26.768652,31.470361],[26.457324,31.512109],[25.893262,31.620898],[25.382227,31.512793],[25.225488,31.533789],[25.150488,31.65498],[25.115039,31.712305],[25.025,31.88335],[24.950684,31.953711],[24.878516,31.984277],[24.683887,32.015967],[24.479785,31.996533],[24.129688,32.009229],[24.038965,32.037012],[23.898438,32.127197],[23.797656,32.158691],[23.286328,32.213818],[23.10625,32.331445],[23.110449,32.397412],[23.129688,32.448145],[23.090625,32.61875],[22.916895,32.687158],[22.754102,32.740527],[22.523438,32.793945],[22.340625,32.879883],[22.187402,32.918262],[21.839453,32.908643],[21.721387,32.94248],[21.635938,32.937305],[21.424707,32.79917],[21.31875,32.777686],[21.062305,32.775537],[20.621094,32.580176],[20.370605,32.430762],[20.121484,32.21875],[20.030957,32.107861],[19.973438,31.999072],[19.926367,31.817529],[19.96123,31.556006],[20.02002,31.410645],[20.103809,31.300537],[20.141113,31.195508],[20.150977,31.078613],[20.111523,30.963721],[20.013184,30.800684],[19.713281,30.488379],[19.589844,30.41377],[19.291699,30.288086],[19.12373,30.266113],[18.936426,30.29043],[18.669824,30.415674],[18.19043,30.777295],[17.949316,30.851904],[17.830469,30.927588],[17.349219,31.081494],[16.781543,31.214746],[16.450977,31.227295],[16.123047,31.264453],[15.832227,31.360986],[15.705957,31.426416],[15.595801,31.531104],[15.496387,31.656787],[15.414062,31.834229],[15.363086,31.971191],[15.359082,32.159668],[15.266895,32.31167],[15.176563,32.391162],[14.513379,32.511084],[14.423828,32.550293],[14.237109,32.68125],[14.155664,32.709766],[13.835352,32.791797],[13.647754,32.798828],[13.536328,32.824268],[13.283496,32.914648],[13.138086,32.897363],[12.753516,32.801074],[12.427051,32.829102],[12.279883,32.858545],[11.813477,33.093701],[11.657129,33.118896],[11.50459,33.181934],[11.400586,33.224902],[11.338086,33.209473],[11.234277,33.233594],[11.202637,33.249219],[11.232129,33.271582],[11.269922,33.286328],[11.257422,33.308838],[11.150293,33.369238],[11.08457,33.562891],[10.958008,33.626318],[10.898438,33.533691],[10.828125,33.518896],[10.722754,33.514404],[10.704297,33.609668],[10.713184,33.689014],[10.454297,33.6625],[10.305273,33.728271],[10.158984,33.850049],[10.049023,34.056299],[10.040039,34.140332],[10.064844,34.211621],[10.118359,34.280078],[10.200391,34.346045],[10.534863,34.544727],[10.690918,34.678467],[10.866211,34.884326],[10.955859,35.033643],[11.120117,35.240283],[11.043262,35.335107],[11.031543,35.453857],[11.000684,35.551611],[11.004297,35.633838],[10.783691,35.77207],[10.688965,35.799512],[10.59082,35.887256],[10.505762,36.032422],[10.476562,36.175146],[10.487988,36.254883],[10.525684,36.32334],[10.642383,36.419629],[10.798145,36.493115],[10.967188,36.743018],[11.056543,36.841455],[11.12666,36.874072],[11.077051,36.966699],[11.053906,37.07251],[10.951367,37.059277],[10.766211,36.930273],[10.571289,36.879443],[10.518164,36.791357],[10.412305,36.731836],[10.293262,36.781494],[10.334082,36.865381],[10.18877,37.033887],[10.196387,37.205859],[10.087402,37.25127],[9.988086,37.257764],[9.875586,37.25415],[9.879395,37.212842],[9.896387,37.181641],[9.830273,37.135352],[9.783984,37.211426],[9.815527,37.254639],[9.838477,37.308984],[9.758887,37.330273],[9.687988,37.340381],[9.141992,37.194629],[9.058887,37.155859],[8.823535,36.997607],[8.576563,36.937207],[8.127148,36.910352],[7.910449,36.856348],[7.791602,36.880273],[7.607715,36.999756],[7.432422,37.059277],[7.204297,37.092383],[7.238477,36.968506],[7.143457,36.943359],[6.927539,36.919434],[6.575879,37.003027],[6.486523,37.085742],[6.327832,37.046045],[6.249121,36.93833],[6.064746,36.864258],[5.725488,36.799609],[5.424609,36.675439],[5.29541,36.648242],[5.195605,36.676807],[4.99541,36.808057],[4.877832,36.862402],[4.758105,36.896338],[3.779004,36.896191],[3.520508,36.795117],[2.972852,36.784473],[2.846484,36.738867],[2.593359,36.600684],[2.342871,36.610303],[1.974512,36.567578],[1.257227,36.51958],[0.97168,36.443945],[0.79082,36.356543],[0.514941,36.261816],[0.312207,36.162354],[0.15166,36.063135],[0.047949,35.900537],[-0.048242,35.832812],[-0.18916,35.819092],[-0.350781,35.863184],[-0.426123,35.861523],[-0.91748,35.668408],[-1.087695,35.578857],[-1.205371,35.495752],[-1.33584,35.364258],[-1.48374,35.303076],[-1.673633,35.183105],[-1.913281,35.094238],[-2.017773,35.085059],[-2.219629,35.104199],[-2.42373,35.123486],[-2.636816,35.112695],[-2.731396,35.135205],[-2.839941,35.127832],[-2.869531,35.172656],[-2.925977,35.287109],[-2.953613,35.315137],[-2.957959,35.363086],[-2.972217,35.407275],[-3.063086,35.317236],[-3.206006,35.239111],[-3.394727,35.211816],[-3.590625,35.22832],[-3.693262,35.27998],[-3.787988,35.244922],[-3.982422,35.243408],[-4.32998,35.161475],[-4.62832,35.206396],[-4.837207,35.281299],[-5.105371,35.467773],[-5.252686,35.614746],[-5.337646,35.745215],[-5.337646,35.856543],[-5.277832,35.902734],[-5.397363,35.929883],[-5.522266,35.862012],[-5.622852,35.828906],[-5.747949,35.815967],[-5.924805,35.785791],[-5.957568,35.681152],[-6.353125,34.776074],[-6.755762,34.13291],[-6.900977,33.969043],[-7.144678,33.830322],[-7.562354,33.640283],[-8,33.48276389647518],[-8,14]],[[46.707227,44.50332],[46.716113,44.560693],[46.755273,44.656543],[46.841211,44.718262],[46.957422,44.782568],[46.983691,44.825586],[47.00293,44.876074],[47.039258,44.837891],[47.083789,44.816992],[47.114746,44.905957],[47.161523,44.969629],[47.221484,45.024268],[47.296191,45.149463],[47.35127,45.217725],[47.391113,45.294775],[47.413086,45.421045],[47.454492,45.433057],[47.488672,45.455078],[47.514551,45.490918],[47.529492,45.530225],[47.524219,45.601709],[47.463281,45.679688],[47.479395,45.687598],[47.508398,45.67417],[47.574023,45.634277],[47.633301,45.584033],[47.649805,45.656738],[47.701074,45.686182],[47.763965,45.665967],[47.830176,45.663037],[48.052832,45.720996],[48.15918,45.737012],[48.257617,45.777783],[48.487012,45.934863],[48.537305,45.942139],[48.589063,45.934863],[48.637402,45.905762],[48.689648,45.888867],[48.72959,45.896826],[48.749609,45.920557],[48.703418,45.976221],[48.687305,46.02876],[48.683691,46.086182],[48.742578,46.100732],[48.809961,46.100488],[49.07959,46.189209],[49.110645,46.228467],[49.125488,46.281738],[49.245898,46.291602],[49.232227,46.337158],[49.205664,46.385693],[49.28584,46.436816],[49.362109,46.410205],[49.344238,46.485547],[49.347461,46.519141],[49.437207,46.537256],[49.584375,46.545215],[49.631543,46.567578],[49.760547,46.571484],[49.886328,46.595654],[49.999805,46.634277],[50.101562,46.696436],[50.30625,46.794922],[50.419336,46.879492],[50.472266,46.88291],[50.528418,46.873291],[50.58291,46.882275],[50.679883,46.938721],[50.732715,46.95166],[50.92002,47.040674],[51.178027,47.110156],[51.29082,47.097314],[51.615234,47.029932],[51.650098,47.018066],[51.744531,46.93374],[51.945117,46.894873],[52.011133,46.901904],[52.085547,46.8396],[52.138281,46.828613],[52.18877,46.839502],[52.340332,46.894775],[52.384863,46.922119],[52.420313,46.963672],[52.483203,46.990674],[52.677637,46.957129],[52.916016,46.954395],[53.03457,46.89292],[53.069434,46.856055],[53.1375,46.742041],[53.170215,46.669043],[53.132422,46.60835],[53.078516,46.547461],[53.063965,46.475293],[53.108984,46.414062],[53.135254,46.19165],[53.041602,45.967871],[52.8875,45.779541],[52.773828,45.572754],[52.8375,45.496729],[53.085742,45.407373],[53.200391,45.331982],[53.078906,45.30752],[52.910742,45.319727],[52.771973,45.343506],[52.531055,45.398633],[52.426758,45.404639],[52.04873,45.388379],[51.732617,45.399463],[51.539648,45.342871],[51.415723,45.357861],[51.333398,45.27959],[51.294043,45.229785],[51.249902,45.12168],[51.153711,45.040234],[51.040332,44.980322],[51.009375,44.921826],[51.020703,44.854004],[51.05791,44.811572],[51.218164,44.708984],[51.310254,44.61875],[51.366309,44.599854],[51.431055,44.601953],[51.49375,44.577539],[51.543555,44.531006],[51.37666,44.541211],[51.310742,44.532422],[51.177148,44.501367],[51.110742,44.507812],[51.048828,44.530469],[50.860352,44.62876],[50.652441,44.63335],[50.409473,44.624023],[50.297461,44.581543],[50.264551,44.526562],[50.25293,44.461523],[50.252539,44.406494],[50.275586,44.355127],[50.331152,44.325488],[50.471777,44.294775],[50.684961,44.265088],[50.782617,44.228027],[50.830762,44.192773],[50.939844,43.958545],[51.064844,43.750146],[51.139648,43.648779],[51.238965,43.576709],[51.274121,43.53291],[51.301758,43.482373],[51.313867,43.42085],[51.313379,43.355664],[51.292383,43.230713],[51.29541,43.174121],[51.347852,43.167383],[51.514063,43.170508],[51.616016,43.158447],[51.700391,43.104053],[51.785156,43.004346],[51.811035,42.954443],[51.844141,42.910449],[51.898242,42.869629],[51.960742,42.850586],[52.018555,42.860547],[52.075586,42.879785],[52.183691,42.86875],[52.273047,42.799805],[52.324414,42.816162],[52.434277,42.824463],[52.493945,42.820264],[52.55,42.805469],[52.596582,42.760156],[52.638477,42.555664],[52.618359,42.428223],[52.573242,42.330859],[52.517188,42.237158],[52.462109,42.100635],[52.458594,42.04834],[52.467578,41.885889],[52.493848,41.780371],[52.609375,41.529443],[52.747266,41.36543],[52.825586,41.230859],[52.850391,41.200293],[52.861816,41.210059],[52.830176,41.341895],[52.882227,41.613672],[52.883496,41.652539],[52.814844,41.711816],[52.905273,41.895752],[52.97002,41.976221],[53.108301,42.070068],[53.16416,42.093799],[53.284961,42.081836],[53.495898,42.120166],[53.624902,42.136377],[53.752344,42.129395],[53.804688,42.117627],[53.846484,42.091162],[53.953809,41.868457],[53.995215,41.772559],[54.039844,41.643359],[54.094824,41.519385],[54.181055,41.431592],[54.28457,41.363721],[54.592188,41.193555],[54.671484,41.122168],[54.703711,41.071143],[54.717969,41.012988],[54.723242,40.95127],[54.710059,40.891113],[54.685059,40.873047],[54.657031,40.85835],[54.54707,40.832275],[54.374414,40.871387],[54.319434,40.83457],[54.33623,40.764941],[54.377344,40.693262],[54.329883,40.68877],[54.283301,40.693701],[54.192969,40.72041],[54.088867,40.70708],[53.87002,40.648682],[53.76377,40.665674],[53.69375,40.746436],[53.615234,40.818506],[53.520313,40.831055],[53.423633,40.792773],[53.33291,40.782715],[53.191992,40.809473],[53.145215,40.824951],[53.05957,40.889746],[52.997656,40.959863],[52.943457,41.038086],[52.889258,40.863477],[52.849902,40.685645],[52.784766,40.546729],[52.733691,40.39873],[52.744434,40.219775],[52.804688,40.054004],[52.898242,39.9125],[52.964844,39.833887],[53.035547,39.774414],[52.952148,39.895459],[52.9875,39.987598],[53.138574,39.978662],[53.288574,39.958008],[53.404199,39.960352],[53.454297,39.940869],[53.487305,39.909375],[53.458301,39.831201],[53.450488,39.748535],[53.472266,39.668799],[53.533301,39.641748],[53.582422,39.607422],[53.603125,39.546973],[53.497363,39.533301],[53.389648,39.536426],[53.30498,39.55708],[53.235645,39.608545],[53.124805,39.43208],[53.124023,39.34668],[53.156641,39.26499],[53.20332,39.316797],[53.266797,39.342627],[53.336328,39.34082],[53.475,39.305713],[53.539453,39.274072],[53.617578,39.215967],[53.70459,39.20957],[53.709766,39.153418],[53.724121,39.103076],[53.814941,39.018018],[53.868652,38.949268],[53.885352,38.864062],[53.87373,38.741943],[53.851562,38.621777],[53.840039,38.514941],[53.851855,38.405908],[53.854102,38.285645],[53.825195,38.046924],[53.823535,37.92793],[53.847852,37.66958],[53.897852,37.413574],[53.91416,37.343555],[53.951953,37.181738],[54.017188,36.95249],[54.023828,36.901318],[54.016211,36.849658],[53.970117,36.818311],[53.90625,36.812695],[53.76875,36.818457],[53.679492,36.853125],[53.827441,36.881201],[53.91543,36.930322],[53.767676,36.930322],[53.374121,36.86875],[52.190137,36.621729],[51.762012,36.614502],[51.118555,36.742578],[50.927441,36.810205],[50.533203,37.013672],[50.337891,37.14917],[50.214063,37.3396],[50.17627,37.380518],[50.130469,37.407129],[49.980664,37.444873],[49.726953,37.480518],[49.470117,37.49668],[49.372461,37.519971],[49.171191,37.600586],[49.080957,37.667578],[49.015332,37.776074],[48.959961,37.890137],[48.925098,38.015137],[48.901367,38.143652],[48.870703,38.392529],[48.86875,38.435498],[48.850879,38.815332],[48.854492,38.838818],[48.926172,38.961768],[48.961719,39.07876],[49.013477,39.133984],[49.111328,39.084717],[49.108691,39.029053],[49.120996,39.003906],[49.165332,39.030273],[49.199805,39.072656],[49.269336,39.285156],[49.321191,39.328906],[49.362793,39.349561],[49.367383,39.398389],[49.327539,39.501221],[49.324414,39.60835],[49.415137,39.839844],[49.477344,40.087256],[49.551172,40.194141],[49.669043,40.249023],[49.791992,40.287891],[49.918848,40.316406],[50.143164,40.323242],[50.365918,40.279492],[50.306836,40.412207],[50.248047,40.461768],[50.18252,40.504785],[50.119141,40.534521],[49.990625,40.576807],[49.851758,40.577197],[49.775977,40.583984],[49.718359,40.608105],[49.556152,40.716309],[49.456738,40.799854],[49.226465,41.026221],[49.174707,41.116113],[49.143262,41.217773],[49.106641,41.301709],[49.050879,41.373975],[48.823926,41.62959],[48.664648,41.786621],[48.572852,41.844482],[48.476758,41.905127],[48.426367,41.923975],[48.383789,41.953418],[48.303027,42.080225],[48.228613,42.180957],[48.080176,42.353711],[47.822363,42.613477],[47.769727,42.644775],[47.727734,42.680713],[47.709082,42.810937],[47.634863,42.903467],[47.529004,42.967139],[47.488867,42.999756],[47.463184,43.035059],[47.512891,43.21875],[47.511621,43.270752],[47.489844,43.381689],[47.508984,43.509717],[47.567969,43.684961],[47.627832,43.805957],[47.646484,43.884619],[47.562598,43.834668],[47.462793,43.555029],[47.429199,43.779883],[47.361523,43.993359],[47.307031,44.103125],[47.229883,44.192383],[47.122656,44.26167],[47.023633,44.343262],[46.915723,44.387158],[46.753027,44.420654],[46.720898,44.45166],[46.707227,44.50332]]],[[[-8,51.84764383426065],[-7.95249,51.865771],[-7.872168,51.935303],[-7.837988,51.947998],[-7.664551,51.979736],[-7.624902,51.993115],[-7.589844,52.018555],[-7.563184,52.061621],[-7.527295,52.098877],[-7.440869,52.122705],[-7.216211,52.144971],[-7.081787,52.139307],[-7.003271,52.165918],[-6.965771,52.249512],[-6.914648,52.168555],[-6.890234,52.159229],[-6.859717,52.178564],[-6.782227,52.210498],[-6.697314,52.213525],[-6.561084,52.188818],[-6.437939,52.202686],[-6.325,52.24668],[-6.463184,52.345361],[-6.399951,52.366943],[-6.34541,52.402002],[-6.217236,52.543115],[-6.199219,52.663477],[-6.169336,52.738135],[-6.130664,52.807275],[-6.071484,52.865625],[-6.027393,52.9271],[-6.035225455413197,53],[-8,53],[-8,51.84764383426065]]],[[[-5.65625,50.131885],[-5.655176,50.077246],[-5.622119,50.050684],[-5.551221,50.083398],[-5.433984,50.104443],[-5.322852,50.082959],[-5.225244,50.021387],[-5.118506,50.03833],[-5.048633,50.134375],[-5.009521,50.160742],[-4.817383,50.255957],[-4.727979,50.290479],[-4.506689,50.341357],[-4.379492,50.358203],[-4.296973,50.359082],[-4.217285,50.378174],[-4.19458,50.393311],[-4.172559,50.39082],[-4.103418,50.348535],[-3.900195,50.285937],[-3.793359,50.229248],[-3.679785,50.239941],[-3.584375,50.321826],[-3.525879,50.428174],[-3.485449,50.547949],[-3.40459,50.632422],[-2.999414,50.716602],[-2.900879,50.722412],[-2.776953,50.705566],[-2.658838,50.669727],[-2.547754,50.616309],[-2.433447,50.599219],[-2.394678,50.630908],[-2.350146,50.637402],[-2.03584,50.603076],[-1.9979,50.608008],[-1.962061,50.627783],[-2.00625,50.673242],[-2.031055,50.725391],[-1.866016,50.715234],[-1.687891,50.735156],[-1.60083,50.732861],[-1.516748,50.747461],[-1.334473,50.820801],[-1.416455,50.896875],[-1.285059,50.857324],[-1.132861,50.84458],[-1.000586,50.815625],[-0.871387,50.772803],[-0.785254,50.76543],[-0.450781,50.810156],[-0.203906,50.814355],[0.205078,50.763037],[0.299707,50.775977],[0.414746,50.819189],[0.532324,50.853418],[0.684375,50.885547],[0.772363,50.933984],[0.960156,50.925879],[0.978613,50.97168],[1.044434,51.047266],[1.365527,51.155469],[1.397559,51.182031],[1.415625,51.31084],[1.414941,51.363281],[1.373438,51.374707],[1.257129,51.375098],[1.014941,51.359717],[0.889355,51.359521],[0.686523,51.386572],[0.645508,51.404687],[0.600293,51.467969],[0.52832,51.484473],[0.424512,51.465625],[0.507227,51.501074],[0.593457,51.519482],[0.697559,51.523047],[0.799219,51.537891],[0.890918,51.571436],[0.927441,51.646631],[0.898047,51.689404],[0.752246,51.72959],[0.955078,51.807812],[1.101172,51.785449],[1.188477,51.803369],[1.274414,51.845361],[1.273828,51.9021],[1.227832,51.949121],[1.232422,51.97124],[1.275977,51.973535],[1.316797,51.956934],[1.413477,51.994775],[1.558984,52.086865],[1.591406,52.119775],[1.614648,52.161816],[1.647363,52.278516],[1.700391,52.368896],[1.746582,52.468994],[1.743359,52.578516],[1.716113,52.677246],[1.656738,52.753711],[1.382129,52.893506],[1.271289,52.924561],[1.055566,52.958984],[0.948535,52.953369],[0.826758,52.971094],[0.704492,52.977246],[0.558789,52.966943],[0.515527,52.938379],[0.431641,52.858154],[0.381934,52.825195],[0.330176,52.811621],[0.279785,52.808691],[0.045898,52.905615],[0.124414,52.971582],[0.16515374373364125,53],[-4.435043543612334,53],[-4.525684,52.958203],[-4.63833,52.891113],[-4.681445,52.844141],[-4.683057,52.806152],[-4.583691,52.814941],[-4.471826,52.862451],[-4.356445,52.897412],[-4.22915,52.912842],[-4.101465,52.915479],[-4.114746,52.866162],[-4.117529,52.82002],[-4.067432,52.760742],[-4.039258,52.704053],[-4.070703,52.658838],[-4.078906,52.607861],[-4.048437,52.557617],[-3.980322,52.541748],[-4.050537,52.475146],[-4.099756,52.393115],[-4.149365,52.32627],[-4.217725,52.277441],[-4.383154,52.197314],[-4.561133,52.150879],[-4.878516,52.041846],[-5.088086,51.995898],[-5.18335,51.949658],[-5.262305,51.880176],[-5.200586,51.861377],[-5.167236,51.808057],[-5.168359,51.740723],[-5.124756,51.705859],[-4.902295,51.62627],[-4.717627,51.683691],[-4.600781,51.737646],[-4.531494,51.748047],[-4.386279,51.741064],[-4.327637,51.700244],[-4.276172,51.68252],[-4.091016,51.659912],[-4.173682,51.627344],[-4.23457,51.569092],[-4.115283,51.566406],[-3.99834,51.582129],[-3.943652,51.59751],[-3.890771,51.59165],[-3.762695,51.539941],[-3.562354,51.413818],[-3.293115,51.39043],[-3.258789,51.398486],[-3.080371,51.495801],[-2.978516,51.538867],[-2.742139,51.581104],[-2.667676,51.622998],[-2.539355,51.695215],[-2.433057,51.740723],[-2.590283,51.608594],[-2.687207,51.537256],[-2.79082,51.474805],[-2.88125,51.405664],[-3.042041,51.248584],[-3.135986,51.205029],[-3.255762,51.194141],[-3.375098,51.196973],[-3.60791,51.228564],[-3.842334,51.230908],[-4.158398,51.201318],[-4.188184,51.188525],[-4.296484,51.027148],[-4.523096,50.977441],[-4.546094,50.900684],[-4.559961,50.820947],[-4.58291,50.776367],[-4.861279,50.582031],[-4.893555,50.533691],[-4.956396,50.523145],[-5.004443,50.495264],[-5.043457,50.451514],[-5.141797,50.37373],[-5.342285,50.246143],[-5.570654,50.196973],[-5.65625,50.131885]]],[[[-2.646143,49.468213],[-2.639014,49.450928],[-2.547363,49.428711],[-2.512305,49.494531],[-2.520898,49.506299],[-2.542187,49.506592],[-2.646143,49.468213]]],[[[-2.23584,49.176367],[-2.165674,49.187402],[-2.091016,49.187402],[-2.05376,49.169824],[-2.009912,49.180811],[-2.018652,49.23125],[-2.082227,49.255371],[-2.220508,49.266357],[-2.23584,49.176367]]],[[[-1.563428,50.666113],[-1.515332,50.669775],[-1.306299,50.588525],[-1.251465,50.588818],[-1.196094,50.599219],[-1.17583,50.615234],[-1.149365,50.655713],[-1.065576,50.690234],[-1.144238,50.734717],[-1.312793,50.773486],[-1.38584,50.733545],[-1.515674,50.70332],[-1.563428,50.666113]]],[[[-1.388867,46.032959],[-1.368701,45.967676],[-1.280273,45.897119],[-1.213574,45.816602],[-1.17832,45.904053],[-1.285059,46.002686],[-1.388672,46.050391],[-1.388867,46.032959]]],[[[1.22334,38.903857],[1.256934,38.879004],[1.408984,38.857275],[1.445215,38.918701],[1.494531,38.93252],[1.623633,39.038818],[1.613184,39.087402],[1.564453,39.121045],[1.348633,39.080811],[1.302539,39.031152],[1.299805,38.981738],[1.25625,38.973389],[1.22334,38.903857]]],[[[1.401953,38.711426],[1.405762,38.670996],[1.50498,38.670996],[1.571191,38.658838],[1.593945,38.67207],[1.592676,38.701465],[1.496875,38.711914],[1.436328,38.768213],[1.417188,38.739648],[1.401953,38.711426]]],[[[2.37002,39.57207],[2.394336,39.540381],[2.458789,39.530469],[2.499512,39.477881],[2.575879,39.530664],[2.634082,39.556201],[2.700586,39.542139],[2.745996,39.510254],[2.769824,39.410254],[2.799805,39.385059],[2.900098,39.368359],[3.072852,39.30127],[3.15459,39.333252],[3.244727,39.386621],[3.292969,39.477051],[3.34873,39.555664],[3.414648,39.627148],[3.461816,39.697754],[3.448926,39.76123],[3.395898,39.777295],[3.342188,39.786719],[3.241113,39.756689],[3.145313,39.790088],[3.158691,39.836572],[3.190918,39.861377],[3.198633,39.889844],[3.166992,39.907715],[3.164453,39.924219],[3.197559,39.961084],[3.158691,39.970508],[2.904785,39.908301],[2.784961,39.854834],[2.371289,39.613086],[2.37002,39.57207]]],[[[3.698535,51.729687],[3.699023,51.709912],[3.731836,51.678223],[3.819043,51.693994],[3.950977,51.627051],[4.075098,51.648779],[4.067578,51.66748],[4.046777,51.684912],[3.949121,51.739453],[3.789062,51.746436],[3.698535,51.729687]]],[[[3.842676,39.976367],[3.867188,39.95874],[3.967676,39.94585],[4.275293,39.830273],[4.293652,39.841846],[4.32207,39.89751],[4.315137,39.917236],[4.225781,40.032373],[4.05918,40.075098],[3.853418,40.063037],[3.84541,40.036475],[3.842676,39.976367]]],[[[4.786515353662234,53],[4.787109,52.999805],[4.787381358599675,53],[4.786515353662234,53]]],[[[8.180859,40.771045],[8.189941,40.651611],[8.230273,40.605957],[8.295508,40.558643],[8.353223,40.500537],[8.385352,40.442676],[8.40918,40.352344],[8.471289,40.292676],[8.470801,40.130713],[8.455078,40.077588],[8.408594,40.037646],[8.399316,39.978174],[8.407813,39.917236],[8.495898,39.897461],[8.547754,39.839209],[8.538672,39.769678],[8.540527,39.731592],[8.510742,39.72168],[8.471094,39.748096],[8.451172,39.72168],[8.461035,39.647705],[8.44707,39.562793],[8.418652,39.523047],[8.399121,39.481592],[8.410742,39.291797],[8.418164,39.205713],[8.48623,39.110498],[8.55332,39.030322],[8.59541,38.964307],[8.648535,38.926562],[8.718555,38.926709],[8.801172,38.909668],[8.881348,38.912891],[8.966602,38.963721],[9.022656,39.043262],[9.056348,39.23916],[9.101758,39.211279],[9.149316,39.196973],[9.206934,39.213818],[9.26416,39.216797],[9.388086,39.167529],[9.486328,39.139551],[9.5625,39.166016],[9.583594,39.253564],[9.616992,39.354395],[9.686035,39.924365],[9.706738,40.017041],[9.700781,40.091797],[9.659473,40.159229],[9.642969,40.268408],[9.754199,40.400293],[9.782813,40.441504],[9.805273,40.499561],[9.794336,40.556201],[9.682031,40.818115],[9.632031,40.882031],[9.574023,40.914746],[9.553711,40.932129],[9.589746,40.99248],[9.621191,41.004883],[9.615332,41.017285],[9.575684,41.030518],[9.53877,41.053662],[9.500195,41.106348],[9.455176,41.150146],[9.350781,41.195898],[9.283008,41.20166],[9.228418,41.25708],[9.182129,41.242188],[9.163086,41.185156],[9.107227,41.14292],[8.998145,41.110352],[8.821191,40.949902],[8.698926,40.895264],[8.571875,40.850195],[8.468457,40.834326],[8.363281,40.846338],[8.310156,40.85752],[8.245215,40.907031],[8.224219,40.91333],[8.203809,40.870703],[8.180859,40.771045]]],[[[8.205664,40.997461],[8.252734,40.994141],[8.286035,41.039844],[8.318945,41.062744],[8.34375,41.101611],[8.320215,41.121875],[8.267383,41.099121],[8.224023,41.031299],[8.205664,40.997461]]],[[[8.358594,39.098779],[8.360938,39.038672],[8.421484,38.968652],[8.478906,39.067529],[8.440625,39.090625],[8.366797,39.115918],[8.358594,39.098779]]],[[[8.565625,42.357715],[8.592383,42.344727],[8.625879,42.343408],[8.675488,42.284033],[8.60791,42.258447],[8.566211,42.218799],[8.587793,42.16084],[8.641602,42.118213],[8.700977,42.095605],[8.702539,42.043115],[8.653418,41.995557],[8.615137,41.959131],[8.621875,41.930713],[8.673633,41.922363],[8.74043,41.925146],[8.758691,41.87041],[8.718652,41.804004],[8.717969,41.761426],[8.770996,41.737109],[8.886816,41.700684],[8.879004,41.668555],[8.829785,41.627686],[8.80752,41.588379],[8.84209,41.558887],[8.89502,41.516162],[9.003027,41.476562],[9.186133,41.384912],[9.253418,41.460059],[9.330859,41.627148],[9.374219,41.678809],[9.394824,41.731201],[9.400879,41.926221],[9.428418,41.972412],[9.550684,42.129736],[9.556445,42.160937],[9.526172,42.552637],[9.509375,42.585596],[9.473242,42.615576],[9.454199,42.658594],[9.480371,42.80542],[9.478613,42.860498],[9.46084,42.945215],[9.463281,42.981006],[9.415234,43.021484],[9.363184,43.017383],[9.330957,42.943799],[9.323047,42.814062],[9.338379,42.766895],[9.313379,42.713184],[9.287695,42.694629],[9.253516,42.712451],[9.198047,42.729199],[9.137891,42.73291],[9.088379,42.70498],[9.043652,42.66167],[8.994922,42.645312],[8.814844,42.60791],[8.713086,42.549756],[8.640039,42.426562],[8.5875,42.385303],[8.565625,42.357715]]],[[[10.109766,42.785059],[10.13125,42.742041],[10.208984,42.736914],[10.335645,42.761133],[10.419336,42.713184],[10.409961,42.770996],[10.432227,42.796582],[10.42832,42.819189],[10.395117,42.858154],[10.358984,42.822314],[10.285742,42.828076],[10.248242,42.815771],[10.127539,42.810303],[10.109766,42.785059]]],[[[10.72207,33.738916],[10.757031,33.71748],[10.784766,33.717676],[10.857422,33.687158],[10.883008,33.690186],[10.931348,33.717432],[10.957617,33.72207],[10.993066,33.745947],[11.037598,33.785059],[11.033594,33.805029],[11.017871,33.82334],[10.921973,33.893115],[10.745215,33.888672],[10.733887,33.855615],[10.72207,33.738916]]],[[[11.123633,34.681689],[11.278027,34.753809],[11.281055,34.802197],[11.254883,34.820312],[11.153027,34.74458],[11.123633,34.681689]]],[[[11.936426,36.828613],[11.940625,36.780371],[12.00332,36.745996],[12.05127,36.757031],[12.048047,36.776367],[12.024219,36.820947],[11.948047,36.843066],[11.936426,36.828613]]],[[[12.435547,37.819775],[12.454395,37.773779],[12.526758,37.669531],[12.640234,37.594336],[12.699023,37.571826],[12.757324,37.567383],[12.871191,37.575195],[12.924121,37.570508],[13.040332,37.506543],[13.169922,37.479297],[13.221094,37.451807],[13.264941,37.410352],[13.360938,37.34873],[13.587109,37.25415],[13.800586,37.135889],[13.905469,37.100635],[14.024316,37.107129],[14.142969,37.103662],[14.259082,37.046436],[14.367285,36.972852],[14.501855,36.798682],[14.555469,36.776758],[14.614355,36.766602],[14.775977,36.7104],[14.889648,36.723535],[15.002441,36.693896],[15.112598,36.687842],[15.116309,36.736475],[15.104297,36.785254],[15.11582,36.839258],[15.142383,36.891602],[15.185156,36.934814],[15.294531,37.013281],[15.295703,37.055176],[15.288672,37.096924],[15.236035,37.138721],[15.174121,37.20918],[15.230273,37.244336],[15.193652,37.282861],[15.145996,37.308008],[15.116992,37.334717],[15.105664,37.375488],[15.099512,37.458594],[15.131055,37.531885],[15.164844,37.589551],[15.189844,37.650732],[15.206836,37.720557],[15.234473,37.784814],[15.475684,38.062939],[15.508887,38.106641],[15.576563,38.220312],[15.634668,38.267578],[15.568359,38.295898],[15.49873,38.290869],[15.340723,38.217334],[15.27959,38.230371],[15.224023,38.211035],[15.176074,38.168066],[15.11875,38.152734],[14.981934,38.167578],[14.845898,38.17168],[14.789648,38.166992],[14.737207,38.150781],[14.636719,38.085059],[14.505957,38.045508],[14.416211,38.042578],[14.287695,38.016846],[14.05,38.040527],[13.936621,38.02417],[13.788867,37.981201],[13.734863,37.984033],[13.681543,38.000732],[13.491309,38.103125],[13.433496,38.110254],[13.383496,38.126807],[13.35166,38.180518],[13.291113,38.191455],[13.159961,38.190332],[13.056836,38.130908],[13.049023,38.084082],[12.955469,38.041309],[12.902734,38.034863],[12.850684,38.063721],[12.734375,38.183057],[12.702344,38.141699],[12.664355,38.10791],[12.60166,38.084961],[12.547656,38.05293],[12.486816,37.938721],[12.435547,37.819775]]],[[[13.853516,40.724072],[13.867676,40.70874],[13.893652,40.696973],[13.938281,40.705615],[13.96084,40.718164],[13.962109,40.739404],[13.871191,40.761816],[13.853516,40.724072]]],[[[14.180371,36.0604],[14.194238,36.042236],[14.253613,36.012158],[14.313477,36.027588],[14.320898,36.03623],[14.303711,36.062305],[14.263281,36.075781],[14.180371,36.0604]]],[[[14.28584,45.144629],[14.340039,45.019971],[14.342188,44.979932],[14.302539,44.94043],[14.312402,44.900391],[14.388867,44.758301],[14.419531,44.670312],[14.480371,44.62124],[14.488086,44.660059],[14.48252,44.693359],[14.467578,44.725342],[14.452539,44.869189],[14.467383,44.970215],[14.39375,45.03125],[14.369141,45.080957],[14.358203,45.167432],[14.33125,45.16499],[14.28584,45.144629]]],[[[14.35127,35.978418],[14.352344,35.872266],[14.436426,35.82168],[14.532715,35.820215],[14.566211,35.852734],[14.537012,35.886279],[14.44834,35.957422],[14.35127,35.978418]]],[[[14.437891,45.098633],[14.450391,45.079199],[14.511719,45.0354],[14.612988,45.025439],[14.62832,44.993945],[14.687012,44.955615],[14.810254,44.977051],[14.73916,45.065479],[14.701172,45.090039],[14.62998,45.178027],[14.571094,45.224756],[14.524609,45.146826],[14.437891,45.098633]]],[[[14.660352,44.799805],[14.678223,44.769873],[14.7625,44.754639],[14.856641,44.714844],[14.831445,44.758936],[14.76377,44.821387],[14.754199,44.844824],[14.690527,44.848145],[14.672461,44.824365],[14.660352,44.799805]]],[[[14.741895,44.697363],[14.760449,44.664746],[14.884668,44.544727],[14.912793,44.48584],[14.996094,44.434326],[15.038574,44.393018],[15.097949,44.358154],[15.162598,44.30918],[15.188477,44.335742],[15.213574,44.347559],[15.239941,44.350195],[15.112988,44.435742],[15.006445,44.534229],[14.898047,44.61084],[14.855371,44.618262],[14.803809,44.648682],[14.741895,44.697363]]],[[[14.865039,44.167969],[14.891309,44.125537],[15.13584,43.907275],[15.149805,43.911816],[15.20166,43.897754],[15.203027,43.907715],[15.18877,43.922363],[14.952539,44.117188],[14.865039,44.167969]]],[[[15.06582,44.157666],[15.074609,44.137842],[15.121875,44.093311],[15.24668,44.027051],[15.231055,44.062305],[15.06582,44.157666]]],[[[15.27002,44.010742],[15.308594,43.960791],[15.374219,43.914795],[15.437207,43.899512],[15.371387,43.973828],[15.27002,44.010742]]],[[[16.376465,43.21377],[16.405859,43.197363],[16.549805,43.143896],[16.679199,43.123145],[17.124121,43.11543],[17.194043,43.125781],[17.061133,43.143896],[16.697266,43.174951],[16.655957,43.21377],[16.521387,43.229248],[16.376465,43.21377]]],[[[16.423145,43.317236],[16.490332,43.286182],[16.627441,43.268066],[16.785254,43.270654],[16.873633,43.297949],[16.891309,43.314648],[16.834375,43.35083],[16.601562,43.381885],[16.448926,43.387061],[16.428125,43.343408],[16.423145,43.317236]]],[[[16.650684,42.996582],[16.666309,42.959912],[16.696387,42.933691],[16.738867,42.912744],[16.850684,42.895508],[16.977539,42.927783],[17.089355,42.914893],[17.188281,42.917041],[17.169824,42.932617],[17.093652,42.964355],[16.971094,42.981494],[16.835547,42.968652],[16.650684,42.996582]]],[[[17.344141,42.790381],[17.744238,42.700342],[17.607813,42.769043],[17.431934,42.800391],[17.389551,42.798633],[17.344141,42.790381]]],[[[19.646484,39.76709],[19.648926,39.726172],[19.808887,39.585303],[19.883984,39.461523],[19.975,39.411426],[20.099609,39.376611],[20.07793,39.432715],[20.027734,39.44209],[19.955273,39.47041],[19.927344,39.505908],[19.903125,39.6],[19.904102,39.619482],[19.84668,39.668115],[19.862207,39.692627],[19.936816,39.746729],[19.926074,39.77373],[19.891699,39.797266],[19.838574,39.820117],[19.707324,39.798096],[19.646484,39.76709]]],[[[20.352246,38.221729],[20.352539,38.179883],[20.391016,38.188428],[20.452148,38.23418],[20.47334,38.218799],[20.49873,38.184375],[20.495508,38.16416],[20.523535,38.106641],[20.568945,38.097656],[20.606152,38.119727],[20.761328,38.070557],[20.780762,38.088818],[20.788867,38.14209],[20.695215,38.246191],[20.624707,38.267871],[20.612305,38.38335],[20.563184,38.474951],[20.550293,38.456543],[20.54834,38.394531],[20.519629,38.332324],[20.481445,38.318213],[20.435059,38.356201],[20.408691,38.336768],[20.352246,38.221729]]],[[[20.554688,38.582568],[20.583984,38.601709],[20.614355,38.60625],[20.647852,38.600977],[20.686719,38.608691],[20.714844,38.63833],[20.719629,38.79917],[20.694141,38.844238],[20.634668,38.817578],[20.59248,38.760156],[20.55791,38.661865],[20.554688,38.582568]]],[[[20.619531,37.855029],[20.635059,37.823145],[20.703809,37.743457],[20.818555,37.664746],[20.909082,37.732129],[20.993945,37.708008],[20.888477,37.805371],[20.839844,37.840723],[20.758691,37.852979],[20.691504,37.929541],[20.619531,37.855029]]],[[[20.623633,38.480322],[20.646387,38.414307],[20.709277,38.318604],[20.758691,38.329443],[20.73916,38.365771],[20.711621,38.398633],[20.701074,38.425928],[20.70127,38.451416],[20.674805,38.476318],[20.649707,38.483984],[20.623633,38.480322]]],[[[22.870313,38.870508],[22.881348,38.847656],[22.935742,38.839648],[23.029102,38.873389],[23.143945,38.844824],[23.252148,38.801221],[23.364063,38.73501],[23.465234,38.655859],[23.505273,38.612939],[23.55332,38.581982],[23.617383,38.552539],[23.650781,38.443066],[23.758789,38.401221],[23.88623,38.400732],[24.040137,38.38999],[24.041895,38.374121],[24.063574,38.337207],[24.102832,38.316846],[24.144141,38.243066],[24.189063,38.204297],[24.192578,38.15166],[24.212012,38.117529],[24.317773,38.060352],[24.359473,38.018555],[24.416504,38.016553],[24.445801,38.00498],[24.472656,37.980518],[24.502344,37.969922],[24.536523,37.979736],[24.578516,38.020166],[24.588379,38.123975],[24.563281,38.14751],[24.463965,38.145117],[24.359668,38.1625],[24.275781,38.22002],[24.220117,38.338623],[24.1875,38.463428],[24.211035,38.504248],[24.199707,38.541016],[24.154688,38.588281],[24.127539,38.648486],[24.099023,38.670996],[23.878223,38.686572],[23.688477,38.764697],[23.63623,38.770215],[23.525,38.813477],[23.471973,38.850098],[23.41543,38.958643],[23.312695,39.034912],[23.258203,39.031348],[23.145801,39.002686],[22.986328,38.915918],[22.870313,38.870508]]],[[[22.905664,36.320312],[22.91084,36.220996],[22.939453,36.176221],[23.042188,36.146387],[23.053809,36.189795],[23.09707,36.246582],[22.997852,36.328125],[22.950488,36.383936],[22.932617,36.36875],[22.905664,36.320312]]],[[[23.419336,37.93125],[23.435254,37.911475],[23.466797,37.902393],[23.511426,37.901172],[23.550977,37.925879],[23.534863,37.970215],[23.515527,37.986035],[23.483691,37.991113],[23.462207,37.980371],[23.439063,37.940674],[23.419336,37.93125]]],[[[23.547559,35.415576],[23.561621,35.295166],[23.592773,35.257227],[23.638086,35.235156],[23.703906,35.233496],[23.883594,35.246094],[23.994336,35.221924],[24.463672,35.160352],[24.583398,35.115332],[24.708887,35.089062],[24.735156,35.058301],[24.743945,35.014355],[24.745215,34.950635],[24.799805,34.934473],[25.205762,34.959277],[25.610938,35.007324],[25.829688,35.025195],[26.04668,35.01416],[26.165625,35.018604],[26.244336,35.044678],[26.255566,35.095166],[26.280859,35.159229],[26.298633,35.268604],[26.320215,35.315137],[26.285547,35.309766],[26.167871,35.215088],[26.028027,35.215283],[25.893359,35.179199],[25.837109,35.132568],[25.791309,35.122852],[25.74502,35.142725],[25.735156,35.184033],[25.755859,35.326367],[25.730176,35.348584],[25.569629,35.328076],[25.475684,35.306201],[25.296777,35.339355],[25.104297,35.346924],[25.003125,35.409863],[24.721289,35.424805],[24.626953,35.409912],[24.53457,35.380762],[24.444922,35.366016],[24.354004,35.359473],[24.312891,35.363818],[24.274902,35.385986],[24.257715,35.423145],[24.255371,35.468604],[24.178516,35.459521],[24.123145,35.483643],[24.108984,35.495801],[24.124023,35.51084],[24.197754,35.537451],[24.166016,35.595215],[24.093359,35.593848],[24.034375,35.5354],[24.013281,35.529443],[23.920605,35.528174],[23.852246,35.535449],[23.793359,35.556201],[23.770801,35.634229],[23.736914,35.655518],[23.715039,35.604736],[23.71543,35.550146],[23.672656,35.513916],[23.626563,35.530371],[23.608691,35.56626],[23.569824,35.534766],[23.547559,35.415576]]],[[[23.593945,39.208594],[23.666113,39.095361],[23.735156,39.080566],[23.779785,39.114404],[23.593945,39.208594]]],[[[23.841211,39.146582],[23.887988,39.158301],[23.939746,39.200537],[23.970898,39.267725],[23.888086,39.226367],[23.841211,39.146582]]],[[[24.277441,37.601123],[24.288965,37.528271],[24.355957,37.576855],[24.400781,37.649023],[24.379102,37.682715],[24.32041,37.677734],[24.277441,37.601123]]],[[[24.325977,36.655615],[24.530664,36.683984],[24.5375,36.705029],[24.535742,36.76377],[24.460352,36.747461],[24.450195,36.728955],[24.425195,36.712939],[24.357422,36.744287],[24.344922,36.722998],[24.325977,36.655615]]],[[[24.369727,37.419629],[24.397754,37.383447],[24.378906,37.314111],[24.435742,37.344434],[24.481445,37.408008],[24.448535,37.449561],[24.43125,37.475195],[24.394824,37.450391],[24.369727,37.419629]]],[[[24.424805,37.131982],[24.486523,37.110059],[24.523535,37.125098],[24.535938,37.167676],[24.529102,37.192334],[24.483789,37.210205],[24.441211,37.186865],[24.424805,37.131982]]],[[[24.461035,38.888623],[24.566406,38.832373],[24.564551,38.819434],[24.541016,38.788672],[24.569043,38.784814],[24.674707,38.809229],[24.58125,38.878857],[24.564063,38.942236],[24.485645,38.980273],[24.473438,38.96167],[24.461035,38.888623]]],[[[24.515527,40.647021],[24.645898,40.579443],[24.774219,40.615186],[24.768652,40.658887],[24.786328,40.703857],[24.773633,40.730273],[24.719141,40.786279],[24.62334,40.79292],[24.585547,40.76875],[24.516699,40.687207],[24.515527,40.647021]]],[[[24.670996,36.998584],[24.676465,36.959277],[24.702637,36.91709],[24.720898,36.921436],[24.763184,36.949219],[24.716113,37.023828],[24.681445,37.021631],[24.670996,36.998584]]],[[[24.700195,37.96167],[24.714355,37.898877],[24.766504,37.870703],[24.798535,37.824023],[24.884082,37.770508],[24.962207,37.692383],[24.991699,37.759619],[24.980469,37.796924],[24.948438,37.857666],[24.956348,37.904785],[24.855078,37.913672],[24.79043,37.990137],[24.763379,37.9875],[24.700195,37.96167]]],[[[24.895313,37.446338],[24.896191,37.406592],[24.911523,37.390576],[24.937891,37.389697],[24.942871,37.493506],[24.906543,37.508887],[24.895313,37.446338]]],[[[24.996484,37.676904],[25.016309,37.645947],[25.051953,37.614453],[25.156348,37.545068],[25.21875,37.535107],[25.255859,37.599609],[25.225391,37.630664],[25.091797,37.647998],[25.039355,37.680664],[24.996484,37.676904]]],[[[25.052344,39.976367],[25.065234,39.909863],[25.062207,39.852393],[25.126465,39.82583],[25.185156,39.829932],[25.203223,39.849414],[25.223828,39.892578],[25.249414,39.894141],[25.251758,39.854395],[25.263379,39.822949],[25.29873,39.806104],[25.357031,39.808105],[25.37207,39.891309],[25.399902,39.949561],[25.437695,39.983301],[25.449121,40.034814],[25.373633,40.015527],[25.348047,39.984766],[25.285742,39.956299],[25.23418,40.00542],[25.058008,39.999658],[25.052344,39.976367]]],[[[25.105469,37.034961],[25.133301,36.999658],[25.199414,36.991309],[25.278906,37.068408],[25.271484,37.08418],[25.275293,37.137842],[25.235059,37.148535],[25.146484,37.107422],[25.105469,37.034961]]],[[[25.259961,36.758447],[25.288672,36.721533],[25.364355,36.65835],[25.381738,36.674023],[25.406934,36.717334],[25.295898,36.78916],[25.259961,36.758447]]],[[[25.307129,37.412988],[25.402734,37.419141],[25.457422,37.44707],[25.462988,37.471094],[25.348145,37.50918],[25.312695,37.489307],[25.307129,37.412988]]],[[[25.361914,37.07041],[25.395898,36.984375],[25.456738,36.929688],[25.545898,36.967578],[25.584277,37.039307],[25.587891,37.152539],[25.564355,37.185107],[25.525293,37.196387],[25.361914,37.07041]]],[[[25.370508,36.358936],[25.435938,36.340088],[25.482422,36.392627],[25.467383,36.435059],[25.408984,36.47373],[25.396875,36.465332],[25.414648,36.442285],[25.412891,36.404883],[25.397168,36.378955],[25.370508,36.358936]]],[[[25.448047,40.482812],[25.572656,40.400439],[25.685742,40.426562],[25.664258,40.463867],[25.624316,40.491992],[25.568555,40.515869],[25.448047,40.482812]]],[[[25.668945,40.135889],[25.740234,40.105469],[25.97002,40.136328],[25.977051,40.177832],[25.918359,40.237988],[25.874805,40.233691],[25.740918,40.196289],[25.668945,40.135889]]],[[[25.743164,36.789746],[25.771094,36.782227],[25.859375,36.79043],[25.984668,36.879687],[26.064453,36.902734],[26.000684,36.937402],[25.941992,36.886572],[25.852441,36.847559],[25.834375,36.825391],[25.796777,36.807031],[25.743164,36.789746]]],[[[25.844141,39.200049],[25.855469,39.178662],[25.90625,39.138965],[26.072363,39.095605],[26.175977,39.194287],[26.273145,39.197559],[26.245117,39.164111],[26.10791,39.081055],[26.16084,39.025879],[26.390137,38.973926],[26.46875,38.972803],[26.547168,38.994141],[26.503125,39.031445],[26.488672,39.074805],[26.531543,39.064355],[26.583984,39.031445],[26.595605,39.048828],[26.578223,39.109521],[26.531055,39.171777],[26.392773,39.270117],[26.410156,39.329443],[26.347754,39.383008],[26.16543,39.373535],[26.164844,39.331982],[26.088379,39.304297],[26.026465,39.284619],[25.90957,39.287549],[25.844141,39.200049]]],[[[25.846094,38.574023],[25.85127,38.508398],[25.959961,38.416016],[25.991406,38.353516],[25.952637,38.302637],[25.874316,38.269629],[25.891895,38.243311],[25.998535,38.161523],[26.094043,38.218066],[26.103125,38.23418],[26.110742,38.279639],[26.157031,38.30293],[26.149609,38.468457],[26.141211,38.486182],[26.160352,38.540723],[26.110449,38.544629],[26.0125,38.601709],[25.846094,38.574023]]],[[[25.982422,37.525586],[26.029297,37.529395],[26.204883,37.568506],[26.296875,37.61958],[26.351367,37.674316],[26.325586,37.673047],[26.211523,37.638281],[26.086328,37.634912],[25.996777,37.565576],[25.982422,37.525586]]],[[[26.269824,36.59541],[26.27002,36.546924],[26.331445,36.511377],[26.381641,36.561523],[26.460645,36.5854],[26.421289,36.624219],[26.37002,36.638574],[26.38418,36.607861],[26.337012,36.580566],[26.269824,36.59541]]],[[[26.581055,37.72373],[26.612891,37.710498],[26.720508,37.705469],[26.788281,37.656982],[26.844922,37.644727],[26.978125,37.700488],[27.055078,37.709277],[27.039648,37.77002],[26.981543,37.781982],[26.947363,37.778467],[26.824414,37.811426],[26.743359,37.809766],[26.638672,37.780859],[26.581055,37.72373]]],[[[26.888672,37.087256],[26.937695,37.024609],[26.919922,36.945215],[27.019727,36.959033],[27.03457,36.975977],[27.040137,37.001562],[27.016016,37.009668],[26.966602,37.0521],[26.888672,37.087256]]],[[[26.918359,36.725928],[26.949609,36.7271],[27.033594,36.770752],[27.150977,36.777588],[27.193164,36.809131],[27.352148,36.868896],[27.265625,36.905127],[27.214941,36.898633],[27.061133,36.840381],[26.955566,36.774219],[26.918359,36.725928]]],[[[27.070703,35.597754],[27.11582,35.511133],[27.099121,35.456445],[27.137891,35.409082],[27.176074,35.465283],[27.233594,35.478564],[27.208887,35.558936],[27.157227,35.629492],[27.207031,35.714453],[27.223145,35.820459],[27.158008,35.788672],[27.156055,35.72627],[27.070703,35.597754]]],[[[27.715527,35.957324],[27.745703,35.911035],[27.770605,35.908301],[27.842773,35.929297],[27.965527,36.04751],[28.087793,36.065332],[28.067676,36.129687],[28.144043,36.209863],[28.230078,36.370264],[28.231836,36.433643],[28.171484,36.426221],[27.914453,36.345312],[27.815234,36.276953],[27.774414,36.21377],[27.716309,36.171582],[27.718652,36.141113],[27.757324,36.069189],[27.715527,35.957324]]],[[[27.785742,36.60752],[27.788086,36.583691],[27.838281,36.537988],[27.860156,36.553906],[27.869043,36.582666],[27.869824,36.62251],[27.8625,36.641162],[27.836816,36.634863],[27.785742,36.60752]]],[[[31.508789,46.373145],[31.528711,46.306592],[31.563867,46.257764],[31.700195,46.214062],[32.009375,46.167822],[32.150098,46.154687],[32.012207,46.203906],[31.638477,46.272559],[31.584863,46.303174],[31.508789,46.373145]]],[[[32.300977,35.082959],[32.317188,34.95332],[32.41377,34.778027],[32.449023,34.729443],[32.505566,34.70625],[32.692969,34.649365],[32.750098,34.647803],[32.867188,34.661133],[32.914258,34.635498],[32.941797,34.575879],[33.00791,34.56958],[33.023926,34.6],[33.024902,34.636914],[33.062305,34.674805],[33.115527,34.695557],[33.176074,34.698047],[33.296582,34.717725],[33.414941,34.750879],[33.514453,34.806445],[33.699414,34.969873],[33.758984,34.973242],[33.822461,34.965918],[33.936523,34.971484],[34.050195,34.988379],[34.023633,35.045557],[34.004492,35.065234],[33.93125,35.140381],[33.90791,35.202393],[33.941992,35.292041],[34.463184,35.593506],[34.556055,35.662061],[34.411133,35.629297],[34.272363,35.569971],[34.19248,35.545703],[34.063477,35.473975],[33.607617,35.35415],[33.458789,35.335889],[33.307813,35.341504],[33.123438,35.358203],[32.941602,35.39043],[32.926367,35.278076],[32.879883,35.180566],[32.772363,35.15957],[32.712695,35.171045],[32.652344,35.182666],[32.555957,35.155762],[32.475,35.08999],[32.390918,35.049805],[32.300977,35.082959]]],[[[36.504297,25.645117],[36.530273,25.601562],[36.72207,25.534033],[36.763867,25.500586],[36.805078,25.450732],[36.875195,25.383057],[36.90166,25.383057],[36.954785,25.414648],[36.924414,25.425537],[36.747559,25.55874],[36.58877,25.619824],[36.554102,25.645361],[36.533594,25.688721],[36.504297,25.645117]]],[[[36.543945,25.734277],[36.586133,25.699219],[36.595508,25.712793],[36.595605,25.734863],[36.579883,25.79541],[36.582715,25.855518],[36.546484,25.811621],[36.543945,25.734277]]],[[[39.939941,15.744531],[40.016309,15.733252],[40.070508,15.676611],[40.063477,15.665869],[40.023926,15.655615],[39.947461,15.696143],[39.975195,15.612451],[40.095117,15.590918],[40.195801,15.598145],[40.304688,15.577344],[40.399023,15.579883],[40.408203,15.629199],[40.250098,15.703467],[40.234082,15.665869],[40.211426,15.648145],[40.18252,15.64292],[40.141211,15.696143],[40.132422,15.795264],[40.096777,15.838477],[40.042578,15.875488],[39.956738,15.889404],[40.000488,15.828271],[39.979395,15.806592],[39.945215,15.789062],[39.939941,15.744531]]],[[[39.996094,16.042676],[40.012402,16.022656],[40.110059,15.985742],[40.076465,16.082422],[40.048145,16.104492],[40.039062,16.080957],[39.996094,16.042676]]],[[[41.776074,16.846875],[41.801563,16.77876],[41.897266,16.684277],[41.96416,16.653467],[42.071777,16.671484],[42.102344,16.643945],[42.108398,16.618457],[42.127734,16.594824],[42.157813,16.570703],[42.167188,16.596387],[42.17041,16.708643],[42.059961,16.803516],[42.026367,16.757666],[42.033203,16.741943],[42.065039,16.710059],[41.987695,16.715625],[41.94668,16.748926],[41.9625,16.778662],[41.953906,16.80625],[41.947949,16.936426],[41.917285,16.993652],[41.860449,17.002539],[41.884961,16.946826],[41.858203,16.89292],[41.816113,16.860156],[41.776074,16.846875]]],[[[42.549023,15.320068],[42.558691,15.281201],[42.590234,15.303418],[42.610449,15.332275],[42.624512,15.367969],[42.602344,15.43252],[42.569727,15.407324],[42.549023,15.320068]]],[[[42.694043,14.00791],[42.70329328608068,14],[42.795052054154816,14],[42.79834,14.012256],[42.762109,14.06748],[42.694043,14.00791]]],[[[47.917578,45.618164],[47.920313,45.562061],[47.967676,45.469971],[47.983008,45.488232],[47.987109,45.554053],[47.947168,45.64707],[47.917578,45.618164]]],[[[48.081445,29.798926],[48.142578,29.665283],[48.179688,29.611426],[48.218262,29.601953],[48.275391,29.624316],[48.340234,29.694727],[48.347363,29.719971],[48.348242,29.782666],[48.227734,29.936328],[48.184766,29.978857],[48.158594,29.95957],[48.138867,29.896582],[48.120117,29.886328],[48.113477,29.870215],[48.114746,29.848779],[48.081445,29.798926]]],[[[49.995117,44.936963],[50.095313,44.830615],[50.14873,44.826465],[50.184473,44.854639],[50.098145,44.881543],[50.038867,44.949121],[50.045313,45.01001],[50.116602,45.058252],[50.109863,45.081934],[50.059375,45.066797],[50.023047,45.044727],[49.995117,44.936963]]],[[[50.256152,45.022412],[50.277246,44.958594],[50.311719,44.97207],[50.330859,44.998437],[50.349707,45.083008],[50.294922,45.075928],[50.256152,45.022412]]],[[[50.452441,26.19082],[50.489453,26.058447],[50.465918,25.965527],[50.544043,25.833496],[50.574902,25.806787],[50.607227,25.883105],[50.61748,26.002344],[50.609766,26.124463],[50.557813,26.198291],[50.585938,26.240723],[50.564063,26.246436],[50.469922,26.228955],[50.452441,26.19082]]],[[[52.554297,45.473975],[52.59834,45.428174],[52.664844,45.401318],[52.682422,45.411816],[52.692969,45.460742],[52.65957,45.518066],[52.608887,45.528027],[52.554297,45.473975]]],[[[52.582227,24.335254],[52.6,24.281299],[52.616895,24.288574],[52.657617,24.332617],[52.629395,24.376758],[52.583594,24.352344],[52.582227,24.335254]]],[[[53.018555,39.052734],[53.045898,38.897217],[53.100195,38.756152],[53.10957,38.803076],[53.055176,39.037939],[53.092188,39.094092],[53.05332,39.096582],[53.018555,39.052734]]],[[[53.190918,24.290918],[53.258301,24.25293],[53.332227,24.258594],[53.382617,24.280859],[53.408984,24.30791],[53.445312,24.371191],[53.412402,24.411035],[53.370898,24.364453],[53.33252,24.341602],[53.190918,24.290918]]],[[[53.634473,24.169775],[53.71582,24.145313],[53.799121,24.135547],[53.826367,24.153125],[53.928125,24.143359],[53.927832,24.177197],[53.89375,24.215137],[53.833789,24.258936],[53.689648,24.210791],[53.634473,24.169775]]],[[[54.334766,24.471045],[54.357715,24.442773],[54.428418,24.425098],[54.456641,24.42334],[54.46543,24.442773],[54.426563,24.471045],[54.39834,24.506348],[54.378906,24.50459],[54.334766,24.471045]]]]}}]}