{"type":"FeatureCollection","name":"Ottoman Empire and dependent territories, c. 1683","features":[{"type":"Feature","properties":{"id":"ottoman","name":"Ottoman Empire and dependent territories","period":"c. 1683","precision":"approximate","source":"Illustrated classroom overview reviewed against Stanford J. Shaw, The Rise of the Ottoman Empire 1280–1683 (Cambridge, 1976), pp. xiv–xvi; The Met Arabian Peninsula 1600–1800; broad borders and coastal possessions simplified; Natural Earth land clipping"},"geometry":{"type":"MultiPolygon","coordinates":[[[[-1.8,35.1],[1,34.7],[4,34.8],[7,34],[9,33],[11,31],[13,29.5],[16,29.3],[19,29.7],[22,29.5],[25,28.5],[29.54397394136808,28.95439739413681],[30,27],[31,25],[31.5,22],[33,22],[34.4,24.5],[34.63817474735098,25.532090571854265],[34.565137,25.691162],[34.329297,26.024365],[34.049512,26.550732],[33.959082,26.649023],[33.893066,27.049463],[33.849316,27.184912],[33.80166,27.268164],[33.697266,27.341113],[33.657422,27.430566],[33.549805,27.607373],[33.558789,27.701221],[33.54707,27.898145],[33.494922,27.974463],[33.372266,28.050586],[33.202148,28.208301],[33.022852,28.442285],[32.898242,28.565234],[32.856543,28.630615],[32.829492,28.702881],[32.784473,28.786621],[32.658887,28.927734],[32.631836,28.992236],[32.638086,29.182178],[32.599023,29.321924],[32.565039,29.386328],[32.397266,29.533789],[32.359766,29.630664],[32.408594,29.749316],[32.489453,29.851514],[32.473047,29.925439],[32.565723,29.973975],[32.647168,29.798437],[32.721484,29.521777],[32.766699,29.45],[32.811719,29.4],[32.870605,29.28623],[33.075781,29.073047],[33.130176,28.978271],[33.203711,28.777783],[33.201953,28.695703],[33.247754,28.567725],[33.416113,28.389844],[33.594141,28.255566],[33.760254,28.047656],[34.045117,27.828857],[34.220117,27.764307],[34.318555,27.888965],[34.399707,28.016016],[34.427148,28.106494],[34.446484,28.357324],[34.617188,28.75791],[34.72559065127034,29.2240155812161],[34.2,30.1],[33.34732076778602,31.123215078656774],[33.194336,31.084521],[33.156738,31.126221],[33.129883,31.168164],[32.901563,31.110937],[32.854492,31.117725],[32.68457,31.074023],[32.60332,31.06875],[32.532813,31.100732],[32.323535,31.256055],[32.250586,31.294922],[32.216211,31.29375],[32.242773,31.246533],[32.281836,31.200879],[32.206543,31.119043],[32.101758,31.092822],[32.065625,31.152979],[32.008496,31.220508],[31.902051,31.240186],[31.771094,31.292578],[31.875879,31.413721],[31.892188,31.482471],[32.076074,31.344482],[32.136035,31.341064],[31.964258,31.5021],[31.953404642295208,31.507765892950797],[31.840262525532143,31.52662291241131],[31.839258,31.526318],[31.606543,31.455762],[31.524414,31.458252],[31.193945,31.587598],[31.08291,31.60332],[31.051953,31.591553],[31.030859,31.507568],[31.001758,31.462793],[30.841406,31.439893],[30.700488,31.403857],[30.562988,31.416992],[30.88418,31.522363],[30.923535,31.566846],[30.570996,31.472998],[30.395117,31.457617],[30.34375,31.402734],[30.312305,31.357031],[30.262305,31.316846],[30.222656,31.258398],[30.127539,31.255664],[30.049414,31.26543],[29.929785,31.22749],[29.591602,31.011523],[29.428516,30.927441],[29.278906,30.866943],[29.159961,30.83457],[29.07207,30.830273],[28.972754,30.856738],[28.806934,30.942676],[28.514844,31.050439],[27.967578,31.097412],[27.82998,31.19502],[27.620117,31.191748],[27.540039,31.212695],[27.248047,31.377881],[26.768652,31.470361],[26.457324,31.512109],[25.893262,31.620898],[25.382227,31.512793],[25.225488,31.533789],[25.150488,31.65498],[25.115039,31.712305],[25.025,31.88335],[24.950684,31.953711],[24.878516,31.984277],[24.683887,32.015967],[24.479785,31.996533],[24.129688,32.009229],[24.038965,32.037012],[23.898438,32.127197],[23.797656,32.158691],[23.286328,32.213818],[23.10625,32.331445],[23.110449,32.397412],[23.129688,32.448145],[23.090625,32.61875],[22.916895,32.687158],[22.754102,32.740527],[22.523438,32.793945],[22.340625,32.879883],[22.187402,32.918262],[21.839453,32.908643],[21.721387,32.94248],[21.635938,32.937305],[21.424707,32.79917],[21.31875,32.777686],[21.062305,32.775537],[20.621094,32.580176],[20.370605,32.430762],[20.121484,32.21875],[20.030957,32.107861],[19.973438,31.999072],[19.926367,31.817529],[19.96123,31.556006],[20.02002,31.410645],[20.103809,31.300537],[20.141113,31.195508],[20.150977,31.078613],[20.111523,30.963721],[20.013184,30.800684],[19.713281,30.488379],[19.589844,30.41377],[19.291699,30.288086],[19.12373,30.266113],[18.936426,30.29043],[18.669824,30.415674],[18.19043,30.777295],[17.949316,30.851904],[17.830469,30.927588],[17.349219,31.081494],[16.781543,31.214746],[16.450977,31.227295],[16.123047,31.264453],[15.832227,31.360986],[15.705957,31.426416],[15.595801,31.531104],[15.496387,31.656787],[15.414062,31.834229],[15.363086,31.971191],[15.359082,32.159668],[15.266895,32.31167],[15.176563,32.391162],[14.513379,32.511084],[14.423828,32.550293],[14.237109,32.68125],[14.155664,32.709766],[13.835352,32.791797],[13.647754,32.798828],[13.536328,32.824268],[13.283496,32.914648],[13.138086,32.897363],[12.753516,32.801074],[12.427051,32.829102],[12.279883,32.858545],[11.813477,33.093701],[11.657129,33.118896],[11.50459,33.181934],[11.400586,33.224902],[11.338086,33.209473],[11.234277,33.233594],[11.202637,33.249219],[11.232129,33.271582],[11.269922,33.286328],[11.257422,33.308838],[11.150293,33.369238],[11.08457,33.562891],[10.958008,33.626318],[10.898438,33.533691],[10.828125,33.518896],[10.722754,33.514404],[10.704297,33.609668],[10.713184,33.689014],[10.454297,33.6625],[10.305273,33.728271],[10.158984,33.850049],[10.049023,34.056299],[10.040039,34.140332],[10.064844,34.211621],[10.118359,34.280078],[10.200391,34.346045],[10.534863,34.544727],[10.690918,34.678467],[10.866211,34.884326],[10.955859,35.033643],[11.120117,35.240283],[11.043262,35.335107],[11.031543,35.453857],[11.000684,35.551611],[11.004297,35.633838],[10.783691,35.77207],[10.688965,35.799512],[10.59082,35.887256],[10.505762,36.032422],[10.476562,36.175146],[10.487988,36.254883],[10.525684,36.32334],[10.642383,36.419629],[10.798145,36.493115],[10.967188,36.743018],[11.056543,36.841455],[11.12666,36.874072],[11.077051,36.966699],[11.053906,37.07251],[10.951367,37.059277],[10.766211,36.930273],[10.571289,36.879443],[10.518164,36.791357],[10.412305,36.731836],[10.293262,36.781494],[10.334082,36.865381],[10.18877,37.033887],[10.196387,37.205859],[10.087402,37.25127],[9.988086,37.257764],[9.875586,37.25415],[9.879395,37.212842],[9.896387,37.181641],[9.830273,37.135352],[9.783984,37.211426],[9.815527,37.254639],[9.838477,37.308984],[9.758887,37.330273],[9.687988,37.340381],[9.141992,37.194629],[9.058887,37.155859],[8.823535,36.997607],[8.576563,36.937207],[8.127148,36.910352],[7.910449,36.856348],[7.791602,36.880273],[7.607715,36.999756],[7.432422,37.059277],[7.204297,37.092383],[7.238477,36.968506],[7.143457,36.943359],[6.927539,36.919434],[6.575879,37.003027],[6.486523,37.085742],[6.327832,37.046045],[6.249121,36.93833],[6.064746,36.864258],[5.725488,36.799609],[5.424609,36.675439],[5.29541,36.648242],[5.195605,36.676807],[4.99541,36.808057],[4.877832,36.862402],[4.758105,36.896338],[3.779004,36.896191],[3.520508,36.795117],[2.972852,36.784473],[2.846484,36.738867],[2.593359,36.600684],[2.342871,36.610303],[1.974512,36.567578],[1.257227,36.51958],[0.97168,36.443945],[0.79082,36.356543],[0.514941,36.261816],[0.312207,36.162354],[0.15166,36.063135],[0.047949,35.900537],[-0.048242,35.832812],[-0.18916,35.819092],[-0.350781,35.863184],[-0.426123,35.861523],[-0.91748,35.668408],[-1.087695,35.578857],[-1.205371,35.495752],[-1.33584,35.364258],[-1.48374,35.303076],[-1.673633,35.183105],[-1.7962358979382596,35.13764102061741],[-1.8,35.1]]],[[[10.72207,33.738916],[10.757031,33.71748],[10.784766,33.717676],[10.857422,33.687158],[10.883008,33.690186],[10.931348,33.717432],[10.957617,33.72207],[10.993066,33.745947],[11.037598,33.785059],[11.033594,33.805029],[11.017871,33.82334],[10.921973,33.893115],[10.745215,33.888672],[10.733887,33.855615],[10.72207,33.738916]]],[[[11.123633,34.681689],[11.278027,34.753809],[11.281055,34.802197],[11.254883,34.820312],[11.153027,34.74458],[11.123633,34.681689]]],[[[11.936426,36.828613],[11.940625,36.780371],[12.00332,36.745996],[12.05127,36.757031],[12.048047,36.776367],[12.024219,36.820947],[11.948047,36.843066],[11.936426,36.828613]]],[[[15.6,44.7],[17.5,43],[17.595244989595628,42.93332850728306],[17.667578,42.897119],[17.723633,42.850684],[17.70311656706746,42.857818403052775],[17.77867934486575,42.80492445859397],[17.823828,42.797412],[18.160645,42.634033],[18.333008,42.527881],[18.51748,42.43291],[18.553516,42.428516],[18.591602,42.444189],[18.645898,42.442725],[18.633398,42.423145],[18.619043,42.398389],[18.63291,42.378076],[18.894238,42.249463],[19.122266,42.060498],[19.186426,41.948633],[19.342383,41.869092],[19.468262,41.856152],[19.577539,41.7875],[19.575684,41.64043],[19.545801,41.596826],[19.497363,41.562695],[19.440625,41.424756],[19.453418,41.320996],[19.480078,41.236377],[19.456055,41.106055],[19.46123,40.933301],[19.383887,40.790723],[19.36765161745518,40.74630643454307],[19.45451945570329,40.42055204111265],[19.45918,40.405371],[19.458750161433017,40.404686894626174],[19.514264750862516,40.19650718426555],[19.851855,40.043555],[19.964844,39.872266],[19.995605,39.801025],[20.00127,39.709424],[20.099414,39.64126],[20.191406,39.545801],[20.300781,39.3271],[20.468262,39.255273],[20.57168,39.147705],[20.691309,39.06748],[20.713379,39.035156],[20.779688,39.008545],[20.922754,39.036768],[21.034082,39.02627],[21.068555,39.032275],[21.118359,39.02998],[21.144531,38.979199],[21.152344,38.92207],[21.111621,38.896289],[21.074219,38.885156],[20.893164,38.941113],[20.777344,38.927881],[20.768555,38.874414],[20.776855,38.80752],[20.873242,38.775732],[20.992188,38.654004],[21.059766,38.503271],[21.113184,38.384668],[21.182617,38.345557],[21.30332,38.373926],[21.329785,38.424365],[21.331055,38.487305],[21.355469,38.474805],[21.390137,38.407812],[21.472559,38.321387],[21.567676,38.333594],[21.650098,38.354004],[21.71709,38.355029],[21.804688,38.366943],[21.965332,38.412451],[22.226855,38.352832],[22.319922,38.356836],[22.385254,38.385547],[22.42168,38.438525],[22.583398,38.344922],[22.753906,38.289502],[22.783691,38.261719],[22.834375,38.234717],[22.93252,38.201953],[22.99541,38.215527],[23.034375,38.2021],[23.093555,38.196436],[23.148926,38.176074],[23.183496,38.133691],[23.152539,38.096387],[23.12207,38.07334],[22.954785,38.074609],[22.893164,38.050928],[22.916992,38.007471],[22.920313,37.958301],[22.846387,37.967578],[22.799609,37.981201],[22.711523,38.046924],[22.555859,38.113232],[22.24375,38.188721],[21.95332,38.321191],[21.824707,38.328125],[21.748438,38.274219],[21.658398,38.175098],[21.54873,38.1646],[21.451172,38.204736],[21.403711,38.19668],[21.308105,38.027441],[21.14502,37.919287],[21.124707,37.891602],[21.137988,37.85415],[21.205273,37.828857],[21.288477,37.774512],[21.329297,37.669336],[21.416211,37.639941],[21.571289,37.541016],[21.678906,37.387207],[21.69248,37.309277],[21.578809,37.200391],[21.58291,37.080957],[21.738086,36.863232],[21.892383,36.737305],[21.934277,36.803662],[21.940039,36.891797],[21.955566,36.990088],[22.011719,37.016504],[22.080469,37.028955],[22.133789,36.963916],[22.164746,36.902832],[22.231152,36.882568],[22.375977,36.701904],[22.38125,36.646191],[22.374805,36.513574],[22.427734,36.475781],[22.489453,36.446924],[22.489063,36.568164],[22.608398,36.779736],[22.717188,36.793945],[22.779883,36.786182],[22.832324,36.687109],[22.98291,36.528369],[23.060547,36.486963],[23.106836,36.451855],[23.160156,36.448096],[23.111719,36.547607],[23.041016,36.644531],[23.073535,36.774951],[23.060352,36.853516],[22.99502,37.015869],[22.851074,37.29082],[22.765039,37.393311],[22.725391,37.542139],[22.775,37.585107],[22.851074,37.532227],[22.940527,37.51709],[23.015137,37.481787],[23.096484,37.440576],[23.1,37.36377],[23.161523,37.333838],[23.203027,37.348535],[23.252539,37.377295],[23.489258,37.440186],[23.490625,37.463867],[23.458105,37.496924],[23.408789,37.541553],[23.396191,37.579785],[23.347559,37.597559],[23.262695,37.59541],[23.197559,37.620215],[23.147168,37.71626],[23.147168,37.795312],[23.086133,37.853125],[23.036328,37.878369],[23.047461,37.902637],[23.087402,37.912842],[23.193652,37.959033],[23.420215,37.99209],[23.501758,38.034863],[23.537207,38.032764],[23.580469,38.010547],[23.732813,37.884082],[23.877344,37.777783],[23.971582,37.676758],[24.019727,37.677734],[24.055371,37.709619],[24.062305,37.774512],[24.061328,37.81792],[24.033008,37.955322],[24.024512,38.139795],[24.005371,38.226807],[23.966992,38.275],[23.836035,38.325488],[23.683984,38.352441],[23.569629,38.489404],[23.368945,38.525537],[23.25293,38.66123],[23.137695,38.667969],[23.020313,38.741895],[22.774023,38.800391],[22.6875,38.84917],[22.634277,38.850684],[22.569141,38.86748],[22.596777,38.890576],[22.676855,38.898926],[22.802637,38.901611],[22.930469,38.947705],[23.066699,39.037939],[22.965527,39.030908],[22.938965,39.111523],[22.886035,39.169971],[22.838965,39.258594],[22.921387,39.306348],[22.992871,39.331055],[23.161719,39.257764],[23.16875,39.210449],[23.119434,39.132764],[23.154688,39.101465],[23.218359,39.104395],[23.327734,39.174902],[23.288477,39.288818],[23.233398,39.358447],[23.103418,39.492041],[22.978809,39.563818],[22.919043,39.628906],[22.835742,39.800586],[22.592188,40.036914],[22.569336,40.119336],[22.605469,40.276416],[22.642676,40.366602],[22.624902,40.428613],[22.629492,40.495557],[22.741895,40.536475],[22.811426,40.578613],[22.922266,40.590869],[22.892871,40.524268],[22.851367,40.490625],[22.896484,40.399902],[23.098145,40.304297],[23.312012,40.216455],[23.328223,40.089941],[23.395605,39.989844],[23.627344,39.924072],[23.65752,39.934473],[23.674121,39.958887],[23.46709,40.073926],[23.433203,40.11543],[23.386426,40.221973],[23.42627,40.263965],[23.664551,40.223828],[23.835352,40.022266],[23.94707,39.965576],[23.981836,39.994043],[24.000781,40.024609],[23.96748,40.114551],[23.917578,40.155225],[23.823438,40.205127],[23.720508,40.286279],[23.72793,40.329736],[23.823438,40.368018],[23.913184,40.358789],[24.056055,40.303564],[24.158789,40.280029],[24.232422,40.215186],[24.343359,40.147705],[24.29248,40.241797],[24.212793,40.327783],[24.030566,40.409326],[23.932031,40.405762],[23.866797,40.418555],[23.831934,40.481543],[23.878906,40.544385],[23.778711,40.627979],[23.743262,40.677002],[23.762793,40.747803],[23.946094,40.74834],[24.082324,40.724072],[24.234375,40.786133],[24.383789,40.912744],[24.477051,40.947754],[24.556543,40.935596],[24.678711,40.869482],[24.792969,40.85752],[25.004688,40.967529],[25.104492,40.994727],[25.250098,40.932812],[25.325293,40.943115],[25.496777,40.887793],[25.855664,40.844092],[26.010742,40.769141],[26.038965,40.726758],[26.067773,40.683398],[26.105469,40.611328],[26.224219,40.618066],[26.360938,40.606348],[26.578125,40.624658],[26.79209,40.626611],[26.720313,40.544238],[26.447461,40.44502],[26.355273,40.390234],[26.253809,40.314697],[26.252344,40.248145],[26.260156,40.202393],[26.225977,40.141699],[26.202734,40.075391],[26.271777,40.096582],[26.32998,40.123389],[26.467969,40.261475],[26.77207,40.498047],[26.974609,40.564014],[27.258008,40.687354],[27.430176,40.839941],[27.499414,40.973145],[27.747363,41.013281],[27.925195,40.990576],[28.085547,41.061328],[28.172168,41.080713],[28.294922,41.071484],[28.780371,40.97417],[28.95625,41.008203],[28.995996,41.061133],[29.032129,41.140479],[29.057227,41.229736],[28.946777,41.248389],[28.346387,41.466357],[28.197852,41.554492],[28.050293,41.72915],[27.987305,41.854883],[28.014453,41.969043],[27.982715,42.047412],[27.821387,42.208008],[27.708203,42.349951],[27.639551,42.400977],[27.484766,42.468066],[27.753711,42.706543],[27.818359,42.71665],[27.888867,42.749707],[27.896484,43.020703],[27.928906,43.186133],[27.979297,43.230518],[28.035156,43.268262],[28.133691,43.395605],[28.319629,43.426855],[28.46543,43.389307],[28.561816,43.501318],[28.585352,43.742236],[28.590723,43.797412],[28.658594,43.983838],[28.64541,44.295654],[28.699219,44.374219],[28.851758,44.506104],[28.888184,44.574756],[28.807031,44.565039],[28.813574,44.60249],[28.846484,44.636865],[28.849023,44.716309],[28.87041,44.749951],[28.926172,44.81001],[28.891504,44.918652],[28.930566,44.96582],[28.980664,44.99292],[29.095313,44.975049],[29.047754,44.925684],[29.069141,44.871143],[29.081055,44.798828],[29.048242,44.757568],[29.55752,44.843408],[29.605469,44.915479],[29.635352,44.979639],[29.678613,45.15166],[29.689063,45.193213],[29.705859,45.259912],[29.726953,45.343311],[29.670313,45.540674],[29.601172,45.6],[29.60166,45.68252],[29.628418,45.722461],[29.685059,45.754687],[29.821191,45.73208],[29.90166,45.752393],[30.006641,45.797949],[30.18418,45.849951],[30.219043,45.866748],[30.492969,46.090137],[30.511523,46.105371],[30.656738,46.266504],[30.672266,46.304004],[30.72168,46.366211],[30.772852,46.473047],[30.796289,46.552002],[31.136816,46.624463],[31.320312,46.6125],[31.40293,46.628809],[31.496875,46.738379],[31.563379,46.777295],[31.532129,46.664746],[31.657031,46.642432],[31.77959,46.631641],[31.872852,46.649756],[31.90166,46.721631],[31.90886835021731,46.855210515418044],[30.9,46.7],[29.8682382133995,46.65086848635236],[29.7,47.45],[27.7,48.65],[26.2,48.55],[25.2,47.4],[23.4,47.8],[21.6,47.5],[20.7,47.9],[19.65,48.1],[18.9,47.8],[18.2,47.3],[17.6,46.5],[17.3,45.8],[16.2,45.35],[15.6,44.7]],[[21.6,45.5],[23.9,45.4],[22.6,44.7],[21.6,45.5]]],[[[19.646484,39.76709],[19.648926,39.726172],[19.808887,39.585303],[19.883984,39.461523],[19.975,39.411426],[20.099609,39.376611],[20.07793,39.432715],[20.027734,39.44209],[19.955273,39.47041],[19.927344,39.505908],[19.903125,39.6],[19.904102,39.619482],[19.84668,39.668115],[19.862207,39.692627],[19.936816,39.746729],[19.926074,39.77373],[19.891699,39.797266],[19.838574,39.820117],[19.707324,39.798096],[19.646484,39.76709]]],[[[20.352246,38.221729],[20.352539,38.179883],[20.391016,38.188428],[20.452148,38.23418],[20.47334,38.218799],[20.49873,38.184375],[20.495508,38.16416],[20.523535,38.106641],[20.568945,38.097656],[20.606152,38.119727],[20.761328,38.070557],[20.780762,38.088818],[20.788867,38.14209],[20.695215,38.246191],[20.624707,38.267871],[20.612305,38.38335],[20.563184,38.474951],[20.550293,38.456543],[20.54834,38.394531],[20.519629,38.332324],[20.481445,38.318213],[20.435059,38.356201],[20.408691,38.336768],[20.352246,38.221729]]],[[[20.554688,38.582568],[20.583984,38.601709],[20.614355,38.60625],[20.647852,38.600977],[20.686719,38.608691],[20.714844,38.63833],[20.719629,38.79917],[20.694141,38.844238],[20.634668,38.817578],[20.59248,38.760156],[20.55791,38.661865],[20.554688,38.582568]]],[[[20.619531,37.855029],[20.635059,37.823145],[20.703809,37.743457],[20.818555,37.664746],[20.909082,37.732129],[20.993945,37.708008],[20.888477,37.805371],[20.839844,37.840723],[20.758691,37.852979],[20.691504,37.929541],[20.619531,37.855029]]],[[[20.623633,38.480322],[20.646387,38.414307],[20.709277,38.318604],[20.758691,38.329443],[20.73916,38.365771],[20.711621,38.398633],[20.701074,38.425928],[20.70127,38.451416],[20.674805,38.476318],[20.649707,38.483984],[20.623633,38.480322]]],[[[22.870313,38.870508],[22.881348,38.847656],[22.935742,38.839648],[23.029102,38.873389],[23.143945,38.844824],[23.252148,38.801221],[23.364063,38.73501],[23.465234,38.655859],[23.505273,38.612939],[23.55332,38.581982],[23.617383,38.552539],[23.650781,38.443066],[23.758789,38.401221],[23.88623,38.400732],[24.040137,38.38999],[24.041895,38.374121],[24.063574,38.337207],[24.102832,38.316846],[24.144141,38.243066],[24.189063,38.204297],[24.192578,38.15166],[24.212012,38.117529],[24.317773,38.060352],[24.359473,38.018555],[24.416504,38.016553],[24.445801,38.00498],[24.472656,37.980518],[24.502344,37.969922],[24.536523,37.979736],[24.578516,38.020166],[24.588379,38.123975],[24.563281,38.14751],[24.463965,38.145117],[24.359668,38.1625],[24.275781,38.22002],[24.220117,38.338623],[24.1875,38.463428],[24.211035,38.504248],[24.199707,38.541016],[24.154688,38.588281],[24.127539,38.648486],[24.099023,38.670996],[23.878223,38.686572],[23.688477,38.764697],[23.63623,38.770215],[23.525,38.813477],[23.471973,38.850098],[23.41543,38.958643],[23.312695,39.034912],[23.258203,39.031348],[23.145801,39.002686],[22.986328,38.915918],[22.870313,38.870508]]],[[[22.905664,36.320312],[22.91084,36.220996],[22.939453,36.176221],[23.042188,36.146387],[23.053809,36.189795],[23.09707,36.246582],[22.997852,36.328125],[22.950488,36.383936],[22.932617,36.36875],[22.905664,36.320312]]],[[[23.419336,37.93125],[23.435254,37.911475],[23.466797,37.902393],[23.511426,37.901172],[23.550977,37.925879],[23.534863,37.970215],[23.515527,37.986035],[23.483691,37.991113],[23.462207,37.980371],[23.439063,37.940674],[23.419336,37.93125]]],[[[23.547559,35.415576],[23.561621,35.295166],[23.592773,35.257227],[23.638086,35.235156],[23.703906,35.233496],[23.883594,35.246094],[23.994336,35.221924],[24.463672,35.160352],[24.583398,35.115332],[24.708887,35.089062],[24.735156,35.058301],[24.743945,35.014355],[24.745215,34.950635],[24.799805,34.934473],[25.205762,34.959277],[25.610938,35.007324],[25.829688,35.025195],[26.04668,35.01416],[26.165625,35.018604],[26.244336,35.044678],[26.255566,35.095166],[26.280859,35.159229],[26.298633,35.268604],[26.320215,35.315137],[26.285547,35.309766],[26.167871,35.215088],[26.028027,35.215283],[25.893359,35.179199],[25.837109,35.132568],[25.791309,35.122852],[25.74502,35.142725],[25.735156,35.184033],[25.755859,35.326367],[25.730176,35.348584],[25.569629,35.328076],[25.475684,35.306201],[25.296777,35.339355],[25.104297,35.346924],[25.003125,35.409863],[24.721289,35.424805],[24.626953,35.409912],[24.53457,35.380762],[24.444922,35.366016],[24.354004,35.359473],[24.312891,35.363818],[24.274902,35.385986],[24.257715,35.423145],[24.255371,35.468604],[24.178516,35.459521],[24.123145,35.483643],[24.108984,35.495801],[24.124023,35.51084],[24.197754,35.537451],[24.166016,35.595215],[24.093359,35.593848],[24.034375,35.5354],[24.013281,35.529443],[23.920605,35.528174],[23.852246,35.535449],[23.793359,35.556201],[23.770801,35.634229],[23.736914,35.655518],[23.715039,35.604736],[23.71543,35.550146],[23.672656,35.513916],[23.626563,35.530371],[23.608691,35.56626],[23.569824,35.534766],[23.547559,35.415576]]],[[[23.593945,39.208594],[23.666113,39.095361],[23.735156,39.080566],[23.779785,39.114404],[23.593945,39.208594]]],[[[23.841211,39.146582],[23.887988,39.158301],[23.939746,39.200537],[23.970898,39.267725],[23.888086,39.226367],[23.841211,39.146582]]],[[[24.277441,37.601123],[24.288965,37.528271],[24.355957,37.576855],[24.400781,37.649023],[24.379102,37.682715],[24.32041,37.677734],[24.277441,37.601123]]],[[[24.325977,36.655615],[24.530664,36.683984],[24.5375,36.705029],[24.535742,36.76377],[24.460352,36.747461],[24.450195,36.728955],[24.425195,36.712939],[24.357422,36.744287],[24.344922,36.722998],[24.325977,36.655615]]],[[[24.369727,37.419629],[24.397754,37.383447],[24.378906,37.314111],[24.435742,37.344434],[24.481445,37.408008],[24.448535,37.449561],[24.43125,37.475195],[24.394824,37.450391],[24.369727,37.419629]]],[[[24.424805,37.131982],[24.486523,37.110059],[24.523535,37.125098],[24.535938,37.167676],[24.529102,37.192334],[24.483789,37.210205],[24.441211,37.186865],[24.424805,37.131982]]],[[[24.461035,38.888623],[24.566406,38.832373],[24.564551,38.819434],[24.541016,38.788672],[24.569043,38.784814],[24.674707,38.809229],[24.58125,38.878857],[24.564063,38.942236],[24.485645,38.980273],[24.473438,38.96167],[24.461035,38.888623]]],[[[24.515527,40.647021],[24.645898,40.579443],[24.774219,40.615186],[24.768652,40.658887],[24.786328,40.703857],[24.773633,40.730273],[24.719141,40.786279],[24.62334,40.79292],[24.585547,40.76875],[24.516699,40.687207],[24.515527,40.647021]]],[[[24.670996,36.998584],[24.676465,36.959277],[24.702637,36.91709],[24.720898,36.921436],[24.763184,36.949219],[24.716113,37.023828],[24.681445,37.021631],[24.670996,36.998584]]],[[[24.700195,37.96167],[24.714355,37.898877],[24.766504,37.870703],[24.798535,37.824023],[24.884082,37.770508],[24.962207,37.692383],[24.991699,37.759619],[24.980469,37.796924],[24.948438,37.857666],[24.956348,37.904785],[24.855078,37.913672],[24.79043,37.990137],[24.763379,37.9875],[24.700195,37.96167]]],[[[24.895313,37.446338],[24.896191,37.406592],[24.911523,37.390576],[24.937891,37.389697],[24.942871,37.493506],[24.906543,37.508887],[24.895313,37.446338]]],[[[24.996484,37.676904],[25.016309,37.645947],[25.051953,37.614453],[25.156348,37.545068],[25.21875,37.535107],[25.255859,37.599609],[25.225391,37.630664],[25.091797,37.647998],[25.039355,37.680664],[24.996484,37.676904]]],[[[25.052344,39.976367],[25.065234,39.909863],[25.062207,39.852393],[25.126465,39.82583],[25.185156,39.829932],[25.203223,39.849414],[25.223828,39.892578],[25.249414,39.894141],[25.251758,39.854395],[25.263379,39.822949],[25.29873,39.806104],[25.357031,39.808105],[25.37207,39.891309],[25.399902,39.949561],[25.437695,39.983301],[25.449121,40.034814],[25.373633,40.015527],[25.348047,39.984766],[25.285742,39.956299],[25.23418,40.00542],[25.058008,39.999658],[25.052344,39.976367]]],[[[25.105469,37.034961],[25.133301,36.999658],[25.199414,36.991309],[25.278906,37.068408],[25.271484,37.08418],[25.275293,37.137842],[25.235059,37.148535],[25.146484,37.107422],[25.105469,37.034961]]],[[[25.259961,36.758447],[25.288672,36.721533],[25.364355,36.65835],[25.381738,36.674023],[25.406934,36.717334],[25.295898,36.78916],[25.259961,36.758447]]],[[[25.307129,37.412988],[25.402734,37.419141],[25.457422,37.44707],[25.462988,37.471094],[25.348145,37.50918],[25.312695,37.489307],[25.307129,37.412988]]],[[[25.361914,37.07041],[25.395898,36.984375],[25.456738,36.929688],[25.545898,36.967578],[25.584277,37.039307],[25.587891,37.152539],[25.564355,37.185107],[25.525293,37.196387],[25.361914,37.07041]]],[[[25.370508,36.358936],[25.435938,36.340088],[25.482422,36.392627],[25.467383,36.435059],[25.408984,36.47373],[25.396875,36.465332],[25.414648,36.442285],[25.412891,36.404883],[25.397168,36.378955],[25.370508,36.358936]]],[[[25.448047,40.482812],[25.572656,40.400439],[25.685742,40.426562],[25.664258,40.463867],[25.624316,40.491992],[25.568555,40.515869],[25.448047,40.482812]]],[[[25.668945,40.135889],[25.740234,40.105469],[25.97002,40.136328],[25.977051,40.177832],[25.918359,40.237988],[25.874805,40.233691],[25.740918,40.196289],[25.668945,40.135889]]],[[[25.743164,36.789746],[25.771094,36.782227],[25.859375,36.79043],[25.984668,36.879687],[26.064453,36.902734],[26.000684,36.937402],[25.941992,36.886572],[25.852441,36.847559],[25.834375,36.825391],[25.796777,36.807031],[25.743164,36.789746]]],[[[25.844141,39.200049],[25.855469,39.178662],[25.90625,39.138965],[26.072363,39.095605],[26.175977,39.194287],[26.273145,39.197559],[26.245117,39.164111],[26.10791,39.081055],[26.16084,39.025879],[26.390137,38.973926],[26.46875,38.972803],[26.547168,38.994141],[26.503125,39.031445],[26.488672,39.074805],[26.531543,39.064355],[26.583984,39.031445],[26.595605,39.048828],[26.578223,39.109521],[26.531055,39.171777],[26.392773,39.270117],[26.410156,39.329443],[26.347754,39.383008],[26.16543,39.373535],[26.164844,39.331982],[26.088379,39.304297],[26.026465,39.284619],[25.90957,39.287549],[25.844141,39.200049]]],[[[25.846094,38.574023],[25.85127,38.508398],[25.959961,38.416016],[25.991406,38.353516],[25.952637,38.302637],[25.874316,38.269629],[25.891895,38.243311],[25.998535,38.161523],[26.094043,38.218066],[26.103125,38.23418],[26.110742,38.279639],[26.157031,38.30293],[26.149609,38.468457],[26.141211,38.486182],[26.160352,38.540723],[26.110449,38.544629],[26.0125,38.601709],[25.846094,38.574023]]],[[[25.982422,37.525586],[26.029297,37.529395],[26.204883,37.568506],[26.296875,37.61958],[26.351367,37.674316],[26.325586,37.673047],[26.211523,37.638281],[26.086328,37.634912],[25.996777,37.565576],[25.982422,37.525586]]],[[[26.095996,39.520801],[26.113086,39.467383],[26.350781,39.484082],[26.484082,39.520703],[26.827051,39.562891],[26.899219,39.549658],[26.910938,39.517334],[26.813281,39.419043],[26.710742,39.339648],[26.681836,39.292236],[26.719336,39.260645],[26.853613,39.115625],[26.849316,39.056738],[26.808301,39.013916],[26.814941,38.960986],[26.866211,38.922949],[26.920313,38.934229],[26.970117,38.919043],[27.013672,38.886865],[26.90918,38.775781],[26.790137,38.736084],[26.763672,38.709619],[26.787695,38.660205],[26.795313,38.626416],[26.837793,38.557568],[26.906836,38.481738],[26.97041,38.447852],[27.144238,38.451953],[27.098633,38.415723],[26.861426,38.372949],[26.769922,38.388184],[26.727344,38.418604],[26.696387,38.405371],[26.674219,38.335742],[26.641309,38.352441],[26.59502,38.418604],[26.610352,38.486914],[26.586523,38.557031],[26.513574,38.629492],[26.441309,38.641211],[26.377832,38.62417],[26.372266,38.561914],[26.429688,38.440625],[26.416406,38.367871],[26.343652,38.370068],[26.290723,38.277197],[26.33291,38.24248],[26.42793,38.214355],[26.524707,38.162256],[26.582422,38.149268],[26.621094,38.176367],[26.682813,38.19834],[26.807422,38.13833],[26.878613,38.054785],[26.943848,38.062891],[27.158691,37.986865],[27.232422,37.978662],[27.254785,37.882324],[27.224414,37.725439],[27.077832,37.687695],[27.067969,37.65791],[27.147949,37.603613],[27.203906,37.491406],[27.219238,37.38916],[27.289551,37.348682],[27.37627,37.340723],[27.400586,37.306738],[27.520117,37.249121],[27.535059,37.163867],[27.368164,37.122412],[27.300195,37.126855],[27.249707,37.07915],[27.262988,36.976562],[27.311035,36.981885],[27.348926,37.01958],[27.668359,37.007422],[28.133691,37.029492],[28.242383,37.029053],[28.224414,36.996387],[28.083008,36.920264],[28.005371,36.831982],[27.934473,36.809277],[27.630859,36.78667],[27.554688,36.758887],[27.466895,36.746338],[27.453906,36.712158],[27.54043,36.684229],[27.655859,36.674609],[27.803809,36.736475],[28.083984,36.751465],[28.01416,36.670215],[28.019434,36.634473],[28.111523,36.646387],[28.195605,36.686328],[28.303711,36.811963],[28.483594,36.803809],[28.717676,36.700879],[28.816895,36.675293],[28.895898,36.673584],[28.969629,36.715332],[29.038281,36.693457],[29.058105,36.638135],[29.065527,36.590088],[29.116113,36.520117],[29.143262,36.397217],[29.223633,36.324463],[29.34834,36.258838],[29.689063,36.156689],[29.789258,36.168066],[30.083203,36.249365],[30.231641,36.307324],[30.29541,36.287695],[30.387305,36.243262],[30.446094,36.269873],[30.483594,36.3104],[30.506055,36.451123],[30.558496,36.52583],[30.582031,36.797168],[30.644043,36.865674],[30.950293,36.848682],[31.240625,36.821729],[31.352539,36.801074],[31.77793,36.612793],[32.021973,36.535303],[32.130566,36.449121],[32.283789,36.267871],[32.377734,36.183643],[32.533789,36.100732],[32.794824,36.035889],[32.929492,36.095703],[33.099512,36.102979],[33.441797,36.152832],[33.522754,36.143994],[33.694727,36.181982],[33.954883,36.295215],[34.023438,36.340771],[34.299609,36.604199],[34.601367,36.784473],[34.703613,36.816797],[34.81123,36.799268],[34.943164,36.725684],[35.176172,36.634863],[35.393164,36.575195],[35.537402,36.597021],[35.625586,36.652783],[35.661133,36.724316],[35.734277,36.763965],[35.801563,36.778076],[35.90459,36.847607],[36.048926,36.910596],[36.135156,36.851611],[36.180078,36.807227],[36.188184,36.743066],[36.188477,36.658984],[36.031738,36.522705],[35.882812,36.406348],[35.810938,36.309863],[35.887109,36.159082],[35.956934,35.998145],[35.892676,35.916553],[35.839648,35.849219],[35.764453,35.571582],[35.902441,35.420703],[35.916016,35.350537],[35.918066,35.299512],[35.943066,35.223828],[35.889941,35.060303],[35.88932394640182,35.02669013399546],[36.3,34],[36.2,32],[34.8,30],[34.94798900548344,29.526435182452975],[34.973438,29.555029],[34.982227,29.484473],[34.9730479163993,29.446246667522217],[35,29.359999999999992],[35,29.12],[34.89225229538943,29.109225229538946],[34.799121,28.720508],[34.779883,28.507324],[34.683301,28.264111],[34.616211,28.14834],[34.625,28.064502],[34.72207,28.130664],[34.827539,28.108594],[35.07832,28.087012],[35.180469,28.034863],[35.423828,27.733789],[35.581348,27.432471],[35.762988,27.258789],[35.85166,27.070459],[36.032031,26.881006],[36.09375,26.76582],[36.249609,26.594775],[36.498296911284754,26.142111830006904],[36.533256905328976,26.09876143739207],[36.675195,26.038867],[36.702539,25.902881],[36.71350372657711,25.875255379044386],[36.862517101313614,25.690478794371117],[36.920703,25.641162],[36.99824702559028,25.52217368826805],[37.5,24.9],[37.97067811777367,24.13205149205348],[37.977832,24.124561],[38.098633,24.058008],[38.288867,23.910986],[38.46416,23.711865],[38.542285,23.55791],[38.706055,23.305518],[38.757031,23.194287],[38.796875,23.048584],[38.835547,22.989063],[38.941113,22.881836],[38.88291,22.882031],[38.93877,22.804785],[39.007422,22.770068],[39.001367,22.698975],[39.062012,22.592187],[39.095898,22.392773],[39.07816371619327,22.32510130515835],[39.4,21.8],[40.7,19.8],[42,19.8],[42.1,21],[40.7,23.6],[38.7,26],[37.1,28.4],[35.60916030534351,29.180916030534352],[35.8,29.2],[37.5,31.4],[39.1,32.3],[42.2,31.3],[44.5,29.5],[47.1,29.25],[47.80216325327927,29.475695331411192],[47.81748,29.487402],[47.969629,29.616699],[48.04834,29.59751],[48.089453,29.579102],[48.11434839202719,29.576040554580167],[48.14148353313277,29.584762564221247],[48.136133,29.618115],[48.077344,29.715576],[48.005664,29.835791],[47.973633,29.945898],[47.978711,29.982812],[47.98252,30.011328],[48.072754,30.043213],[48.141699,30.040918],[48.35459,29.956738],[48.454199,29.938477],[48.48875375500293,29.94741738993558],[48.45,30.8],[47.55,31.8],[46.5,33.1],[46.25,34.5],[45.4,35.6],[45.3,36.6],[44.55,37.45],[44.7,38.35],[43.5,39.5],[43.6,40.5],[42.8,41.25],[41.42216735654309,41.43129376887591],[41.414355,41.423633],[41.083594,41.261182],[40.959473,41.211621],[40.819531,41.190234],[40.6875,41.107422],[40.265234,40.961328],[40.128418,40.943018],[40.000195,40.977148],[39.911133,40.966455],[39.80791,40.98252],[39.426367,41.106445],[38.852148,41.017676],[38.556934,40.936523],[38.381055,40.924512],[37.910059,41.001904],[37.765625,41.078906],[37.430957,41.114111],[37.066211,41.184424],[36.991992,41.275391],[36.777734,41.363477],[36.64707,41.352539],[36.587109,41.32666],[36.509668,41.2625],[36.405371,41.274609],[36.278418,41.336133],[36.179199,41.426562],[36.051758,41.682568],[35.978125,41.704834],[35.919824,41.713721],[35.558008,41.634033],[35.297754,41.728516],[35.20918,41.794385],[35.12207,41.891113],[35.114063,41.956982],[35.141016,41.989502],[35.154883,42.027539],[35.006445,42.063281],[34.750488,41.956836],[34.192969,41.963672],[33.381348,42.017578],[33.284766,42.00459],[32.94668,41.891748],[32.542188,41.806396],[32.306445,41.72959],[32.086426,41.589209],[31.458008,41.32002],[31.34668,41.15791],[31.254883,41.107617],[30.810059,41.084863],[30.344922,41.196924],[29.919336,41.15083],[29.322266,41.227734],[29.148145,41.221045],[29.094336,41.177246],[29.067383,41.10166],[29.045508,41.007568],[29.082227,40.963428],[29.113867,40.937842],[29.259766,40.847314],[29.364746,40.809277],[29.800586,40.760156],[29.849219,40.760107],[29.844922,40.738086],[29.507617,40.708398],[29.054102,40.649121],[28.958008,40.630566],[28.787891,40.534033],[28.841211,40.503467],[28.894629,40.482422],[28.974023,40.467383],[29.055176,40.42417],[29.007129,40.389746],[28.738867,40.390869],[28.630273,40.376465],[28.289062,40.403027],[27.962598,40.369873],[27.928906,40.38042],[27.964355,40.435303],[27.994824,40.466602],[27.989551,40.489453],[27.874902,40.512939],[27.769141,40.509619],[27.731836,40.481494],[27.848535,40.381738],[27.789355,40.350879],[27.728027,40.328809],[27.475586,40.319922],[27.332617,40.375928],[27.31416,40.414893],[27.28457,40.455615],[27.12168,40.452344],[27.012109,40.396338],[26.738086,40.400244],[26.475391,40.197266],[26.313379,40.025],[26.181348,39.990088],[26.149805,39.872852],[26.154688,39.656641],[26.101367,39.568945],[26.095996,39.520801]]],[[[26.269824,36.59541],[26.27002,36.546924],[26.331445,36.511377],[26.381641,36.561523],[26.460645,36.5854],[26.421289,36.624219],[26.37002,36.638574],[26.38418,36.607861],[26.337012,36.580566],[26.269824,36.59541]]],[[[26.581055,37.72373],[26.612891,37.710498],[26.720508,37.705469],[26.788281,37.656982],[26.844922,37.644727],[26.978125,37.700488],[27.055078,37.709277],[27.039648,37.77002],[26.981543,37.781982],[26.947363,37.778467],[26.824414,37.811426],[26.743359,37.809766],[26.638672,37.780859],[26.581055,37.72373]]],[[[26.888672,37.087256],[26.937695,37.024609],[26.919922,36.945215],[27.019727,36.959033],[27.03457,36.975977],[27.040137,37.001562],[27.016016,37.009668],[26.966602,37.0521],[26.888672,37.087256]]],[[[26.918359,36.725928],[26.949609,36.7271],[27.033594,36.770752],[27.150977,36.777588],[27.193164,36.809131],[27.352148,36.868896],[27.265625,36.905127],[27.214941,36.898633],[27.061133,36.840381],[26.955566,36.774219],[26.918359,36.725928]]],[[[27.070703,35.597754],[27.11582,35.511133],[27.099121,35.456445],[27.137891,35.409082],[27.176074,35.465283],[27.233594,35.478564],[27.208887,35.558936],[27.157227,35.629492],[27.207031,35.714453],[27.223145,35.820459],[27.158008,35.788672],[27.156055,35.72627],[27.070703,35.597754]]],[[[27.715527,35.957324],[27.745703,35.911035],[27.770605,35.908301],[27.842773,35.929297],[27.965527,36.04751],[28.087793,36.065332],[28.067676,36.129687],[28.144043,36.209863],[28.230078,36.370264],[28.231836,36.433643],[28.171484,36.426221],[27.914453,36.345312],[27.815234,36.276953],[27.774414,36.21377],[27.716309,36.171582],[27.718652,36.141113],[27.757324,36.069189],[27.715527,35.957324]]],[[[27.785742,36.60752],[27.788086,36.583691],[27.838281,36.537988],[27.860156,36.553906],[27.869043,36.582666],[27.869824,36.62251],[27.8625,36.641162],[27.836816,36.634863],[27.785742,36.60752]]],[[[31.508789,46.373145],[31.528711,46.306592],[31.563867,46.257764],[31.700195,46.214062],[32.009375,46.167822],[32.150098,46.154687],[32.012207,46.203906],[31.638477,46.272559],[31.584863,46.303174],[31.508789,46.373145]]],[[[31.554883,46.554297],[31.623633,46.510254],[31.713672,46.471777],[31.855762,46.462451],[32.008496,46.42998],[32.013086,46.387158],[31.991699,46.364404],[31.915918,46.348682],[31.842871,46.346143],[31.77998,46.324658],[31.83125,46.281689],[31.925195,46.287256],[32.035742,46.260986],[32.329883,46.130371],[32.476758,46.083691],[32.796875,46.131494],[32.941797,46.123779],[33.202246,46.175732],[33.263477,46.125684],[33.429883,46.057617],[33.498828,46.078857],[33.594141,46.09624],[33.636719,46.032861],[33.664844,45.94707],[33.466211,45.837939],[33.280078,45.765234],[33.142285,45.749219],[32.828027,45.593018],[32.508008,45.403809],[32.551855,45.350391],[32.611328,45.328076],[32.772656,45.358984],[32.918652,45.348145],[33.186914,45.194775],[33.261523,45.170752],[33.39248,45.187842],[33.555176,45.097656],[33.601172,44.981494],[33.612207,44.907812],[33.530078,44.680518],[33.491309,44.618604],[33.462695,44.596826],[33.450684,44.553662],[33.655859,44.433203],[33.755664,44.398926],[33.909961,44.387598],[34.074414,44.423828],[34.281738,44.538428],[34.469922,44.72168],[34.716895,44.807129],[34.887793,44.823584],[35.087695,44.802637],[35.154785,44.896338],[35.357813,44.978418],[35.472559,45.098486],[35.569531,45.119336],[35.677539,45.102002],[35.759473,45.07085],[35.803613,45.0396],[35.870117,45.005322],[36.054785,45.030811],[36.229883,45.025977],[36.393359,45.065381],[36.428418,45.153271],[36.450781,45.232324],[36.514258,45.30376],[36.575,45.393555],[36.427051,45.433252],[36.290332,45.456738],[36.170508,45.453076],[36.077148,45.424121],[36.012891,45.37168],[35.833496,45.401611],[35.750977,45.389355],[35.558008,45.310889],[35.45752,45.316309],[35.373926,45.353613],[35.260156,45.446924],[35.022852,45.700977],[34.906641,45.878809],[34.857324,45.987354],[34.84375,46.073584],[34.849609,46.189893],[34.969531,46.24209],[35.064063,46.267236],[35.230371,46.440625],[35.291992,46.370703],[35.290918,46.314404],[35.280176,46.279492],[35.217773,46.232178],[35.014551,46.106006],[35.055273,46.104004],[35.132324,46.125879],[35.204395,46.169189],[35.256641,46.203906],[35.400195,46.381396],[35.827148,46.624316],[36.024902,46.666797],[36.194629,46.645508],[36.279492,46.658594],[36.432031,46.732568],[36.558789,46.762695],[36.688672,46.764111],[36.794824,46.714404],[36.932031,46.825146],[37.047559,46.876221],[37.218555,46.917334],[37.339844,46.916895],[37.543359,47.074561],[37.828711,47.09585],[38.17832,47.080225],[38.214355,47.091455],[38.419212698572046,47.15515375859834],[36.5,47.3],[34.1,47.2],[32.2,46.9],[31.96240264292211,46.86344656044955],[31.964063,46.854834],[31.944922,46.784375],[31.974316,46.708789],[32.044336,46.64248],[32.127246,46.597217],[32.354102,46.564844],[32.578027,46.615625],[32.552539,46.591992],[32.418945,46.517773],[32.361328,46.474951],[32.131445,46.509375],[31.87793,46.52168],[31.716016,46.55498],[31.554883,46.554297]]],[[[32.300977,35.082959],[32.317188,34.95332],[32.41377,34.778027],[32.449023,34.729443],[32.505566,34.70625],[32.692969,34.649365],[32.750098,34.647803],[32.867188,34.661133],[32.914258,34.635498],[32.941797,34.575879],[33.00791,34.56958],[33.023926,34.6],[33.024902,34.636914],[33.062305,34.674805],[33.115527,34.695557],[33.176074,34.698047],[33.296582,34.717725],[33.414941,34.750879],[33.514453,34.806445],[33.699414,34.969873],[33.758984,34.973242],[33.822461,34.965918],[33.936523,34.971484],[34.050195,34.988379],[34.023633,35.045557],[34.004492,35.065234],[33.93125,35.140381],[33.90791,35.202393],[33.941992,35.292041],[34.463184,35.593506],[34.556055,35.662061],[34.411133,35.629297],[34.272363,35.569971],[34.19248,35.545703],[34.063477,35.473975],[33.607617,35.35415],[33.458789,35.335889],[33.307813,35.341504],[33.123438,35.358203],[32.941602,35.39043],[32.926367,35.278076],[32.879883,35.180566],[32.772363,35.15957],[32.712695,35.171045],[32.652344,35.182666],[32.555957,35.155762],[32.475,35.08999],[32.390918,35.049805],[32.300977,35.082959]]],[[[35.9,21.8],[36.6,19.5],[37.9,17.5],[38.6,15.1],[39.6,15.2],[39.659268036213355,15.377804108640055],[39.63125,15.452539],[39.578809,15.52251],[39.506543,15.532129],[39.422266,15.78667],[39.298926,15.921094],[39.222559,16.193701],[39.142578,16.72915],[39.034473,17.085547],[38.911719,17.427148],[38.609473,18.005078],[38.574023,18.072949],[38.33291,18.219043],[38.283105,18.286719],[38.252148,18.264404],[38.201758,18.249414],[38.128125,18.333301],[38.074023,18.409766],[37.921875,18.555908],[37.729785,18.694336],[37.599414,18.717432],[37.531641,18.753125],[37.471289,18.820117],[37.361523,19.091992],[37.248438,19.581885],[37.262598,19.791895],[37.193164,20.120703],[37.187891,20.394922],[37.227539,20.556738],[37.172656,20.731982],[37.156836,20.894922],[37.141113,20.981787],[37.150586,21.10376],[37.21748,21.077637],[37.257227,21.039404],[37.263184,21.072656],[37.258594,21.108545],[37.211719,21.18584],[37.081152,21.326025],[36.926953,21.586523],[36.882617,21.768799],[36.880586964966206,21.810001661198047],[36.457093468183864,22.36380084929803],[36.414551,22.394189],[36.229688,22.628809],[36.181856593071494,22.64556977921447],[35.9,21.8]]],[[[36.619141,45.185498],[36.627637,45.151318],[36.650781,45.126465],[36.944434,45.06958],[37.204785,44.971973],[37.284082,44.905029],[37.352344,44.788379],[37.411328,44.735352],[37.495117,44.695264],[37.55858914240486,44.67522871756475],[37.5,45.1],[39.5,46.1],[39.1743985228451,47.03028993472828],[39.126758,47.023438],[38.801074,46.906152],[38.630762,46.873047],[38.438672,46.813086],[38.487988,46.732178],[38.500977,46.663672],[38.343457,46.67832],[38.22998,46.70127],[38.159473,46.690674],[37.967969,46.618018],[37.867383,46.633789],[37.766504,46.636133],[37.80957,46.53208],[37.913867,46.406494],[37.977539,46.382861],[38.077734,46.394336],[38.315234,46.241943],[38.492285,46.090527],[38.400391,46.080029],[38.311816,46.095361],[38.183594,46.094824],[38.132812,46.002832],[38.07959,45.934814],[38.069727,45.969873],[38.073828,46.01709],[38.014258,46.047754],[37.933105,46.001709],[37.840918,45.799561],[37.669238,45.654053],[37.612402,45.564697],[37.609961,45.499512],[37.634375,45.486328],[37.671875,45.488379],[37.672949,45.429736],[37.647168,45.377197],[37.264258,45.310937],[37.213574,45.272314],[37.103516,45.302881],[36.977832,45.383594],[36.865918,45.427051],[36.79375,45.409717],[36.72041,45.371875],[36.761621,45.34834],[36.811035,45.340039],[36.941211,45.289697],[36.873047,45.251758],[36.619141,45.185498]]],[[[39.97213924233536,43.42295189897805],[39.97832,43.419824],[40.190625,43.312402],[40.462109,43.145703],[40.524023,43.121045],[40.836621,43.063477],[41.061621,42.930859],[41.128711,42.828125],[41.419434,42.737646],[41.48877,42.659326],[41.577734,42.397852],[41.663281,42.146875],[41.762988,41.97002],[41.760742,41.884863],[41.758789,41.817139],[41.701758,41.70542],[41.510059,41.51748],[41.49223311403667,41.5],[42.1,41.5],[43,41.6],[43.2,42.4],[41.3,43.6],[39.97213924233536,43.42295189897805]]],[[[48.081445,29.798926],[48.142578,29.665283],[48.179688,29.611426],[48.20505521879787,29.605196320327885],[48.27995414203258,29.629270974224756],[48.340234,29.694727],[48.347363,29.719971],[48.348242,29.782666],[48.227734,29.936328],[48.184766,29.978857],[48.158594,29.95957],[48.138867,29.896582],[48.120117,29.886328],[48.113477,29.870215],[48.114746,29.848779],[48.081445,29.798926]]]]}},{"type":"Feature","properties":{"id":"dependent","name":"Dependent territories (selected)","precision":"approximate","source":"Selected broad vassal territories; dotted boundary distinguishes them from the main shading"},"geometry":{"type":"MultiPolygon","coordinates":[[[[21.45,46.3],[21.6,45.5],[23.9,45.4],[22.6,44.7],[23.5,43.7],[25.5,43.65],[27.2,44.2],[29,45.3],[29.9,46.5],[29.7,47.45],[27.7,48.65],[26.2,48.55],[25.2,47.4],[23.4,47.8],[21.6,47.5],[21.45,46.3]]],[[[32.508008,45.403809],[32.551855,45.350391],[32.611328,45.328076],[32.772656,45.358984],[32.918652,45.348145],[33.186914,45.194775],[33.261523,45.170752],[33.39248,45.187842],[33.555176,45.097656],[33.601172,44.981494],[33.612207,44.907812],[33.530078,44.680518],[33.491309,44.618604],[33.462695,44.596826],[33.450684,44.553662],[33.655859,44.433203],[33.755664,44.398926],[33.909961,44.387598],[34.074414,44.423828],[34.281738,44.538428],[34.469922,44.72168],[34.716895,44.807129],[34.887793,44.823584],[35.087695,44.802637],[35.154785,44.896338],[35.357813,44.978418],[35.472559,45.098486],[35.569531,45.119336],[35.677539,45.102002],[35.759473,45.07085],[35.803613,45.0396],[35.870117,45.005322],[36.054785,45.030811],[36.229883,45.025977],[36.393359,45.065381],[36.428418,45.153271],[36.450781,45.232324],[36.514258,45.30376],[36.575,45.393555],[36.427051,45.433252],[36.290332,45.456738],[36.170508,45.453076],[36.077148,45.424121],[36.012891,45.37168],[35.833496,45.401611],[35.750977,45.389355],[35.558008,45.310889],[35.45752,45.316309],[35.373926,45.353613],[35.260156,45.446924],[35.022852,45.700977],[34.906641,45.878809],[34.857324,45.987354],[34.84375,46.073584],[34.849609,46.189893],[34.969531,46.24209],[35.064063,46.267236],[35.230371,46.440625],[35.291992,46.370703],[35.290918,46.314404],[35.280176,46.279492],[35.217773,46.232178],[35.014551,46.106006],[35.055273,46.104004],[35.132324,46.125879],[35.204395,46.169189],[35.256641,46.203906],[35.400195,46.381396],[35.827148,46.624316],[36.024902,46.666797],[36.194629,46.645508],[36.279492,46.658594],[36.40819413041764,46.72100827697517],[35.2,46.9],[33.8,46.5],[33,46.3],[32.87528646712216,46.1273197237076],[32.941797,46.123779],[33.202246,46.175732],[33.263477,46.125684],[33.429883,46.057617],[33.498828,46.078857],[33.594141,46.09624],[33.636719,46.032861],[33.664844,45.94707],[33.466211,45.837939],[33.280078,45.765234],[33.142285,45.749219],[32.828027,45.593018],[32.508008,45.403809]]],[[[36.619141,45.185498],[36.622026103026386,45.1738910294913],[36.640408635761545,45.19104806004411],[36.619141,45.185498]]],[[[39.97213924233536,43.42295189897805],[39.97832,43.419824],[40.190625,43.312402],[40.462109,43.145703],[40.524023,43.121045],[40.836621,43.063477],[41.061621,42.930859],[41.128711,42.828125],[41.419434,42.737646],[41.48877,42.659326],[41.577734,42.397852],[41.663281,42.146875],[41.762988,41.97002],[41.760742,41.884863],[41.758789,41.817139],[41.701758,41.70542],[41.510059,41.51748],[41.49223311403667,41.5],[42.1,41.5],[43,41.6],[43.2,42.4],[41.3,43.6],[39.97213924233536,43.42295189897805]]]]}}]}