{"type":"FeatureCollection","name":"Medieval Europe c. 1400","features":[{"type":"Feature","properties":{"id":"portugal","name":"Portugal","period":"c. 1400","source":"Historical Basemaps world_1400; approximate continental-scale reconstruction","precision":"approximate"},"geometry":{"type":"MultiPolygon","coordinates":[[[[-7.4915,37.20816],[-7.60344,37.16298],[-7.83604,37.03225],[-8.03364,37.00879],[-8.28024,37.08858],[-8.54107,37.08858],[-8.66706,37.12144],[-8.99085,36.99001],[-9.01664,37.0698],[-8.84151,37.52515],[-8.85103,37.91018],[-8.93279,37.96184],[-8.82299,38.20607],[-8.8473,38.38457],[-8.78892,38.43598],[-8.85365,38.49964],[-9.02232,38.46102],[-9.23657,38.41745],[-9.28516,38.61947],[-9.06915,38.64296],[-8.94189,38.74192],[-8.96083,38.81846],[-9.04085,38.92018],[-9.17575,38.73223],[-9.36164,38.67115],[-9.5224,38.68994],[-9.54901,38.77452],[-9.45976,38.95308],[-9.39771,39.23036],[-9.41527,39.36668],[-9.29927,39.41774],[-9.11792,39.64403],[-8.91559,40.13815],[-8.96967,40.19002],[-8.69407,40.99217],[-8.85178,41.40783],[-8.85475,41.59685],[-8.92074,41.76702],[-8.80606,41.88918],[-8.40505,42.00214],[-8.15726,42.08704],[-7.91856,41.88917],[-7.09844,41.86795],[-6.85952,41.98491],[-6.7087,41.96004],[-6.58608,41.85792],[-6.51843,41.7491],[-6.1395,41.52644],[-6.11154,41.41746],[-6.24115,41.32048],[-6.79663,41.09283],[-6.83445,41.06054],[-6.85717,40.86158],[-6.82486,40.65657],[-6.88417,40.21403],[-6.85868,39.79192],[-6.87832,39.7024],[-7.0842,39.59907],[-7.30126,39.57871],[-7.431,39.52052],[-7.21144,39.29821],[-7.00687,39.05032],[-6.93338,38.96135],[-7.08942,38.7945],[-7.31734,38.49963],[-7.39388,38.29499],[-7.0281,38.23958],[-6.84478,38.10021],[-7.24251,37.8109],[-7.35144,37.64444],[-7.488,37.21635],[-7.4915,37.20816]]]]}},{"type":"Feature","properties":{"id":"scotland","name":"Scotland","period":"c. 1400","source":"Historical Basemaps world_1400; approximate continental-scale reconstruction","precision":"approximate"},"geometry":{"type":"MultiPolygon","coordinates":[[[[-3.15253,54.83806],[-3.3087,54.88473],[-3.57668,54.92448],[-3.90768,54.78967],[-4.12161,54.76244],[-4.4607,54.8624],[-4.50027,54.77511],[-4.59991,54.68776],[-4.90252,54.73412],[-5.11142,54.79407],[-5.06665,54.94847],[-4.90999,55.11034],[-4.63836,55.42791],[-4.77052,55.48842],[-4.90776,55.66387],[-4.8951,55.77211],[-4.75843,55.81971],[-4.62329,55.90796],[-4.71072,56.13131],[-4.84837,56.09716],[-5.13463,55.89343],[-5.33355,55.87952],[-5.57017,55.75052],[-5.63306,55.93986],[-5.49702,56.17727],[-5.30011,56.42866],[-5.2707,56.54415],[-5.45825,56.63214],[-5.54658,56.65235],[-5.6445,56.51628],[-5.82168,56.4005],[-6.04355,56.47477],[-5.90896,56.73326],[-5.66593,56.93784],[-5.62529,56.99921],[-5.72634,57.25801],[-5.5616,57.29926],[-5.46064,57.38815],[-5.76297,57.61978],[-5.56846,57.77739],[-5.22997,57.70964],[-5.05559,57.75102],[-5.34593,58.09274],[-4.90713,58.16896],[-5.11271,58.39492],[-4.92556,58.56696],[-4.50985,58.40293],[-4.13889,58.44482],[-3.83055,58.50719],[-3.44054,58.52855],[-3.16501,58.5222],[-3.02839,58.40575],[-3.16637,58.27511],[-3.9432,57.95842],[-4.15046,57.83482],[-4.2485,57.63633],[-4.14843,57.55453],[-3.79582,57.54153],[-3.40082,57.57645],[-3.09264,57.57703],[-2.85398,57.54332],[-2.15036,57.57198],[-1.94463,57.40166],[-2.10781,57.21033],[-2.20316,57.06481],[-2.15895,57.01432],[-2.41314,56.71725],[-2.51475,56.66734],[-2.66714,56.471],[-2.98053,56.35358],[-3.15241,56.33682],[-2.94943,56.25301],[-2.72086,56.17819],[-2.77286,56.17131],[-2.89534,56.0855],[-3.16981,56.06211],[-3.29351,55.97391],[-3.89496,55.98507],[-3.71304,55.8847],[-3.57718,55.8847],[-3.35585,55.84269],[-3.16146,55.84568],[-2.9279,55.94603],[-2.74213,55.95719],[-2.54035,55.8847],[-2.24501,55.81097],[-3.15253,54.83806]]],[[[-5.69817,55.33073],[-5.75568,55.47727],[-5.68866,55.62812],[-5.51784,55.66802],[-5.4824,55.4427],[-5.62034,55.32952],[-5.69817,55.33073]]]]}},{"type":"Feature","properties":{"id":"france","name":"France","period":"c. 1400","source":"Historical Basemaps world_1400; approximate continental-scale reconstruction","precision":"approximate"},"geometry":{"type":"MultiPolygon","coordinates":[[[[1.98662,50.21967],[1.98662,50.08157],[2.14774,50.05856],[2.40091,50.19666],[2.67711,50.15062],[2.90727,49.94348],[3.48268,49.92046],[3.82033,50.03945],[4.25522,49.88724],[5.36113,49.69676],[5.90926,49.20086],[5.90387,49.19577],[5.61162,49.20968],[5.72295,48.95919],[5.87603,49.07052],[6.00128,48.90352],[5.83428,48.77828],[6.0152,48.65303],[5.94562,48.34687],[6.23786,48.29121],[6.25177,47.95721],[6.09869,48.0268],[6.05695,47.95721],[5.95953,47.98505],[5.95953,47.80413],[5.82037,47.73455],[5.91778,47.59539],[5.79254,47.51189],[5.77862,47.35881],[5.73687,47.23356],[5.66729,47.10832],[5.79387,46.99724],[5.75702,46.88667],[5.64644,46.84981],[5.62554,46.64908],[5.73966,46.59783],[5.72493,46.47999],[5.64572,46.45672],[5.41559,46.52418],[5.26828,46.31795],[5.53343,46.097],[5.53343,46.00861],[5.35667,46.0528],[5.35667,45.87604],[5.60708,45.84658],[5.82336,45.39624],[5.93454,45.32212],[5.94689,45.26036],[6.05807,45.2233],[6.03336,45.33448],[6.08278,45.37154],[6.14454,45.32212],[6.21866,45.34683],[6.26807,45.32212],[6.24337,45.29742],[6.28043,45.19859],[6.50732,45.11571],[6.66532,44.95452],[6.9426,44.86865],[7.00347,44.71954],[6.92469,44.71502],[6.78292,44.54787],[6.86978,44.34917],[6.78691,44.29681],[6.78691,44.19799],[6.83632,44.11151],[6.88573,44.14857],[6.93514,44.13622],[6.9722,44.0621],[6.99691,44.04975],[6.92279,43.97563],[6.95985,43.91386],[6.88573,43.90151],[6.92279,43.81504],[7.35515,43.90151],[7.39712,43.76409],[7.29762,43.6673],[6.92308,43.44767],[6.52301,43.15085],[6.33122,43.11187],[6.18778,43.09229],[5.82857,43.02082],[5.64655,43.03332],[5.43449,43.10366],[5.05182,43.3281],[4.90985,43.36644],[4.75059,43.35326],[4.64651,43.32087],[4.41676,43.34615],[4.0782,43.48709],[3.80747,43.46723],[3.47871,43.3121],[3.31787,43.19595],[3.0679,42.94456],[3.03927,42.86919],[2.94888,42.88297],[2.825,42.84975],[2.70112,42.73002],[2.48962,42.71892],[2.48056,42.68562],[2.27209,42.69006],[2.10289,42.61451],[1.72824,42.501],[1.73126,42.54554],[1.79169,42.57892],[1.75543,42.59672],[1.57717,42.64785],[1.45631,42.61895],[1.32046,42.60501],[1.30745,42.63517],[0.7442,42.77189],[0.58414,42.77189],[0.59192,42.62833],[0.34784,42.63517],[0.19627,42.60783],[0.17955,42.66252],[-0.16563,42.64884],[-0.20366,42.70031],[-0.21614,42.7172],[-0.40991,42.78557],[1.63785,45.80104],[1.63785,46.03286],[1.29012,46.30331],[0.36286,46.30331],[0.13104,46.03286],[-0.71895,46.03286],[-1.25606,46.30683],[-1.40267,46.40393],[-1.71073,46.44879],[-1.94248,46.7058],[-2.12966,46.85084],[-2.00465,47.0425],[-2.10948,47.12404],[-2.26375,47.18288],[-2.49371,47.24692],[-2.57553,47.32397],[-2.01036,47.74565],[-1.75197,48.17821],[-1.99911,48.67696],[-2.07597,48.65616],[-2.20007,48.59898],[-2.34289,48.67415],[-2.63638,48.552],[-2.79054,48.58958],[-2.91446,48.70679],[-3.09123,48.87155],[-3.43506,48.83646],[-3.55767,48.81008],[-3.60787,48.69295],[-3.82131,48.72115],[-3.90222,48.64596],[-3.99887,48.73054],[-4.25148,48.65191],[-4.4883,48.61227],[-4.6257,48.54667],[-4.76196,48.552],[-4.77963,48.35477],[-4.77963,48.35477],[-4.76196,48.552],[-4.6257,48.54667],[-4.4883,48.61227],[-4.25148,48.65191],[-3.99887,48.73054],[-3.90222,48.64596],[-3.82131,48.72115],[-3.60787,48.69295],[-3.55767,48.81008],[-3.43506,48.83646],[-3.09123,48.87155],[-2.91446,48.70679],[-2.79054,48.58958],[-2.63638,48.552],[-2.34289,48.67415],[-2.20007,48.59898],[-2.07597,48.65616],[-1.87057,48.71174],[-1.85761,48.60837],[-1.59136,48.6375],[-1.45659,48.68355],[-1.57555,48.76814],[-1.58841,48.88095],[-1.56341,49.03624],[-1.57978,49.22901],[-1.639,49.21961],[-1.89154,49.52635],[-1.94128,49.7093],[-1.52425,49.65277],[-1.25097,49.69988],[-1.28866,49.52097],[-1.17714,49.33255],[-1.02319,49.39846],[-0.46495,49.35138],[-0.23936,49.28549],[-0.20366,49.29181],[0.03287,49.33371],[0.33085,49.45496],[0.09037,49.51055],[0.11505,49.60228],[0.18937,49.68103],[0.52856,49.8258],[0.86876,49.90725],[1.27452,50.0043],[1.41623,50.10984],[1.55199,50.22881],[1.5283,50.57773],[1.58892,50.82188],[1.79618,50.92141],[1.82551,50.24269],[1.98662,50.21967]]],[[[-2.46554,47.49438],[-2.46554,47.49438],[-2.57648,47.32487],[-2.57648,47.32487],[-2.46554,47.49438]]],[[[-4.39094,47.94185],[-4.39094,47.94185],[-4.36437,47.82931],[-4.36437,47.82931],[-4.39094,47.94185]]],[[[-4.31287,48.10133],[-4.35098,48.20457],[-4.35098,48.20457],[-4.31287,48.10133],[-4.70031,48.0638],[-4.70031,48.0638],[-4.31287,48.10133]]],[[[-4.3889,48.29844],[-4.3502,48.39051],[-4.3502,48.39051],[-4.3889,48.29844],[-4.58797,48.25149],[-4.58797,48.25149],[-4.3889,48.29844]]]]}},{"type":"Feature","properties":{"id":"castile","name":"Castile","period":"c. 1400","source":"Historical Basemaps world_1400; approximate continental-scale reconstruction","precision":"approximate"},"geometry":{"type":"MultiPolygon","coordinates":[[[[-8.80606,41.88918],[-8.86049,42.01453],[-8.79857,42.19453],[-8.64406,42.41975],[-8.80505,42.63156],[-8.94172,42.8242],[-9.17312,42.8559],[-9.24686,42.90078],[-9.2708,43.04869],[-9.19747,43.15821],[-9.01359,43.28086],[-8.84922,43.32624],[-8.59572,43.33962],[-8.31041,43.35305],[-8.2507,43.43043],[-8.22022,43.61721],[-7.97953,43.74005],[-7.63627,43.72141],[-7.1513,43.55494],[-6.80798,43.52342],[-6.46757,43.56272],[-6.20805,43.64052],[-5.97966,43.70538],[-5.82045,43.70569],[-5.53742,43.57745],[-5.2249,43.50725],[-4.80234,43.46944],[-4.11022,43.45151],[-3.84761,43.43916],[-3.417,43.37565],[-3.19597,43.44688],[-3.00721,43.55027],[-2.76836,43.53788],[-2.36738,43.32624],[-2.14292,43.33147],[-2.13975,43.13576],[-2.55577,43.07632],[-2.67463,42.42258],[-2.19918,42.24428],[-2.08032,42.06599],[-2.31804,42.06599],[-2.25861,41.82826],[-2.13001,41.81657],[-2.14926,41.49307],[-2.3014,41.49307],[-2.3014,41.26485],[-2.03515,41.22681],[-1.92104,40.61824],[-2.3014,40.39002],[-2.3014,40.23787],[-1.99711,40.08573],[-1.99711,39.97162],[-1.80693,39.85751],[-1.99711,39.7434],[-1.99711,39.59126],[-1.80693,39.47715],[-1.80693,39.17286],[-2.03515,39.24893],[-2.03515,38.60232],[-1.80693,38.52625],[-1.80693,38.25999],[-1.65479,38.18392],[-1.65479,37.91767],[-1.88301,37.9557],[-2.03515,37.8416],[-1.92104,37.65142],[-2.14926,37.23302],[-1.94048,36.9516],[-2.2388,36.7284],[-2.3551,36.82405],[-2.62433,36.8113],[-3.96437,37.45568],[-5.20072,37.53295],[-6.63215,37.02175],[-6.94795,37.14931],[-7.0101,37.16526],[-7.22782,37.22586],[-7.4915,37.20816],[-7.488,37.21635],[-7.35144,37.64444],[-7.24251,37.8109],[-6.84478,38.10021],[-7.0281,38.23958],[-7.39388,38.29499],[-7.31734,38.49963],[-7.08942,38.7945],[-6.93338,38.96135],[-7.00687,39.05032],[-7.21144,39.29821],[-7.431,39.52052],[-7.30126,39.57871],[-7.0842,39.59907],[-6.87832,39.7024],[-6.85868,39.79192],[-6.88417,40.21403],[-6.82486,40.65657],[-6.85717,40.86158],[-6.83445,41.06054],[-6.79663,41.09283],[-6.24115,41.32048],[-6.11154,41.41746],[-6.1395,41.52644],[-6.51843,41.7491],[-6.58608,41.85792],[-6.7087,41.96004],[-6.85952,41.98491],[-7.09844,41.86795],[-7.91856,41.88917],[-8.15726,42.08704],[-8.40505,42.00214],[-8.80606,41.88918]]]]}},{"type":"Feature","properties":{"id":"granada","name":"Granada","period":"c. 1400","source":"Historical Basemaps world_1400; approximate continental-scale reconstruction","precision":"approximate"},"geometry":{"type":"MultiPolygon","coordinates":[[[[-2.62433,36.8113],[-2.7615,36.69014],[-2.91533,36.69014],[-2.96979,36.74115],[-4.44659,36.72202],[-4.7573,36.48611],[-5.21674,36.4096],[-5.37423,36.23748],[-5.38675,36.10998],[-5.42426,36.07174],[-5.45709,36.16736],[-5.48793,36.17372],[-5.48549,36.06537],[-5.66059,36.00801],[-5.85001,36.07174],[-6.20446,36.2821],[-6.30497,36.45422],[-6.28888,36.57218],[-6.44403,36.62318],[-6.50049,36.71883],[-6.42171,36.79216],[-6.63215,37.02175],[-5.20072,37.53295],[-3.96437,37.45568],[-2.62433,36.8113]]]]}},{"type":"Feature","properties":{"id":"hre","name":"Holy Roman Empire","period":"c. 1400","source":"Historical Basemaps world_1400; approximate continental-scale reconstruction","precision":"approximate"},"geometry":{"type":"MultiPolygon","coordinates":[[[[1.79618,50.92141],[1.82551,50.24269],[1.98662,50.21967],[1.98662,50.08157],[2.14774,50.05856],[2.40091,50.19666],[2.67711,50.15062],[2.90727,49.94348],[3.48268,49.92046],[3.82033,50.03945],[4.25522,49.88724],[5.36113,49.69676],[5.90926,49.20086],[5.90387,49.19577],[5.61162,49.20968],[5.72295,48.95919],[5.87603,49.07052],[6.00128,48.90352],[5.83428,48.77828],[6.0152,48.65303],[5.94562,48.34687],[6.23786,48.29121],[6.25177,47.95721],[6.09869,48.0268],[6.05695,47.95721],[5.95953,47.98505],[5.95953,47.80413],[5.82037,47.73455],[5.91778,47.59539],[5.79254,47.51189],[5.77862,47.35881],[5.73687,47.23356],[5.66729,47.10832],[5.79387,46.99724],[5.75702,46.88667],[5.64644,46.84981],[5.62554,46.64908],[5.73966,46.59783],[5.72493,46.47999],[5.64572,46.45672],[5.41559,46.52418],[5.26828,46.31795],[5.53343,46.097],[5.53343,46.00861],[5.35667,46.0528],[5.35667,45.87604],[5.60708,45.84658],[5.82336,45.39624],[5.93454,45.32212],[5.94689,45.26036],[6.05807,45.2233],[6.03336,45.33448],[6.08278,45.37154],[6.14454,45.32212],[6.21866,45.34683],[6.26807,45.32212],[6.24337,45.29742],[6.28043,45.19859],[6.50732,45.11571],[6.66532,44.95452],[6.9426,44.86865],[7.00347,44.71954],[6.92469,44.71502],[6.78292,44.54787],[6.86978,44.34917],[6.78691,44.29681],[6.78691,44.19799],[6.83632,44.11151],[6.88573,44.14857],[6.93514,44.13622],[6.9722,44.0621],[6.99691,44.04975],[6.92279,43.97563],[6.95985,43.91386],[6.88573,43.90151],[6.92279,43.81504],[7.35515,43.90151],[7.39712,43.76409],[7.46753,43.81083],[7.55281,43.86745],[7.68912,43.88705],[7.97953,43.96492],[8.08957,44.05083],[8.18636,44.1264],[8.67172,44.4174],[8.89659,44.43719],[9.15704,44.37324],[9.69194,44.2196],[9.8255,44.15255],[9.9093,44.11048],[10.13675,43.90477],[10.15524,43.8811],[10.26138,43.74524],[10.29248,43.70544],[10.33791,43.5962],[10.48775,43.23594],[10.74276,42.85051],[11.10476,42.54908],[11.49737,42.37635],[11.96013,42.00737],[12.01993,42.0987],[12.00333,42.24814],[12.06975,42.29795],[12.05314,42.53041],[12.12972,42.59605],[12.16937,42.63004],[12.15277,42.69645],[12.18598,42.91231],[12.16937,42.91231],[12.15277,43.06175],[12.21919,43.22779],[12.30221,43.2776],[12.30221,43.34402],[12.69723,43.93476],[12.50812,44.13146],[12.34508,44.30104],[12.28073,44.55012],[12.27358,44.67264],[12.37777,44.73153],[12.47604,44.78709],[12.52309,44.88275],[12.40899,44.98901],[12.32214,45.04237],[12.31251,45.17829],[12.17619,45.21429],[11.97067,45.43624],[12.14482,45.76277],[12.64549,45.91514],[13.08086,45.98045],[13.3677,45.69449],[13.43773,45.63843],[13.56461,45.72652],[13.67318,45.71451],[13.79998,45.56637],[13.99513,45.45801],[13.95159,45.3927],[13.79921,45.30563],[13.90806,44.97911],[14.17461,45.01039],[14.23862,45.06235],[14.35449,45.32289],[14.52667,45.783],[14.79847,45.86455],[14.88001,45.48402],[15.42362,45.42966],[15.46982,45.73408],[16.12215,45.58187],[16.20913,45.73408],[16.07866,45.88629],[16.20913,46.14722],[16.44832,46.10373],[16.53529,46.36466],[16.29611,46.40815],[16.51355,46.62559],[16.44832,46.7778],[16.44832,46.93001],[16.55704,47.06048],[16.55704,47.19095],[16.64402,47.29967],[16.55704,47.49537],[16.62227,47.73455],[16.79622,47.84327],[17.40778,47.82153],[17.46214,48.06615],[17.21752,48.06615],[17.19034,48.44668],[17.35342,48.9631],[17.86985,48.80002],[18.11447,48.85438],[18.11447,48.99028],[18.22319,48.99028],[18.25037,49.18055],[18.52218,49.56107],[18.92671,49.62196],[18.89645,49.71273],[18.79632,49.71345],[18.76907,50.17699],[18.74563,50.26604],[18.64604,50.64451],[18.14006,50.98766],[17.63977,51.43688],[17.55255,51.65493],[17.29089,51.78576],[17.20367,51.61132],[16.85479,51.65493],[16.85479,51.91659],[16.50591,52.17825],[16.50591,52.00381],[16.0951,52.12417],[15.76453,52.26547],[15.76017,52.57074],[15.81599,52.57074],[15.84391,52.71029],[16.05312,52.71645],[16.20376,53.34333],[16.41554,53.52486],[16.20376,53.70639],[16.65758,53.85766],[16.80886,53.46435],[16.80886,53.85766],[16.68784,54.03919],[16.99039,54.19047],[17.11141,54.12996],[17.74676,54.43251],[17.65761,54.68546],[16.9759,54.54931],[16.47325,54.41503],[16.11468,54.19961],[15.89836,54.1284],[15.31169,54.071],[15.07968,54.00252],[14.88576,53.97956],[14.58024,53.92902],[14.46741,53.91035],[14.47294,53.87678],[14.48252,53.81853],[14.55694,53.75988],[14.5653,53.6936],[14.4953,53.62479],[14.53706,53.53817],[14.43316,53.59421],[14.28019,53.61342],[14.18958,53.62479],[14.17686,53.68341],[14.00974,53.67321],[13.85017,53.72929],[13.7805,53.77518],[13.76433,53.87719],[13.73778,54.03029],[13.66761,54.08417],[13.43102,54.03025],[13.34917,54.06349],[13.06377,54.19369],[13.02581,54.26522],[12.94314,54.34698],[12.7648,54.27033],[12.65252,54.32143],[12.46254,54.25479],[12.31188,54.20194],[12.04107,54.09666],[11.56502,54.03538],[11.40782,53.85929],[11.20249,53.85678],[11.15138,53.93842],[10.9604,53.89843],[10.89351,53.88443],[10.88371,53.88238],[10.85892,53.87719],[10.77092,53.93087],[10.71672,53.96393],[11.01589,54.09666],[11.04137,54.1527],[11.07301,54.21963],[11.03861,54.31325],[10.64859,54.25898],[10.44597,54.29203],[10.34024,54.36232],[10.21288,54.37192],[10.14173,54.33675],[9.8848,54.2541],[9.82665,54.27591],[9.73943,54.27591],[9.67401,54.18869],[9.44868,54.18869],[9.44141,54.24683],[9.29604,54.24683],[9.2597,54.30498],[9.21609,54.29045],[9.16521,54.31952],[9.13613,54.29772],[9.05618,54.3486],[8.96168,54.27591],[8.88401,54.22945],[8.8533,54.16816],[8.77879,54.1324],[8.83265,54.06602],[8.94634,54.01497],[8.81897,53.96904],[8.8571,53.86699],[9.12504,53.79048],[8.84848,53.74968],[8.5856,53.79308],[8.53954,53.80068],[8.51624,53.76104],[8.42866,53.61205],[8.5018,53.44903],[8.30565,53.52543],[8.189,53.53052],[8.26077,53.43885],[8.24193,53.35229],[8.17499,53.32174],[8.02908,53.37265],[8.09873,53.44393],[8.01102,53.56569],[7.96854,53.63753],[7.87503,53.63369],[7.83638,53.63209],[7.33239,53.60443],[7.16564,53.59167],[7.03733,53.51015],[6.98071,53.31666],[7.18975,53.23014],[7.15994,53.164],[7.04328,53.164],[7.00906,53.24541],[6.86105,53.26576],[6.75072,53.38986],[6.26072,53.32174],[5.96631,53.33501],[5.64735,53.22776],[5.38952,53.13857],[5.33212,53.01145],[5.34275,52.99631],[5.35802,52.93775],[5.32575,52.79041],[5.57638,52.75993],[5.65344,52.74978],[5.54689,52.6787],[5.55571,52.58732],[5.61125,52.5315],[5.81714,52.52136],[5.75691,52.33372],[5.57437,52.28302],[5.47319,52.1766],[4.94983,52.27795],[5.03574,52.33372],[5.00609,52.55688],[5.10824,52.5315],[5.23463,52.62285],[5.17329,52.74342],[5.0084,52.85619],[4.71877,52.80242],[4.64101,52.7557],[4.38724,52.23037],[4.26441,52.07089],[3.87814,51.79173],[3.52032,51.57914],[3.74348,51.46045],[3.77505,51.38774],[3.6813,51.32142],[3.47202,51.31439],[3.21361,51.35357],[2.99526,51.31348],[2.52213,51.09112],[2.4426,51.04803],[2.03033,51.00666],[1.82356,50.93456],[1.79618,50.92141]],[[10.65,43.55],[10.85,43.91],[11.3,44.1],[11.78,43.97],[12.05,43.7],[12.05,43.38],[11.55,43.2],[11.25,43.38],[10.85,43.35],[10.65,43.55]]],[[[13.7774,53.94862],[13.82777,53.82972],[14.02872,53.86548],[14.06835,53.84347],[14.14543,53.82645],[14.20541,53.81321],[14.17417,53.90676],[14.06995,53.91777],[13.77841,54.04441],[13.7774,53.94862]]],[[[14.22724,53.90951],[14.2479,53.81596],[14.33386,53.82972],[14.45907,53.81871],[14.47294,53.87678],[14.42484,53.91502],[14.30526,53.91502],[14.22724,53.90951]]]]}},{"type":"Feature","properties":{"id":"papal","name":"Papal States","period":"c. 1400","source":"Historical Basemaps world_1400; approximate continental-scale reconstruction","precision":"approximate"},"geometry":{"type":"MultiPolygon","coordinates":[[[[12.69723,43.93476],[13.60087,43.5348],[13.73156,43.37416],[13.79163,43.12334],[13.91509,42.87276],[14.0764,42.63378],[13.99583,42.61343],[13.92942,42.53041],[13.82979,42.56362],[13.82979,42.4806],[13.76338,42.46399],[13.71356,42.39758],[13.63054,42.53041],[13.54752,42.43079],[13.41469,42.36437],[13.4645,42.23153],[13.41469,42.19833],[13.58073,42.0987],[13.58073,42.04889],[13.63054,42.01568],[13.63054,41.93266],[13.56413,41.86624],[13.59733,41.79983],[13.64715,41.75001],[13.64715,41.79983],[13.863,41.75001],[13.863,41.78322],[13.92942,41.75001],[13.87961,41.66699],[13.87961,41.63378],[13.92942,41.63378],[13.96263,41.51755],[13.96263,41.46774],[14.02904,41.40132],[13.99583,41.35151],[13.97923,41.33491],[13.81319,41.3183],[13.76051,41.2067],[13.49839,41.30186],[13.27145,41.31424],[12.97678,41.37138],[12.64152,41.5311],[12.39485,41.72955],[11.96343,42.00474],[11.96013,42.00737],[12.01993,42.0987],[12.00333,42.24814],[12.06975,42.29795],[12.05314,42.53041],[12.12972,42.59605],[12.16937,42.63004],[12.15277,42.69645],[12.18598,42.91231],[12.16937,42.91231],[12.15277,43.06175],[12.21919,43.22779],[12.30221,43.2776],[12.30221,43.34402],[12.69723,43.93476]]]]}},{"type":"Feature","properties":{"id":"veniceState","name":"Republic of Venice","period":"c. 1400","source":"Historical Basemaps world_1400; approximate continental-scale reconstruction","precision":"approximate"},"geometry":{"type":"MultiPolygon","coordinates":[[[[13.3677,45.69449],[13.15617,45.72652],[13.10461,45.58239],[12.89865,45.55837],[12.44816,45.39429],[12.48321,45.46231],[12.27974,45.40229],[12.25142,45.29028],[12.18037,45.27028],[12.17619,45.21429],[11.97067,45.43624],[12.14482,45.76277],[12.64549,45.91514],[13.08086,45.98045],[13.3677,45.69449]]],[[[14.17461,45.01039],[14.18851,44.94255],[14.0604,44.8947],[13.99126,44.7831],[13.8951,44.75918],[13.67206,45.05036],[13.64359,45.17909],[13.52689,45.45431],[13.55628,45.4596],[13.74909,45.49433],[13.79998,45.56637],[13.99513,45.45801],[13.95159,45.3927],[13.79921,45.30563],[13.90806,44.97911],[14.17461,45.01039]]]]}},{"type":"Feature","properties":{"id":"aragon","name":"Aragon","period":"c. 1400","source":"Historical Basemaps world_1400; approximate continental-scale reconstruction","precision":"approximate"},"geometry":{"type":"MultiPolygon","coordinates":[[[[-1.6643,42.12542],[-0.90735,42.8813],[-0.84002,42.90865],[-0.61198,42.73088],[-0.58679,42.76506],[-0.46884,42.75139],[-0.40991,42.78557],[-0.21614,42.7172],[-0.20366,42.70031],[-0.16563,42.64884],[0.17955,42.66252],[0.19627,42.60783],[0.34784,42.63517],[0.59192,42.62833],[0.58414,42.77189],[0.7442,42.77189],[1.30745,42.63517],[1.32046,42.60501],[1.32046,42.60501],[1.45631,42.61895],[1.57717,42.64785],[1.75543,42.59672],[1.79169,42.57892],[1.73126,42.54554],[1.72824,42.501],[2.10289,42.61451],[2.27209,42.69006],[2.48056,42.68562],[2.48962,42.71892],[2.70112,42.73002],[2.825,42.84975],[2.94888,42.88297],[3.03927,42.86919],[3.00189,42.77081],[3.0459,42.53946],[3.08708,42.36864],[3.08708,42.36864],[3.08653,42.32911],[3.08629,42.12072],[3.15655,42.07572],[3.12888,41.85723],[2.62826,41.61954],[2.20059,41.44615],[2.08072,41.29849],[1.60983,41.20916],[1.31124,41.15725],[0.8792,41.02174],[0.73375,40.87495],[0.70978,40.78515],[0.82713,40.72742],[0.78756,40.65689],[0.50514,40.59276],[0.23793,40.2402],[-0.16063,39.88602],[-0.20366,39.79944],[-0.28452,39.63677],[-0.39485,39.43446],[-0.2359,39.0624],[-0.20366,39.01265],[-0.1657,38.95406],[0.12612,38.82135],[0.17257,38.73835],[-0.107,38.5915],[-0.20366,38.54403],[-0.43516,38.43034],[-0.56413,38.21487],[-0.66473,38.17657],[-0.87234,37.7598],[-0.80256,37.61501],[-0.91827,37.57034],[-1.36457,37.54839],[-1.62571,37.43949],[-1.81688,37.29248],[-1.94048,36.9516],[-2.14926,37.23302],[-1.92104,37.65142],[-2.03515,37.8416],[-1.88301,37.9557],[-1.65479,37.91767],[-1.65479,38.18392],[-1.80693,38.25999],[-1.80693,38.52625],[-2.03515,38.60232],[-2.03515,39.24893],[-1.80693,39.17286],[-1.80693,39.47715],[-1.99711,39.59126],[-1.99711,39.7434],[-1.80693,39.85751],[-1.99711,39.97162],[-1.99711,40.08573],[-2.3014,40.23787],[-2.3014,40.39002],[-1.92104,40.61824],[-2.03515,41.22681],[-2.3014,41.26485],[-2.3014,41.49307],[-2.14926,41.49307],[-2.13001,41.81657],[-1.60487,41.76883],[-1.6643,42.12542]]]]}},{"type":"Feature","properties":{"id":"hungary","name":"Kingdom of Hungary","period":"c. 1400","source":"Historical Basemaps world_1400; approximate continental-scale reconstruction","precision":"approximate"},"geometry":{"type":"MultiPolygon","coordinates":[[[[14.35449,45.32289],[14.52667,45.783],[14.79847,45.86455],[14.88001,45.48402],[15.42362,45.42966],[15.46982,45.73408],[16.12215,45.58187],[16.20913,45.73408],[16.07866,45.88629],[16.20913,46.14722],[16.44832,46.10373],[16.53529,46.36466],[16.29611,46.40815],[16.51355,46.62559],[16.44832,46.7778],[16.44832,46.93001],[16.55704,47.06048],[16.55704,47.19095],[16.64402,47.29967],[16.55704,47.49537],[16.62227,47.73455],[16.79622,47.84327],[17.40778,47.82153],[17.46214,48.06615],[17.21752,48.06615],[17.19034,48.44668],[17.35342,48.9631],[17.86985,48.80002],[18.11447,48.85438],[18.11447,48.99028],[18.22319,48.99028],[18.25037,49.18055],[18.52218,49.56107],[18.92671,49.62196],[19.10824,49.59171],[19.13849,49.71273],[19.38053,49.80349],[19.56206,49.71273],[19.56206,49.5312],[19.71334,49.5312],[19.89487,49.47069],[20.01589,49.80349],[20.34869,49.74298],[20.53022,49.80349],[20.6815,49.65222],[20.89328,49.74298],[20.80252,49.83375],[20.89328,49.83375],[20.98405,49.74298],[21.13532,49.83375],[21.2866,49.77324],[21.31685,49.864],[21.76806,49.74368],[21.77068,49.59171],[24.29711,48.75652],[27.17053,47.97286],[27.42832,47.38362],[27.62766,46.92798],[27.36644,46.34024],[26.98655,46.10646],[26.51748,45.8178],[23.05631,45.03414],[22.66448,44.64231],[22.33796,44.77292],[22.07674,44.44639],[21.35838,44.77292],[20.99418,44.70008],[20.70533,44.64231],[20.31366,44.90109],[20.29067,44.89966],[19.78508,44.93614],[18.93865,44.39285],[17.75376,44.39285],[17.45754,44.146],[16.8651,44.24474],[16.70148,43.84666],[16.71152,43.77133],[16.63981,43.38974],[16.54851,43.46131],[16.36675,43.51302],[16.05941,43.43348],[15.91284,43.65225],[15.49437,43.88844],[15.41232,43.93476],[15.14947,44.23993],[15.27441,44.23661],[15.54822,44.22935],[15.28594,44.32892],[14.98911,44.54003],[14.90696,44.72332],[14.94553,44.92659],[14.81539,45.07787],[14.52459,45.26628],[14.35449,45.32289]]]]}},{"type":"Feature","properties":{"id":"ireland","name":"Ireland","period":"c. 1400","source":"Island geometry separated from the English-territory feature; a geographic label, not a claim of unified sovereignty","precision":"approximate"},"geometry":{"type":"MultiPolygon","coordinates":[[[[-6.20639,53.95675],[-6.34315,53.93964],[-6.4434,53.89938],[-6.33498,53.78598],[-6.17221,53.4392],[-6.04306,52.89309],[-6.07068,52.7666],[-6.23211,52.61333],[-6.3409,52.42706],[-6.40597,52.21444],[-6.48915,52.19436],[-6.61682,52.22066],[-6.8939,52.20665],[-6.96168,52.1112],[-7.37241,52.09211],[-7.75065,52.03271],[-7.86165,51.96809],[-8.15881,51.83964],[-8.56523,51.61545],[-8.84776,51.59982],[-9.24331,51.47263],[-9.81911,51.43455],[-9.79524,51.60463],[-9.83542,51.80326],[-10.21691,51.75835],[-10.29403,51.97763],[-9.96377,52.09211],[-10.49733,52.10165],[-10.46924,52.20665],[-9.89064,52.19443],[-9.80161,52.24108],[-9.784,52.34071],[-9.73572,52.48028],[-9.50399,52.54055],[-9.19263,52.55446],[-9.13429,52.6809],[-9.61569,52.63663],[-9.44156,52.83328],[-9.52576,52.90456],[-9.30935,53.11527],[-8.997,53.12044],[-8.92358,53.16058],[-9.00167,53.30038],[-9.15816,53.2207],[-9.29736,53.2798],[-9.44067,53.26621],[-9.6167,53.34588],[-9.80292,53.34535],[-9.88481,53.2974],[-10.15983,53.37412],[-10.02107,53.51186],[-10.15143,53.57564],[-9.8096,53.63242],[-9.87239,53.76772],[-9.69648,53.87342],[-9.91285,53.96956],[-10.17854,53.91187],[-10.15968,54.13307],[-9.98879,54.25372],[-9.89197,54.32558],[-9.47429,54.24131],[-9.32291,54.27507],[-9.08584,54.25819],[-8.59008,54.20285],[-8.68673,54.36411],[-8.30058,54.48935],[-8.21148,54.63392],[-8.82936,54.63392],[-8.76004,54.70143],[-8.50374,54.74964],[-8.47625,54.87985],[-8.34538,55.09528],[-8.11832,55.17663],[-7.75623,55.25273],[-7.65728,55.11683],[-7.49783,55.04974],[-7.42752,55.0638],[-7.22549,55.10419],[-6.99682,55.17202],[-6.6452,55.20643],[-6.45431,55.18655],[-6.27926,55.13969],[-6.11652,55.16022],[-6.01819,55.093],[-5.78489,54.73742],[-5.76368,54.65699],[-5.79993,54.52289],[-5.66151,54.32225],[-5.73139,54.17487],[-5.91215,54.02738],[-6.07171,53.97359],[-6.20639,53.95675]]]]}},{"type":"Feature","properties":{"id":"england","name":"England","period":"c. 1400","source":"British mainland geometry separated from the English-territory feature; includes Wales as in the classroom map","precision":"approximate"},"geometry":{"type":"MultiPolygon","coordinates":[[[[-0.20366,53.52328],[0.08102,53.38623],[0.17452,53.29306],[0.26785,53.12666],[0.25087,53.04005],[0.0055,52.78667],[0.32683,52.70748],[0.50467,52.84751],[0.74184,52.9012],[1.01266,52.88842],[1.37593,52.80924],[1.58571,52.65004],[1.69169,52.31142],[1.65687,52.21178],[1.51189,52.02576],[1.03129,51.81272],[0.68622,51.56039],[0.25417,51.4536],[0.80425,51.37827],[1.03007,51.35885],[1.18937,51.40547],[1.36468,51.3529],[1.33496,51.1207],[0.88602,50.98189],[0.88835,50.89267],[0.67257,50.93067],[0.19181,50.73128],[-0.20366,50.79533],[-0.33571,50.81671],[-0.83904,50.7218],[-1.10336,50.81671],[-1.37251,50.76627],[-2.08536,50.70282],[-2.02369,50.57001],[-2.43199,50.64589],[-2.55051,50.57001],[-2.96062,50.7218],[-3.11088,50.65736],[-3.52147,50.61743],[-3.56318,50.36143],[-3.71504,50.21934],[-3.88174,50.2004],[-4.00424,50.31406],[-4.24263,50.39146],[-4.3033,50.32354],[-4.54057,50.35795],[-4.96703,50.21225],[-5.28234,49.96382],[-5.42922,50.06785],[-5.77781,50.13412],[-5.23777,50.34629],[-5.01665,50.56052],[-4.81527,50.60417],[-4.60456,50.77875],[-4.55154,50.99716],[-4.44256,50.96866],[-4.27728,51.06367],[-4.28099,51.18724],[-3.82523,51.23478],[-3.483,51.18111],[-3.06604,51.17774],[-3.03315,51.32989],[-2.89466,51.39385],[-2.75015,51.64403],[-3.17275,51.46691],[-3.49912,51.45966],[-4.15933,51.67681],[-4.99896,51.7017],[-5.1786,51.78747],[-5.24876,51.86021],[-5.06146,52.00643],[-4.61908,52.09352],[-4.29466,52.20032],[-4.12361,52.37326],[-4.09387,52.74551],[-4.14755,52.8319],[-4.46832,52.8113],[-4.62135,52.83098],[-4.49188,52.99098],[-4.31754,53.09121],[-3.95672,53.20515],[-3.32954,53.23302],[-2.91448,53.26714],[-3.05674,53.51361],[-2.97954,53.82085],[-2.86532,54.02827],[-2.88594,54.16867],[-3.26147,54.14118],[-3.47927,54.2746],[-3.56923,54.41503],[-3.43041,54.64308],[-3.15253,54.83806],[-2.24501,55.81097],[-1.942,55.55607],[-1.71901,55.45374],[-1.66598,55.37959],[-1.69599,55.2725],[-1.55562,54.92161],[-1.38889,54.68048],[-1.19206,54.59536],[-0.8706,54.54717],[-0.6048,54.30016],[-0.2955,54.03317],[-0.23488,53.79938],[-0.31922,53.57891],[-0.20366,53.52328]]]]}},{"type":"Feature","properties":{"id":"naples","name":"Kingdom of Naples","period":"c. 1400","source":"Mainland Sicily feature relabelled Kingdom of Naples to distinguish the two kingdoms","precision":"approximate"},"geometry":{"type":"MultiPolygon","coordinates":[[[[14.0764,42.63378],[14.09277,42.60953],[14.40493,42.35311],[14.51931,42.2297],[14.71996,42.14176],[14.73853,42.04716],[14.92241,41.97177],[15.44861,41.85673],[16.01284,41.90432],[16.18741,41.84086],[16.19841,41.74567],[15.98915,41.63465],[15.87325,41.50214],[15.99104,41.40614],[16.42027,41.27872],[16.94596,41.09381],[17.31927,40.92925],[18.03392,40.59665],[18.05994,40.51353],[18.38361,40.30775],[18.52265,40.09413],[18.43368,39.89841],[18.36492,39.74672],[18.16013,39.87313],[18.01707,39.94789],[17.96775,40.16689],[17.8496,40.2435],[17.61915,40.28784],[17.40165,40.29193],[17.20417,40.39794],[17.2428,40.49576],[17.08408,40.52511],[16.94871,40.48109],[16.84413,40.36314],[16.72756,40.1836],[16.60441,40.08991],[16.62385,39.96775],[16.53501,39.83157],[16.5321,39.69751],[16.87399,39.54365],[17.14907,39.4218],[17.10742,39.28047],[17.121,39.08602],[17.18071,39.02221],[17.09469,38.91502],[16.7977,38.92586],[16.61333,38.82733],[16.5222,38.72502],[16.572,38.45712],[16.33069,38.32074],[16.05294,37.93117],[15.78524,37.90971],[15.71023,37.94144],[15.62748,38.00421],[15.62658,38.23308],[15.79087,38.2964],[15.93347,38.53992],[15.8273,38.62273],[15.98985,38.73476],[16.15221,38.70127],[16.21223,38.77795],[16.17721,38.93099],[16.08256,39.01247],[15.98955,39.42835],[15.82467,39.66063],[15.75702,39.93363],[15.6662,40.09186],[15.51592,40.06595],[15.43203,39.98897],[15.02726,40.2122],[14.89867,40.24146],[14.99232,40.37222],[14.95101,40.55148],[14.74332,40.70481],[14.33413,40.5936],[14.34977,40.64252],[14.49459,40.72996],[14.37031,40.85147],[14.24,40.85294],[14.05087,40.76751],[13.94188,40.99804],[13.8525,41.09096],[13.79701,41.19345],[13.76051,41.2067],[13.81319,41.3183],[13.97923,41.33491],[13.99583,41.35151],[14.02904,41.40132],[13.96263,41.46774],[13.96263,41.51755],[13.92942,41.63378],[13.87961,41.63378],[13.87961,41.66699],[13.92942,41.75001],[13.863,41.78322],[13.863,41.75001],[13.64715,41.79983],[13.64715,41.75001],[13.59733,41.79983],[13.56413,41.86624],[13.63054,41.93266],[13.63054,42.01568],[13.58073,42.04889],[13.58073,42.0987],[13.41469,42.19833],[13.4645,42.23153],[13.41469,42.36437],[13.54752,42.43079],[13.63054,42.53041],[13.71356,42.39758],[13.76338,42.46399],[13.82979,42.4806],[13.82979,42.56362],[13.92942,42.53041],[13.99583,42.61343],[14.0764,42.63378]]]]}},{"type":"Feature","properties":{"id":"sicily","name":"Kingdom of Sicily","period":"c. 1400","source":"Island Sicily feature separated from the mainland kingdom","precision":"approximate"},"geometry":{"type":"MultiPolygon","coordinates":[[[[14.9424,36.73856],[14.62202,36.77614],[14.21591,37.04932],[13.8684,37.15695],[13.01157,37.52489],[12.63688,37.5815],[12.53204,37.63867],[12.45415,37.76601],[12.51664,37.91917],[12.66433,38.0725],[12.78284,38.11738],[13.06595,38.06693],[13.32248,38.22051],[13.62796,38.02981],[13.80953,37.96642],[14.13447,37.97345],[14.76587,38.05761],[15.38674,38.20555],[15.45369,38.16742],[15.47289,38.11006],[15.42252,38.05257],[15.18103,37.68228],[15.11218,37.45903],[15.11625,37.28694],[15.30135,37.0579],[15.22063,37.00038],[15.02734,36.74512],[14.9424,36.73856]]]]}},{"type":"Feature","properties":{"id":"genoa","name":"Republic of Genoa","period":"c. 1400","source":"Supplementary approximate mainland coastal outline based on the classroom historical reference; Corsica and overseas possessions omitted; Corsica added from the historical context layer, checked against The Met Italian chronology","precision":"approximate"},"geometry":{"type":"MultiPolygon","coordinates":[[[[7.55,43.8],[7.65,44.02],[8.1,44.24],[8.45,44.5],[8.98,44.63],[9.48,44.47],[9.86,44.28],[9.91,44.06],[9.49,44.12],[9.22,44.32],[8.98,44.4],[8.64,44.3],[8.41,44.25],[8.15,44.02],[7.91,43.85],[7.55,43.8]]],[[[9.43216,42.79414],[9.40549,42.5806],[9.45855,42.55606],[9.48671,42.40638],[9.45251,42.04831],[9.35746,41.90121],[9.30454,41.57527],[9.17302,41.34991],[9.03894,41.3695],[9.01327,41.45768],[8.82875,41.49198],[8.72692,41.56057],[8.85465,41.65368],[8.82325,41.68798],[8.62693,41.73209],[8.74245,41.8816],[8.69283,41.91346],[8.56187,41.8816],[8.53793,41.94778],[8.58959,41.95759],[8.66831,42.02869],[8.62645,42.09734],[8.5107,42.13412],[8.51725,42.2077],[8.62842,42.26166],[8.50045,42.35978],[8.6093,42.48735],[8.879,42.62477],[9.00039,42.63459],[9.01843,42.69104],[9.14946,42.71067],[9.23769,42.66404],[9.28039,42.72786],[9.27052,42.88251],[9.30319,42.98319],[9.36705,42.9881],[9.41424,42.90953],[9.43216,42.79414]]]]}}]}